{
  "nbformat": 4,
  "nbformat_minor": 0,
  "metadata": {
    "colab": {
      "name": "Untitled7.ipynb",
      "provenance": [],
      "authorship_tag": "ABX9TyPC6VULB8jDILxrY0Juz1go",
      "include_colab_link": true
    },
    "kernelspec": {
      "name": "python3",
      "display_name": "Python 3"
    },
    "language_info": {
      "name": "python"
    }
  },
  "cells": [
    {
      "cell_type": "markdown",
      "metadata": {
        "id": "view-in-github",
        "colab_type": "text"
      },
      "source": [
        "<a href=\"https://colab.research.google.com/github/JozefSL/pyNotes/blob/main/asosMetar.ipynb\" target=\"_parent\"><img src=\"https://colab.research.google.com/assets/colab-badge.svg\" alt=\"Open In Colab\"/></a>"
      ]
    },
    {
      "cell_type": "code",
      "source": [
        "## From https://mesonet.agron.iastate.edu/request/download.phtml?network=CO_ASOS\n",
        "## https://github.com/akrherz/iem/blob/main/scripts/asos/iem_scraper_example.py"
      ],
      "metadata": {
        "id": "znfuP9fiBYmH"
      },
      "execution_count": null,
      "outputs": []
    },
    {
      "cell_type": "code",
      "execution_count": 51,
      "metadata": {
        "id": "b2nmZSysIgLq"
      },
      "outputs": [],
      "source": [
        "import json\n",
        "import time\n",
        "import datetime\n",
        "from urllib.request import urlopen\n",
        "import pandas as pd"
      ]
    },
    {
      "cell_type": "code",
      "source": [
        "# Number of attempts to download data\n",
        "MAX_ATTEMPTS = 6\n",
        "# HTTPS here can be problematic for installs that don't have Lets Encrypt CA\n",
        "SERVICE = \"http://mesonet.agron.iastate.edu/cgi-bin/request/asos.py?\""
      ],
      "metadata": {
        "id": "XzdjIR2_r_vk"
      },
      "execution_count": 8,
      "outputs": []
    },
    {
      "cell_type": "code",
      "source": [
        "def download_data(uri):\n",
        "    \"\"\"Fetch the data from the IEM\n",
        "    The IEM download service has some protections in place to keep the number\n",
        "    of inbound requests in check.  This function implements an exponential\n",
        "    backoff to keep individual downloads from erroring.\n",
        "    Args:\n",
        "      uri (string): URL to fetch\n",
        "    Returns:\n",
        "      string data\n",
        "    \"\"\"\n",
        "    attempt = 0\n",
        "    while attempt < MAX_ATTEMPTS:\n",
        "        try:\n",
        "            data = urlopen(uri, timeout=300).read().decode(\"utf-8\")\n",
        "            if data is not None and not data.startswith(\"ERROR\"):\n",
        "                return data\n",
        "        except Exception as exp:\n",
        "            print(\"download_data(%s) failed with %s\" % (uri, exp))\n",
        "            time.sleep(5)\n",
        "        attempt += 1\n",
        "\n",
        "    print(\"Exhausted attempts to download, returning empty data\")\n",
        "    return \"\""
      ],
      "metadata": {
        "id": "Gg5I-0ARr_2O"
      },
      "execution_count": 9,
      "outputs": []
    },
    {
      "cell_type": "code",
      "source": [
        "def get_stations_from_filelist(filename):\n",
        "    \"\"\"Build a listing of stations from a simple file listing the stations.\n",
        "    The file should simply have one station per line.\n",
        "    \"\"\"\n",
        "    stations = []\n",
        "    for line in open(filename):\n",
        "        stations.append(line.strip())\n",
        "    return "
      ],
      "metadata": {
        "id": "NOUjUmPBr_8H"
      },
      "execution_count": 10,
      "outputs": []
    },
    {
      "cell_type": "code",
      "source": [
        "def get_stations_from_networks():\n",
        "    \"\"\"Build a station list by using a bunch of IEM networks.\"\"\"\n",
        "    stations = []\n",
        "    #states = \"\"\"AK AL AR AZ CA CO CT DE FL GA HI IA ID IL IN KS KY LA MA MD ME\n",
        "    #MI MN MO MS MT NC ND NE NH NJ NM NV NY OH OK OR PA RI SC SD TN TX UT VA VT\n",
        "    #WA WI WV WY\"\"\"\n",
        "    states = \"\"\"MD DC\"\"\" # my states option\n",
        "    networks = []\n",
        "    for state in states.split():\n",
        "        networks.append(\"%s_ASOS\" % (state,))\n",
        "\n",
        "    for network in networks:\n",
        "        # Get metadata\n",
        "        uri = (\n",
        "            \"https://mesonet.agron.iastate.edu/geojson/network/%s.geojson\"\n",
        "        ) % (network,)\n",
        "        data = urlopen(uri)\n",
        "        jdict = json.load(data)\n",
        "        for site in jdict[\"features\"]:\n",
        "            stations.append(site[\"properties\"][\"sid\"])\n",
        "    return stations"
      ],
      "metadata": {
        "id": "MLkNx5J_sQaJ"
      },
      "execution_count": 33,
      "outputs": []
    },
    {
      "cell_type": "code",
      "source": [
        "def download_alldata():\n",
        "    \"\"\"An alternative method that fetches all available data.\n",
        "    Service supports up to 24 hours worth of data at a time.\"\"\"\n",
        "    # timestamps in UTC to request data for\n",
        "    startts = datetime.datetime(2012, 8, 1)\n",
        "    endts = datetime.datetime(2012, 9, 1)\n",
        "    interval = datetime.timedelta(hours=24)\n",
        "\n",
        "    service = SERVICE + \"data=all&tz=Etc/UTC&format=comma&latlon=yes&\"\n",
        "\n",
        "    now = startts\n",
        "    while now < endts:\n",
        "        thisurl = service\n",
        "        thisurl += now.strftime(\"year1=%Y&month1=%m&day1=%d&\")\n",
        "        thisurl += (now + interval).strftime(\"year2=%Y&month2=%m&day2=%d&\")\n",
        "        print(\"Downloading: %s\" % (now,))\n",
        "        data = download_data(thisurl)\n",
        "        outfn = \"%s.txt\" % (now.strftime(\"%Y%m%d\"),)\n",
        "        with open(outfn, \"w\") as fh:\n",
        "            fh.write(data)\n",
        "        now += interval"
      ],
      "metadata": {
        "id": "IPadZJ4NsQdo"
      },
      "execution_count": 34,
      "outputs": []
    },
    {
      "cell_type": "code",
      "source": [
        "# timestamps in UTC to request data for\n",
        "startts = datetime.datetime(2022, 5, 1)\n",
        "endts = datetime.datetime(2022, 5, 9)"
      ],
      "metadata": {
        "id": "jhj3PtqYI6gM"
      },
      "execution_count": 35,
      "outputs": []
    },
    {
      "cell_type": "code",
      "source": [
        "service = SERVICE + \"data=all&tz=Etc/UTC&format=comma&latlon=yes&\"\n",
        "\n",
        "service += startts.strftime(\"year1=%Y&month1=%m&day1=%d&\")\n",
        "service += endts.strftime(\"year2=%Y&month2=%m&day2=%d&\")\n",
        "\n",
        "# Two examples of how to specify a list of stations\n",
        "stations = get_stations_from_networks()"
      ],
      "metadata": {
        "id": "F1crqAtpsQkQ"
      },
      "execution_count": 36,
      "outputs": []
    },
    {
      "cell_type": "code",
      "source": [
        "service"
      ],
      "metadata": {
        "colab": {
          "base_uri": "https://localhost:8080/",
          "height": 35
        },
        "id": "qz9juUwatOrG",
        "outputId": "b7638e55-a2ca-4a50-9e1c-020b103912e7"
      },
      "execution_count": 38,
      "outputs": [
        {
          "output_type": "execute_result",
          "data": {
            "text/plain": [
              "'http://mesonet.agron.iastate.edu/cgi-bin/request/asos.py?data=all&tz=Etc/UTC&format=comma&latlon=yes&year1=2022&month1=05&day1=01&year2=2022&month2=05&day2=09&'"
            ],
            "application/vnd.google.colaboratory.intrinsic+json": {
              "type": "string"
            }
          },
          "metadata": {},
          "execution_count": 38
        }
      ]
    },
    {
      "cell_type": "code",
      "source": [
        "#stations = ['KBWI']"
      ],
      "metadata": {
        "id": "TauBJzgmtPol"
      },
      "execution_count": 20,
      "outputs": []
    },
    {
      "cell_type": "code",
      "source": [
        "stations"
      ],
      "metadata": {
        "colab": {
          "base_uri": "https://localhost:8080/"
        },
        "id": "GaicmHB0tk5I",
        "outputId": "9a224a18-195f-4beb-fa88-aa76da50f66a"
      },
      "execution_count": 37,
      "outputs": [
        {
          "output_type": "execute_result",
          "data": {
            "text/plain": [
              "['ADW',\n",
              " 'NAK',\n",
              " 'DMH',\n",
              " 'MTN',\n",
              " 'BWI',\n",
              " 'CGE',\n",
              " 'RSP',\n",
              " 'CGS',\n",
              " 'CBE',\n",
              " 'ESN',\n",
              " 'FME',\n",
              " 'FDK',\n",
              " 'GAI',\n",
              " 'HGR',\n",
              " '2W6',\n",
              " '2G4',\n",
              " 'OXB',\n",
              " 'NHK',\n",
              " 'APG',\n",
              " 'RJD',\n",
              " 'SBY',\n",
              " 'W29',\n",
              " 'NUI',\n",
              " 'DMW']"
            ]
          },
          "metadata": {},
          "execution_count": 37
        }
      ]
    },
    {
      "cell_type": "code",
      "source": [
        "    for station in stations:\n",
        "        uri = \"%s&station=%s\" % (service, station)\n",
        "        print(\"Downloading: %s\" % (station,))\n",
        "        data = download_data(uri)\n",
        "        outfn = \"%s_%s_%s.txt\" % (\n",
        "            station,\n",
        "            startts.strftime(\"%Y%m%d%H%M\"),\n",
        "            endts.strftime(\"%Y%m%d%H%M\"),\n",
        "        )\n",
        "        out = open(outfn, \"w\")\n",
        "        out.write(data)\n",
        "        out.close()"
      ],
      "metadata": {
        "colab": {
          "base_uri": "https://localhost:8080/"
        },
        "id": "XYVnRRA3t8fe",
        "outputId": "64422495-72c8-4942-b22e-4f464efac3b7"
      },
      "execution_count": 39,
      "outputs": [
        {
          "output_type": "stream",
          "name": "stdout",
          "text": [
            "Downloading: ADW\n",
            "Downloading: NAK\n",
            "Downloading: DMH\n",
            "Downloading: MTN\n",
            "Downloading: BWI\n",
            "Downloading: CGE\n",
            "Downloading: RSP\n",
            "Downloading: CGS\n",
            "Downloading: CBE\n",
            "Downloading: ESN\n",
            "Downloading: FME\n",
            "Downloading: FDK\n",
            "Downloading: GAI\n",
            "Downloading: HGR\n",
            "Downloading: 2W6\n",
            "Downloading: 2G4\n",
            "Downloading: OXB\n",
            "Downloading: NHK\n",
            "Downloading: APG\n",
            "Downloading: RJD\n",
            "Downloading: SBY\n",
            "Downloading: W29\n",
            "Downloading: NUI\n",
            "Downloading: DMW\n"
          ]
        }
      ]
    },
    {
      "cell_type": "code",
      "source": [
        "data"
      ],
      "metadata": {
        "colab": {
          "base_uri": "https://localhost:8080/",
          "height": 104
        },
        "id": "9VU-W-n_uPWR",
        "outputId": "7a275d9c-f864-4d3d-f0a4-d9d5fa44ea17"
      },
      "execution_count": 40,
      "outputs": [
        {
          "output_type": "execute_result",
          "data": {
            "text/plain": [
              "'#DEBUG: Format Typ    -> comma\\n#DEBUG: Time Period   -> 2022-05-01 00:00:00+00:00 2022-05-09 00:00:00+00:00\\n#DEBUG: Time Zone     -> Etc/UTC\\n#DEBUG: Data Contact   -> daryl herzmann akrherz@iastate.edu 515-294-5978\\n#DEBUG: Entries Found -> -1\\nstation,valid,lon,lat,tmpf,dwpf,relh,drct,sknt,p01i,alti,mslp,vsby,gust,skyc1,skyc2,skyc3,skyc4,skyl1,skyl2,skyl3,skyl4,wxcodes,ice_accretion_1hr,ice_accretion_3hr,ice_accretion_6hr,peak_wind_gust,peak_wind_drct,peak_wind_time,feel,metar,snowdepth\\nDMW,2022-05-01 00:15,-77.0077,39.6083,62.60,30.20,29.35,0.00,0.00,0.00,30.09,M,10.00,M,CLR,M,M,M,M,M,M,M,M,M,M,M,M,M,M,62.60,KDMW 010015Z AUTO 00000KT 10SM CLR 17/M01 A3009 RMK AO2,M\\nDMW,2022-05-01 00:35,-77.0077,39.6083,60.80,30.20,31.28,0.00,0.00,0.00,30.10,M,10.00,M,CLR,M,M,M,M,M,M,M,M,M,M,M,M,M,M,60.80,KDMW 010035Z AUTO 00000KT 10SM CLR 16/M01 A3010 RMK AO2 LTG DSNT W,M\\nDMW,2022-05-01 00:55,-77.0077,39.6083,59.00,32.00,35.87,0.00,0.00,0.00,30.10,M,10.00,M,CLR,M,M,M,M,M,M,M,M,M,M,M,M,M,M,59.00,KDMW 010055Z AUTO 00000KT 10SM CLR 15/00 A3010 RMK AO2,M\\nDMW,2022-05-01 01:15,-77.0077,39.6083,57.20,32.00,38.26,0.00,0.00,0.00,30.09,M,10.00,M,CLR,M,M,M,M,M,M,M,M,M,M,M,M,M,M,57.20,KDMW 010115Z AUTO 00000KT 10SM CLR 14/00 A3009 RMK AO2,M\\nDMW,2022-05-01 01:35,-77.0077,39.6083,57.20,32.00,38.26,0.00,0.00,0.00,30.09,M,10.00,M,CLR,M,M,M,M,M,M,M,M,M,M,M,M,M,M,57.20,KDMW 010135Z AUTO 00000KT 10SM CLR 14/00 A3009 RMK AO2,M\\nDMW,2022-05-01 01:55,-77.0077,39.6083,55.40,33.80,43.90,0.00,0.00,0.00,30.09,M,10.00,M,CLR,M,M,M,M,M,M,M,M,M,M,M,M,M,M,55.40,KDMW 010155Z AUTO 00000KT 10SM CLR 13/01 A3009 RMK AO2,M\\nDMW,2022-05-01 02:05,-77.0077,39.6083,55.40,33.80,43.90,0.00,0.00,0.00,30.09,M,10.00,M,CLR,M,M,M,M,M,M,M,M,M,M,M,M,M,M,55.40,KDMW 010205Z AUTO 00000KT 10SM CLR 13/01 A3009 RMK AO2,M\\nDMW,2022-05-01 02:35,-77.0077,39.6083,53.60,33.80,46.88,0.00,0.00,0.00,30.09,M,10.00,M,CLR,M,M,M,M,M,M,M,M,M,M,M,M,M,M,53.60,KDMW 010235Z AUTO 00000KT 10SM CLR 12/01 A3009 RMK AO2,M\\nDMW,2022-05-01 02:55,-77.0077,39.6083,51.80,33.80,50.08,130.00,3.00,0.00,30.09,M,10.00,M,CLR,M,M,M,M,M,M,M,M,M,M,M,M,M,M,51.80,KDMW 010255Z AUTO 13003KT 10SM CLR 11/01 A3009 RMK AO2,M\\nDMW,2022-05-01 03:15,-77.0077,39.6083,51.80,33.80,50.08,130.00,4.00,0.00,30.09,M,10.00,M,CLR,M,M,M,M,M,M,M,M,M,M,M,M,M,M,51.80,KDMW 010315Z AUTO 13004KT 10SM CLR 11/01 A3009 RMK AO2 LTG DSNT NW,M\\nDMW,2022-05-01 03:35,-77.0077,39.6083,51.80,33.80,50.08,150.00,3.00,0.00,30.09,M,10.00,M,CLR,M,M,M,M,M,M,M,M,M,M,M,M,M,M,51.80,KDMW 010335Z AUTO 15003KT 10SM CLR 11/01 A3009 RMK AO2,M\\nDMW,2022-05-01 03:55,-77.0077,39.6083,51.80,33.80,50.08,0.00,0.00,0.00,30.10,M,10.00,M,CLR,M,M,M,M,M,M,M,M,M,M,M,M,M,M,51.80,KDMW 010355Z AUTO 00000KT 10SM CLR 11/01 A3010 RMK AO2,M\\nDMW,2022-05-01 04:15,-77.0077,39.6083,51.80,33.80,50.08,160.00,3.00,0.00,30.11,M,10.00,M,CLR,M,M,M,M,M,M,M,M,M,M,M,M,M,M,51.80,KDMW 010415Z AUTO 16003KT 10SM CLR 11/01 A3011 RMK AO2 LTG DSNT W,M\\nDMW,2022-05-01 04:35,-77.0077,39.6083,51.80,33.80,50.08,150.00,3.00,0.00,30.11,M,10.00,M,CLR,M,M,M,M,M,M,M,M,M,M,M,M,M,M,51.80,KDMW 010435Z AUTO 15003KT 10SM CLR 11/01 A3011 RMK AO2,M\\nDMW,2022-05-01 04:55,-77.0077,39.6083,53.60,33.80,46.88,170.00,3.00,0.00,30.11,M,10.00,M,CLR,M,M,M,M,M,M,M,M,M,M,M,M,M,M,53.60,KDMW 010455Z AUTO 17003KT 10SM CLR 12/01 A3011 RMK AO2,M\\nDMW,2022-05-01 05:15,-77.0077,39.6083,53.60,33.80,46.88,0.00,0.00,0.00,30.11,M,10.00,M,CLR,M,M,M,M,M,M,M,M,M,M,M,M,M,M,53.60,KDMW 010515Z AUTO 00000KT 10SM CLR 12/01 A3011 RMK AO2 LTG DSNT W,M\\nDMW,2022-05-01 05:35,-77.0077,39.6083,55.40,35.60,47.16,170.00,3.00,0.00,30.10,M,10.00,M,CLR,M,M,M,M,M,M,M,M,M,M,M,M,M,M,55.40,KDMW 010535Z AUTO 17003KT 10SM CLR 13/02 A3010 RMK AO2,M\\nDMW,2022-05-01 05:55,-77.0077,39.6083,51.80,35.60,53.81,0.00,0.00,0.00,30.10,M,10.00,M,CLR,M,M,M,M,M,M,M,M,M,M,M,M,M,M,51.80,KDMW 010555Z AUTO 00000KT 10SM CLR 11/02 A3010 RMK AO2,M\\nDMW,2022-05-01 06:15,-77.0077,39.6083,51.80,35.60,53.81,0.00,0.00,0.00,30.09,M,10.00,M,CLR,M,M,M,M,M,M,M,M,M,M,M,M,M,M,51.80,KDMW 010615Z AUTO 00000KT 10SM CLR 11/02 A3009 RMK AO2,M\\nDMW,2022-05-01 06:35,-77.0077,39.6083,51.80,35.60,53.81,0.00,0.00,0.00,30.09,M,10.00,M,CLR,M,M,M,M,M,M,M,M,M,M,M,M,M,M,51.80,KDMW 010635Z AUTO 00000KT 10SM CLR 11/02 A3009 RMK AO2,M\\nDMW,2022-05-01 06:55,-77.0077,39.6083,51.80,37.40,57.77,0.00,0.00,0.00,30.09,M,10.00,M,CLR,M,M,M,M,M,M,M,M,M,M,M,M,M,M,51.80,KDMW 010655Z AUTO 00000KT 10SM CLR 11/03 A3009 RMK AO2 LTG DSNT W,M\\nDMW,2022-05-01 07:15,-77.0077,39.6083,50.00,37.40,61.76,0.00,0.00,0.00,30.08,M,10.00,M,CLR,M,M,M,M,M,M,M,M,M,M,M,M,M,M,50.00,KDMW 010715Z AUTO 00000KT 10SM CLR 10/03 A3008 RMK AO2,M\\nDMW,2022-05-01 07:35,-77.0077,39.6083,50.00,37.40,61.76,0.00,0.00,0.00,30.08,M,10.00,M,CLR,M,M,M,M,M,M,M,M,M,M,M,M,M,M,50.00,KDMW 010735Z AUTO 00000KT 10SM CLR 10/03 A3008 RMK AO2,M\\nDMW,2022-05-01 07:45,-77.0077,39.6083,50.00,37.40,61.76,0.00,0.00,0.00,30.08,M,10.00,M,CLR,M,M,M,M,M,M,M,M,M,M,M,M,M,M,50.00,KDMW 010745Z AUTO 00000KT 10SM CLR 10/03 A3008 RMK AO2 LTG DSNT W,M\\nDMW,2022-05-01 08:55,-77.0077,39.6083,48.20,37.40,66.05,120.00,3.00,0.00,30.08,M,10.00,M,CLR,M,M,M,M,M,M,M,M,M,M,M,M,M,M,47.21,KDMW 010855Z AUTO 12003KT 10SM CLR 09/03 A3008 RMK AO2,M\\nDMW,2022-05-01 09:15,-77.0077,39.6083,50.00,37.40,61.76,0.00,0.00,0.00,30.08,M,10.00,M,SCT,M,M,M,12000.00,M,M,M,M,M,M,M,M,M,M,50.00,KDMW 010915Z AUTO 00000KT 10SM SCT120 10/03 A3008 RMK AO2 LTG DSNT SE AND NW,M\\nDMW,2022-05-01 09:25,-77.0077,39.6083,48.20,37.40,66.05,0.00,0.00,0.00,30.08,M,10.00,M,SCT,M,M,M,12000.00,M,M,M,M,M,M,M,M,M,M,48.20,KDMW 010925Z AUTO 00000KT 10SM SCT120 09/03 A3008 RMK AO2,M\\nDMW,2022-05-01 09:55,-77.0077,39.6083,50.00,37.40,61.76,0.00,0.00,0.00,30.08,M,10.00,M,OVC,M,M,M,12000.00,M,M,M,M,M,M,M,M,M,M,50.00,KDMW 010955Z AUTO 00000KT 10SM OVC120 10/03 A3008 RMK AO2,M\\nDMW,2022-05-01 10:15,-77.0077,39.6083,51.80,39.20,61.99,0.00,0.00,0.00,30.09,M,10.00,M,OVC,M,M,M,11000.00,M,M,M,M,M,M,M,M,M,M,51.80,KDMW 011015Z AUTO 00000KT 10SM OVC110 11/04 A3009 RMK AO2 LTG DSNT W AND NW,M\\nDMW,2022-05-01 10:35,-77.0077,39.6083,51.80,37.40,57.77,130.00,3.00,0.00,30.09,M,10.00,M,SCT,M,M,M,10000.00,M,M,M,M,M,M,M,M,M,M,51.80,KDMW 011035Z AUTO 13003KT 10SM SCT100 11/03 A3009 RMK AO2 LTG DSNT S THRU NW,M\\nDMW,2022-05-01 10:55,-77.0077,39.6083,51.80,37.40,57.77,150.00,4.00,0.00,30.10,M,10.00,M,SCT,M,M,M,11000.00,M,M,M,M,M,M,M,M,M,M,51.80,KDMW 011055Z AUTO 15004KT 10SM SCT110 11/03 A3010 RMK AO2 LTG DSNT W,M\\nDMW,2022-05-01 11:15,-77.0077,39.6083,53.60,39.20,58.02,0.00,0.00,0.00,30.10,M,10.00,M,SCT,M,M,M,11000.00,M,M,M,M,M,M,M,M,M,M,53.60,KDMW 011115Z AUTO 00000KT 10SM SCT110 12/04 A3010 RMK AO2 LTG DSNT W,M\\nDMW,2022-05-01 11:35,-77.0077,39.6083,53.60,39.20,58.02,120.00,4.00,0.00,30.10,M,10.00,M,SCT,M,M,M,11000.00,M,M,M,M,M,M,M,M,M,M,53.60,KDMW 011135Z AUTO 12004KT 10SM SCT110 12/04 A3010 RMK AO2 LTG DSNT W AND NW,M\\nDMW,2022-05-01 11:55,-77.0077,39.6083,55.40,39.20,54.34,140.00,4.00,0.00,30.10,M,10.00,M,BKN,M,M,M,11000.00,M,M,M,M,M,M,M,M,M,M,55.40,KDMW 011155Z AUTO 14004KT 10SM BKN110 13/04 A3010 RMK AO2 LTG DSNT W,M\\nDMW,2022-05-01 12:15,-77.0077,39.6083,55.40,41.00,58.27,130.00,5.00,0.00,30.10,M,10.00,M,BKN,M,M,M,11000.00,M,M,M,M,M,M,M,M,M,M,55.40,KDMW 011215Z AUTO 13005KT 10SM BKN110 13/05 A3010 RMK AO2 LTG DSNT SW AND NW,M\\nDMW,2022-05-01 12:35,-77.0077,39.6083,57.20,41.00,54.60,150.00,3.00,0.00,30.10,M,10.00,M,BKN,M,M,M,11000.00,M,M,M,M,M,M,M,M,M,M,57.20,KDMW 011235Z AUTO 15003KT 10SM BKN110 14/05 A3010 RMK AO2 LTG DSNT NW,M\\nDMW,2022-05-01 12:55,-77.0077,39.6083,57.20,42.80,58.52,130.00,3.00,0.00,30.10,M,10.00,M,CLR,M,M,M,M,M,M,M,M,M,M,M,M,M,M,57.20,KDMW 011255Z AUTO 13003KT 10SM CLR 14/06 A3010 RMK AO2 LTG DSNT W,M\\nDMW,2022-05-01 13:15,-77.0077,39.6083,60.80,44.60,55.12,160.00,3.00,0.00,30.10,M,10.00,M,SCT,M,M,M,5500.00,M,M,M,M,M,M,M,M,M,M,60.80,KDMW 011315Z AUTO 16003KT 10SM SCT055 16/07 A3010 RMK AO2 LTG DSNT W AND NW,M\\nDMW,2022-05-01 13:35,-77.0077,39.6083,62.60,46.40,55.37,170.00,4.00,0.00,30.10,M,10.00,M,CLR,M,M,M,M,M,M,M,M,M,M,M,M,M,M,62.60,KDMW 011335Z AUTO 17004KT 10SM CLR 17/08 A3010 RMK AO2 LTG DSNT W AND NW,M\\nDMW,2022-05-01 13:55,-77.0077,39.6083,64.40,48.20,55.63,150.00,6.00,0.00,30.10,M,10.00,M,BKN,M,M,M,5000.00,M,M,M,M,M,M,M,M,M,M,64.40,KDMW 011355Z AUTO 15006KT 10SM BKN050 18/09 A3010 RMK AO2 LTG DSNT W AND NW,M\\nDMW,2022-05-01 14:15,-77.0077,39.6083,64.40,48.20,55.63,170.00,6.00,0.00,30.10,M,10.00,M,OVC,M,M,M,5000.00,M,M,M,M,M,M,M,M,M,M,64.40,KDMW 011415Z AUTO 17006KT 10SM OVC050 18/09 A3010 RMK AO2 LTG DSNT W AND NW,M\\nDMW,2022-05-01 14:35,-77.0077,39.6083,66.20,48.20,52.25,170.00,8.00,0.00,30.10,M,10.00,M,OVC,M,M,M,4600.00,M,M,M,M,M,M,M,M,M,M,66.20,KDMW 011435Z AUTO 17008KT 10SM OVC046 19/09 A3010 RMK AO2 LTG DSNT W AND NW,M\\nDMW,2022-05-01 14:55,-77.0077,39.6083,64.40,48.20,55.63,160.00,8.00,0.00,30.11,M,10.00,M,OVC,M,M,M,4200.00,M,M,M,VCTS,M,M,M,M,M,M,64.40,KDMW 011455Z AUTO 16008KT 10SM VCTS OVC042 18/09 A3011 RMK AO2 LTG DSNT W,M\\nDMW,2022-05-01 15:15,-77.0077,39.6083,64.40,48.20,55.63,170.00,9.00,0.00,30.11,M,10.00,M,OVC,M,M,M,4000.00,M,M,M,M,M,M,M,M,M,M,64.40,KDMW 011515Z AUTO 17009KT 10SM OVC040 18/09 A3011 RMK AO2 LTG DSNT SW AND W,M\\nDMW,2022-05-01 15:35,-77.0077,39.6083,64.40,48.20,55.63,170.00,6.00,0.00,30.11,M,10.00,M,OVC,M,M,M,3800.00,M,M,M,M,M,M,M,M,M,M,64.40,KDMW 011535Z AUTO 17006KT 10SM OVC038 18/09 A3011 RMK AO2 LTG DSNT NW,M\\nDMW,2022-05-01 15:55,-77.0077,39.6083,64.40,48.20,55.63,170.00,7.00,0.00,30.10,M,10.00,M,OVC,M,M,M,3600.00,M,M,M,M,M,M,M,M,M,M,64.40,KDMW 011555Z AUTO 17007KT 10SM OVC036 18/09 A3010 RMK AO2 LTG DSNT SW,M\\nDMW,2022-05-01 16:15,-77.0077,39.6083,64.40,50.00,59.50,170.00,9.00,0.00,30.10,M,10.00,M,OVC,M,M,M,3600.00,M,M,M,M,M,M,M,M,M,M,64.40,KDMW 011615Z AUTO 17009KT 10SM OVC036 18/10 A3010 RMK AO2 LTG DSNT NW,M\\nDMW,2022-05-01 16:35,-77.0077,39.6083,62.60,50.00,63.38,190.00,7.00,0.00,30.11,M,10.00,M,OVC,M,M,M,3200.00,M,M,M,M,M,M,M,M,M,M,62.60,KDMW 011635Z AUTO 19007KT 10SM OVC032 17/10 A3011 RMK AO2 LTG DSNT SW,M\\nDMW,2022-05-01 16:55,-77.0077,39.6083,62.60,50.00,63.38,150.00,3.00,0.00,30.10,M,10.00,M,OVC,M,M,M,3200.00,M,M,M,-RA,M,M,M,M,M,M,62.60,KDMW 011655Z AUTO 15003KT 10SM -RA OVC032 17/10 A3010 RMK AO2 LTG DSNT SW AND NW,M\\nDMW,2022-05-01 17:15,-77.0077,39.6083,62.60,53.60,72.38,130.00,7.00,0.00,30.08,M,10.00,M,BKN,M,M,M,3200.00,M,M,M,-RA,M,M,M,M,M,M,62.60,KDMW 011715Z AUTO 13007KT 10SM -RA BKN032 17/12 A3008 RMK AO2,M\\nDMW,2022-05-01 17:35,-77.0077,39.6083,60.80,53.60,77.14,160.00,5.00,0.00,30.08,M,10.00,M,SCT,SCT,BKN,M,2100.00,3000.00,3600.00,M,RA,M,M,M,M,M,M,60.80,KDMW 011735Z AUTO 16005KT 10SM RA SCT021 SCT030 BKN036 16/12 A3008 RMK AO2,M\\nDMW,2022-05-01 17:45,-77.0077,39.6083,60.80,53.60,77.14,170.00,5.00,0.01,30.08,M,10.00,M,SCT,SCT,BKN,M,1900.00,2400.00,3400.00,M,-RA,M,M,M,M,M,M,60.80,KDMW 011745Z AUTO 17005KT 10SM -RA SCT019 SCT024 BKN034 16/12 A3008 RMK AO2 P0001,M\\nDMW,2022-05-01 18:15,-77.0077,39.6083,60.80,51.80,72.20,150.00,10.00,0.00,30.07,M,7.00,M,SCT,BKN,OVC,M,1700.00,2700.00,3200.00,M,RA,M,M,M,M,M,M,60.80,KDMW 011815Z AUTO 15010KT 7SM RA SCT017 BKN027 OVC032 16/11 A3007 RMK AO2,M\\nDMW,2022-05-01 18:35,-77.0077,39.6083,57.20,53.60,87.74,130.00,8.00,0.01,30.06,M,10.00,16.00,SCT,SCT,SCT,M,1600.00,2600.00,3300.00,M,RA,M,M,M,M,M,M,57.20,KDMW 011835Z AUTO 13008G16KT 10SM RA SCT016 SCT026 SCT033 14/12 A3006 RMK AO2 LTG DSNT SW P0001,M\\nDMW,2022-05-01 18:55,-77.0077,39.6083,57.20,53.60,87.74,130.00,8.00,0.00,30.07,M,10.00,M,SCT,SCT,BKN,M,3000.00,5500.00,10000.00,M,-RA,M,M,M,M,M,M,57.20,KDMW 011855Z AUTO 13008KT 10SM -RA SCT030 SCT055 BKN100 14/12 A3007 RMK AO2,M\\nDMW,2022-05-01 19:15,-77.0077,39.6083,57.20,55.40,93.69,120.00,3.00,0.02,30.07,M,5.00,M,SCT,BKN,OVC,M,1800.00,2800.00,10000.00,M,+RA,M,M,M,M,M,M,57.20,KDMW 011915Z AUTO 12003KT 5SM +RA SCT018 BKN028 OVC100 14/13 A3007 RMK AO2 LTG DSNT SE P0002,M\\nDMW,2022-05-01 19:35,-77.0077,39.6083,55.40,55.40,100.00,250.00,6.00,0.05,30.12,M,7.00,M,SCT,BKN,OVC,M,1400.00,2500.00,6500.00,M,RA,M,M,M,M,M,M,55.40,KDMW 011935Z AUTO 25006KT 7SM RA SCT014 BKN025 OVC065 13/13 A3012 RMK AO2 LTG DSNT N P0005,M\\nDMW,2022-05-01 19:45,-77.0077,39.6083,55.40,53.60,93.65,0.00,0.00,0.08,30.09,M,4.00,M,SCT,BKN,OVC,M,1600.00,2600.00,7000.00,M,+RA,M,M,M,M,M,M,55.40,KDMW 011945Z AUTO 00000KT 4SM +RA SCT016 BKN026 OVC070 13/12 A3009 RMK AO2 P0008,M\\nDMW,2022-05-01 20:15,-77.0077,39.6083,55.40,55.40,100.00,140.00,6.00,0.06,30.02,M,10.00,M,SCT,SCT,M,M,1800.00,2300.00,M,M,RA,M,M,M,M,M,M,55.40,KDMW 012015Z AUTO 14006KT 10SM RA SCT018 SCT023 13/13 A3002 RMK AO2 LTG DSNT SE P0006,M\\nDMW,2022-05-01 20:35,-77.0077,39.6083,57.20,55.40,93.69,140.00,6.00,0.06,30.05,M,10.00,M,SCT,M,M,M,1100.00,M,M,M,M,M,M,M,M,M,M,57.20,KDMW 012035Z AUTO 14006KT 10SM SCT011 14/13 A3005 RMK AO2 P0006,M\\nDMW,2022-05-01 20:55,-77.0077,39.6083,57.20,53.60,87.74,140.00,7.00,0.00,30.05,M,10.00,M,BKN,BKN,M,M,1100.00,2500.00,M,M,M,M,M,M,M,M,M,57.20,KDMW 012055Z AUTO 14007KT 10SM BKN011 BKN025 14/12 A3005 RMK AO2,M\\nDMW,2022-05-01 21:15,-77.0077,39.6083,57.20,53.60,87.74,150.00,5.00,0.00,30.05,M,10.00,M,SCT,OVC,M,M,1100.00,2700.00,M,M,M,M,M,M,M,M,M,57.20,KDMW 012115Z AUTO 15005KT 10SM SCT011 OVC027 14/12 A3005 RMK AO2,M\\nDMW,2022-05-01 21:35,-77.0077,39.6083,57.20,53.60,87.74,140.00,5.00,0.00,30.04,M,10.00,M,OVC,M,M,M,2700.00,M,M,M,M,M,M,M,M,M,M,57.20,KDMW 012135Z AUTO 14005KT 10SM OVC027 14/12 A3004 RMK AO2,M\\nDMW,2022-05-01 21:55,-77.0077,39.6083,57.20,53.60,87.74,130.00,7.00,0.00,30.04,M,10.00,M,OVC,M,M,M,2900.00,M,M,M,M,M,M,M,M,M,M,57.20,KDMW 012155Z AUTO 13007KT 10SM OVC029 14/12 A3004 RMK AO2,M\\nDMW,2022-05-01 22:15,-77.0077,39.6083,M,M,M,140.00,7.00,0.00,30.03,M,10.00,M,SCT,M,M,M,3100.00,M,M,M,M,M,M,M,M,M,M,M,KDMW 012215Z AUTO 14007KT 10SM SCT031 120 14/12 A3003 RMK AO2,M\\nDMW,2022-05-01 22:35,-77.0077,39.6083,M,M,M,130.00,4.00,0.00,30.03,M,10.00,M,SCT,M,M,M,7000.00,M,M,M,M,M,M,M,M,M,M,M,KDMW 012235Z AUTO 13004KT 10SM SCT070 120 14/12 A3003 RMK AO2,M\\nDMW,2022-05-01 22:55,-77.0077,39.6083,57.20,53.60,87.74,140.00,5.00,0.00,30.02,M,10.00,M,SCT,M,M,M,7000.00,M,M,M,M,M,M,M,M,M,M,57.20,KDMW 012255Z AUTO 14005KT 10SM SCT070 14/12 A3002 RMK AO2,M\\nDMW,2022-05-01 23:15,-77.0077,39.6083,57.20,53.60,87.74,140.00,7.00,0.00,30.03,M,10.00,M,BKN,M,M,M,10000.00,M,M,M,M,M,M,M,M,M,M,57.20,KDMW 012315Z AUTO 14007KT 10SM BKN100 14/12 A3003 RMK AO2,M\\nDMW,2022-05-01 23:35,-77.0077,39.6083,57.20,53.60,87.74,140.00,5.00,0.00,30.02,M,10.00,M,BKN,M,M,M,10000.00,M,M,M,M,M,M,M,M,M,M,57.20,KDMW 012335Z AUTO 14005KT 10SM BKN100 14/12 A3002 RMK AO2 LTG DSNT S,M\\nDMW,2022-05-01 23:55,-77.0077,39.6083,55.40,53.60,93.65,0.00,0.00,0.00,30.03,M,10.00,M,SCT,SCT,M,M,9000.00,11000.00,M,M,M,M,M,M,M,M,M,55.40,KDMW 012355Z AUTO 00000KT 10SM SCT090 SCT110 13/12 A3003 RMK AO2,M\\nDMW,2022-05-02 00:15,-77.0077,39.6083,55.40,53.60,93.65,120.00,4.00,0.00,30.03,M,10.00,M,SCT,M,M,M,8000.00,M,M,M,M,M,M,M,M,M,M,55.40,KDMW 020015Z AUTO 12004KT 10SM SCT080 13/12 A3003 RMK AO2 LTG DSNT S AND W,M\\nDMW,2022-05-02 00:35,-77.0077,39.6083,55.40,53.60,93.65,0.00,0.00,0.00,30.03,M,10.00,M,SCT,BKN,M,M,3100.00,8000.00,M,M,M,M,M,M,M,M,M,55.40,KDMW 020035Z AUTO 00000KT 10SM SCT031 BKN080 13/12 A3003 RMK AO2 LTG DSNT NW,M\\nDMW,2022-05-02 00:55,-77.0077,39.6083,55.40,53.60,93.65,0.00,0.00,0.00,30.04,M,10.00,M,SCT,BKN,OVC,M,3100.00,6500.00,8500.00,M,M,M,M,M,M,M,M,55.40,KDMW 020055Z AUTO 00000KT 10SM SCT031 BKN065 OVC085 13/12 A3004 RMK AO2 LTG DSNT S THRU NW,M\\nDMW,2022-05-02 01:15,-77.0077,39.6083,55.40,51.80,87.65,0.00,0.00,0.00,30.02,M,10.00,M,SCT,OVC,M,M,6500.00,8500.00,M,M,M,M,M,M,M,M,M,55.40,KDMW 020115Z AUTO 00000KT 10SM SCT065 OVC085 13/11 A3002 RMK AO2 LTG DSNT S,M\\nDMW,2022-05-02 01:35,-77.0077,39.6083,55.40,51.80,87.65,130.00,3.00,0.00,30.03,M,10.00,M,BKN,BKN,M,M,6500.00,8500.00,M,M,M,M,M,M,M,M,M,55.40,KDMW 020135Z AUTO 13003KT 10SM BKN065 BKN085 13/11 A3003 RMK AO2 LTG DSNT SE,M\\nDMW,2022-05-02 01:45,-77.0077,39.6083,55.40,51.80,87.65,120.00,3.00,0.00,30.03,M,10.00,M,BKN,BKN,M,M,6500.00,11000.00,M,M,M,M,M,M,M,M,M,55.40,KDMW 020145Z AUTO 12003KT 10SM BKN065 BKN110 13/11 A3003 RMK AO2 LTG DSNT SE W AND NW,M\\nDMW,2022-05-02 02:15,-77.0077,39.6083,55.40,51.80,87.65,130.00,3.00,0.00,30.02,M,10.00,M,OVC,M,M,M,7500.00,M,M,M,M,M,M,M,M,M,M,55.40,KDMW 020215Z AUTO 13003KT 10SM OVC075 13/11 A3002 RMK AO2 LTG DSNT NW,M\\nDMW,2022-05-02 02:25,-77.0077,39.6083,55.40,50.00,81.99,140.00,4.00,0.00,30.02,M,10.00,M,BKN,OVC,M,M,7500.00,11000.00,M,M,M,M,M,M,M,M,M,55.40,KDMW 020225Z AUTO 14004KT 10SM BKN075 OVC110 13/10 A3002 RMK AO2 LTG DSNT W AND NW,M\\nDMW,2022-05-02 02:55,-77.0077,39.6083,M,M,M,130.00,4.00,0.00,30.02,M,10.00,M,SCT,SCT,M,M,8500.00,10000.00,M,M,M,M,M,M,M,M,M,M,KDMW 020255Z AUTO 13004KT 10SM SCT085 SCT100 120 12/10 A3002 RMK AO2 LTG DSNT W,M\\nDMW,2022-05-02 03:15,-77.0077,39.6083,53.60,50.00,87.56,0.00,0.00,0.00,30.02,M,10.00,M,SCT,M,M,M,10000.00,M,M,M,M,M,M,M,M,M,M,53.60,KDMW 020315Z AUTO 00000KT 10SM SCT100 12/10 A3002 RMK AO2 LTG DSNT SW,M\\nDMW,2022-05-02 03:35,-77.0077,39.6083,53.60,50.00,87.56,110.00,4.00,0.00,30.00,M,10.00,M,CLR,M,M,M,M,M,M,M,M,M,M,M,M,M,M,53.60,KDMW 020335Z AUTO 11004KT 10SM CLR 12/10 A3000 RMK AO2 LTG DSNT SE AND NW,M\\nDMW,2022-05-02 03:55,-77.0077,39.6083,53.60,50.00,87.56,0.00,0.00,0.00,30.00,M,10.00,M,SCT,BKN,M,M,3200.00,3900.00,M,M,M,M,M,M,M,M,M,53.60,KDMW 020355Z AUTO 00000KT 10SM SCT032 BKN039 12/10 A3000 RMK AO2 LTG DSNT NW,M\\nDMW,2022-05-02 04:15,-77.0077,39.6083,53.60,50.00,87.56,0.00,0.00,0.00,29.99,M,10.00,M,BKN,M,M,M,3500.00,M,M,M,M,M,M,M,M,M,M,53.60,KDMW 020415Z AUTO 00000KT 10SM BKN035 12/10 A2999 RMK AO2,M\\nDMW,2022-05-02 04:35,-77.0077,39.6083,53.60,50.00,87.56,0.00,0.00,0.00,29.99,M,10.00,M,OVC,M,M,M,3300.00,M,M,M,VCTS,M,M,M,M,M,M,53.60,KDMW 020435Z AUTO 00000KT 10SM VCTS OVC033 12/10 A2999 RMK AO2 LTG DSNT SE AND NW,M\\nDMW,2022-05-02 04:55,-77.0077,39.6083,53.60,50.00,87.56,0.00,0.00,0.00,30.00,M,10.00,M,OVC,M,M,M,3100.00,M,M,M,VCTS,M,M,M,M,M,M,53.60,KDMW 020455Z AUTO 00000KT 10SM VCTS OVC031 12/10 A3000 RMK AO2 LTG DSNT SE W AND NW,M\\nDMW,2022-05-02 05:15,-77.0077,39.6083,53.60,50.00,87.56,150.00,3.00,0.00,29.98,M,10.00,M,OVC,M,M,M,3100.00,M,M,M,VCTS,M,M,M,M,M,M,53.60,KDMW 020515Z AUTO 15003KT 10SM VCTS OVC031 12/10 A2998 RMK AO2 LTG DSNT SE W AND NW,M\\nDMW,2022-05-02 05:35,-77.0077,39.6083,53.60,50.00,87.56,330.00,3.00,0.00,30.01,M,10.00,M,SCT,OVC,M,M,2100.00,3100.00,M,M,M,M,M,M,M,M,M,53.60,KDMW 020535Z AUTO 33003KT 10SM SCT021 OVC031 12/10 A3001 RMK AO2 LTG DSNT N SE AND SW,M\\nDMW,2022-05-02 05:55,-77.0077,39.6083,53.60,50.00,87.56,40.00,3.00,0.00,29.99,M,10.00,M,OVC,M,M,M,1900.00,M,M,M,M,M,M,M,M,M,M,53.60,KDMW 020555Z AUTO 04003KT 10SM OVC019 12/10 A2999 RMK AO2 LTG DSNT SE THRU W,M\\nDMW,2022-05-02 06:05,-77.0077,39.6083,53.60,50.00,87.56,10.00,3.00,0.00,29.99,M,10.00,M,OVC,M,M,M,1900.00,M,M,M,TS,M,M,M,M,M,M,53.60,KDMW 020605Z AUTO 01003KT 10SM TS OVC019 12/10 A2999 RMK AO2 LTG DSNT SE THRU W,M\\nDMW,2022-05-02 06:35,-77.0077,39.6083,53.60,50.00,87.56,0.00,0.00,0.00,30.00,M,10.00,M,OVC,M,M,M,1700.00,M,M,M,VCTS,M,M,M,M,M,M,53.60,KDMW 020635Z AUTO 00000KT 10SM VCTS OVC017 12/10 A3000 RMK AO2 LTG DSNT NE SW AND W,M\\nDMW,2022-05-02 06:55,-77.0077,39.6083,53.60,51.80,93.60,0.00,0.00,0.01,29.98,M,7.00,M,SCT,BKN,OVC,M,1700.00,2500.00,6000.00,M,VCTSRA,M,M,M,M,M,M,53.60,KDMW 020655Z AUTO 00000KT 7SM VCTSRA SCT017 BKN025 OVC060 12/11 A2998 RMK AO2 LTG DSNT N THRU SE P0001,M\\nDMW,2022-05-02 07:15,-77.0077,39.6083,53.60,51.80,93.60,120.00,3.00,0.02,29.97,M,10.00,M,SCT,SCT,BKN,M,2900.00,4500.00,5500.00,M,-VCTSRA,M,M,M,M,M,M,53.60,KDMW 020715Z AUTO 12003KT 10SM -VCTSRA SCT029 SCT045 BKN055 12/11 A2997 RMK AO2 LTG DSNT NE P0002,M\\nDMW,2022-05-02 07:35,-77.0077,39.6083,53.60,51.80,93.60,110.00,3.00,0.02,29.96,M,10.00,M,SCT,SCT,M,M,4100.00,11000.00,M,M,M,M,M,M,M,M,M,53.60,KDMW 020735Z AUTO 11003KT 10SM SCT041 SCT110 12/11 A2996 RMK AO2 P0002,M\\nDMW,2022-05-02 07:55,-77.0077,39.6083,51.80,51.80,100.00,0.00,0.00,0.00,29.96,M,10.00,M,CLR,M,M,M,M,M,M,M,M,M,M,M,M,M,M,51.80,KDMW 020755Z AUTO 00000KT 10SM CLR 11/11 A2996 RMK AO2 LTG DSNT NE THRU SE,M\\nDMW,2022-05-02 08:15,-77.0077,39.6083,51.80,51.80,100.00,0.00,0.00,0.00,29.97,M,10.00,M,CLR,M,M,M,M,M,M,M,M,M,M,M,M,M,M,51.80,KDMW 020815Z AUTO 00000KT 10SM CLR 11/11 A2997 RMK AO2 LTG DSNT NE THRU SE,M\\nDMW,2022-05-02 08:35,-77.0077,39.6083,51.80,50.00,93.55,360.00,3.00,0.00,29.97,M,5.00,M,CLR,M,M,M,M,M,M,M,BR,M,M,M,M,M,M,51.80,KDMW 020835Z AUTO 36003KT 5SM BR CLR 11/10 A2997 RMK AO2 LTG DSNT NE THRU SE,M\\nDMW,2022-05-02 08:55,-77.0077,39.6083,51.80,50.00,93.55,0.00,0.00,0.00,29.97,M,5.00,M,SCT,M,M,M,8000.00,M,M,M,BR,M,M,M,M,M,M,51.80,KDMW 020855Z AUTO 00000KT 5SM BR SCT080 11/10 A2997 RMK AO2 LTG DSNT NE THRU S,M\\nDMW,2022-05-02 09:15,-77.0077,39.6083,50.00,50.00,100.00,0.00,0.00,0.00,29.97,M,3.00,M,CLR,M,M,M,M,M,M,M,BR,M,M,M,M,M,M,50.00,KDMW 020915Z AUTO 00000KT 3SM BR CLR 10/10 A2997 RMK AO2 LTG DSNT E AND SE,M\\nDMW,2022-05-02 09:35,-77.0077,39.6083,50.00,50.00,100.00,0.00,0.00,0.00,29.98,M,0.75,M,BKN,M,M,M,100.00,M,M,M,BR,M,M,M,M,M,M,50.00,KDMW 020935Z AUTO 00000KT 3/4SM BR BKN001 10/10 A2998 RMK AO2 VIS 1/2V2 1/2 LTG DSNT E AND SE,M\\nDMW,2022-05-02 09:55,-77.0077,39.6083,48.20,48.20,100.00,0.00,0.00,0.00,29.98,M,1.25,M,BKN,M,M,M,100.00,M,M,M,BR,M,M,M,M,M,M,48.20,KDMW 020955Z AUTO 00000KT 1 1/4SM BR BKN001 09/09 A2998 RMK AO2 VIS 1V2 1/2 LTG DSNT E AND SE,M\\nDMW,2022-05-02 10:15,-77.0077,39.6083,48.20,48.20,100.00,0.00,0.00,0.00,29.98,M,0.50,M,BKN,BKN,M,M,100.00,1300.00,M,M,FG,M,M,M,M,M,M,48.20,KDMW 021015Z AUTO 00000KT 1/2SM FG BKN001 BKN013 09/09 A2998 RMK AO2 VIS M1/4V2 1/2 LTG DSNT NE THRU SE,M\\nDMW,2022-05-02 10:35,-77.0077,39.6083,48.20,48.20,100.00,0.00,0.00,0.00,29.98,M,0.75,M,BKN,M,M,M,100.00,M,M,M,BR,M,M,M,M,M,M,48.20,KDMW 021035Z AUTO 00000KT 3/4SM BR BKN001 09/09 A2998 RMK AO2 LTG DSNT E AND SE,M\\nDMW,2022-05-02 10:55,-77.0077,39.6083,50.00,50.00,100.00,0.00,0.00,0.00,29.99,M,2.50,M,CLR,M,M,M,M,M,M,M,BR,M,M,M,M,M,M,50.00,KDMW 021055Z AUTO 00000KT 2 1/2SM BR CLR 10/10 A2999 RMK AO2 LTG DSNT E,M\\nDMW,2022-05-02 11:15,-77.0077,39.6083,51.80,51.80,100.00,0.00,0.00,0.00,30.00,M,5.00,M,CLR,M,M,M,M,M,M,M,BR,M,M,M,M,M,M,51.80,KDMW 021115Z AUTO 00000KT 5SM BR CLR 11/11 A3000 RMK AO2 LTG DSNT SE,M\\nDMW,2022-05-02 11:35,-77.0077,39.6083,51.80,51.80,100.00,50.00,3.00,0.00,30.01,M,7.00,M,CLR,M,M,M,M,M,M,M,M,M,M,M,M,M,M,51.80,KDMW 021135Z AUTO 05003KT 7SM CLR 11/11 A3001 RMK AO2 LTG DSNT E AND SE,M\\nDMW,2022-05-02 11:55,-77.0077,39.6083,51.80,51.80,100.00,40.00,6.00,0.00,30.01,M,10.00,M,SCT,M,M,M,500.00,M,M,M,M,M,M,M,M,M,M,51.80,KDMW 021155Z AUTO 04006KT 10SM SCT005 11/11 A3001 RMK AO2 LTG DSNT SE,M\\nDMW,2022-05-02 12:15,-77.0077,39.6083,53.60,53.60,100.00,10.00,3.00,0.00,30.02,M,1.00,M,OVC,M,M,M,300.00,M,M,M,BR,M,M,M,M,M,M,53.60,KDMW 021215Z AUTO 01003KT 1SM BR OVC003 12/12 A3002 RMK AO2 LTG DSNT SE,M\\nDMW,2022-05-02 12:35,-77.0077,39.6083,53.60,53.60,100.00,360.00,3.00,0.00,30.02,M,1.50,M,OVC,M,M,M,300.00,M,M,M,BR,M,M,M,M,M,M,53.60,KDMW 021235Z AUTO 36003KT 1 1/2SM BR OVC003 12/12 A3002 RMK AO2 LTG DSNT SE,M\\nDMW,2022-05-02 12:55,-77.0077,39.6083,55.40,53.60,93.65,10.00,3.00,0.00,30.03,M,3.00,M,OVC,M,M,M,300.00,M,M,M,BR,M,M,M,M,M,M,55.40,KDMW 021255Z AUTO 01003KT 3SM BR OVC003 13/12 A3003 RMK AO2 LTG DSNT E AND SE,M\\nDMW,2022-05-02 13:15,-77.0077,39.6083,55.40,55.40,100.00,30.00,3.00,0.00,30.04,M,1.75,M,OVC,M,M,M,300.00,M,M,M,BR,M,M,M,M,M,M,55.40,KDMW 021315Z AUTO 03003KT 1 3/4SM BR OVC003 13/13 A3004 RMK AO2 LTG DSNT SE,M\\nDMW,2022-05-02 13:35,-77.0077,39.6083,55.40,55.40,100.00,0.00,0.00,0.00,30.05,M,1.50,M,OVC,M,M,M,300.00,M,M,M,BR,M,M,M,M,M,M,55.40,KDMW 021335Z AUTO 00000KT 1 1/2SM BR OVC003 13/13 A3005 RMK AO2 LTG DSNT SE,M\\nDMW,2022-05-02 13:55,-77.0077,39.6083,57.20,55.40,93.69,320.00,3.00,0.00,30.05,M,2.50,M,OVC,M,M,M,300.00,M,M,M,BR,M,M,M,M,M,M,57.20,KDMW 021355Z AUTO 32003KT 2 1/2SM BR OVC003 14/13 A3005 RMK AO2 LTG DSNT SE,M\\nDMW,2022-05-02 14:15,-77.0077,39.6083,57.20,55.40,93.69,0.00,0.00,0.00,30.04,M,3.00,M,OVC,M,M,M,500.00,M,M,M,BR,M,M,M,M,M,M,57.20,KDMW 021415Z AUTO 00000KT 3SM BR OVC005 14/13 A3004 RMK AO2 LTG DSNT SE,M\\nDMW,2022-05-02 14:35,-77.0077,39.6083,59.00,55.40,87.83,310.00,4.00,0.00,30.04,M,5.00,M,OVC,M,M,M,500.00,M,M,M,BR,M,M,M,M,M,M,59.00,KDMW 021435Z AUTO 31004KT 5SM BR OVC005 15/13 A3004 RMK AO2 LTG DSNT SE,M\\nDMW,2022-05-02 14:55,-77.0077,39.6083,60.80,55.40,82.37,290.00,4.00,0.00,30.04,M,5.00,M,OVC,M,M,M,700.00,M,M,M,BR,M,M,M,M,M,M,60.80,KDMW 021455Z AUTO 29004KT 5SM BR OVC007 16/13 A3004 RMK AO2,M\\nDMW,2022-05-02 15:05,-77.0077,39.6083,60.80,55.40,82.37,320.00,4.00,0.00,30.05,M,5.00,M,OVC,M,M,M,900.00,M,M,M,HZ,M,M,M,M,M,M,60.80,KDMW 021505Z AUTO 32004KT 5SM HZ OVC009 16/13 A3005 RMK AO2 LTG DSNT SE,M\\nDMW,2022-05-02 15:35,-77.0077,39.6083,60.80,55.40,82.37,0.00,0.00,0.00,30.04,M,7.00,M,SCT,M,M,M,900.00,M,M,M,M,M,M,M,M,M,M,60.80,KDMW 021535Z AUTO 00000KT 7SM SCT009 16/13 A3004 RMK AO2 LTG DSNT SE,M\\nDMW,2022-05-02 15:55,-77.0077,39.6083,64.40,55.40,72.56,0.00,0.00,0.00,30.04,M,7.00,M,CLR,M,M,M,M,M,M,M,M,M,M,M,M,M,M,64.40,KDMW 021555Z AUTO 00000KT 7SM CLR 18/13 A3004 RMK AO2,M\\nDMW,2022-05-02 16:15,-77.0077,39.6083,66.20,55.40,68.15,300.00,3.00,0.00,30.04,M,10.00,M,CLR,M,M,M,M,M,M,M,M,M,M,M,M,M,M,66.20,KDMW 021615Z AUTO 30003KT 10SM CLR 19/13 A3004 RMK AO2 LTG DSNT SE,M\\nDMW,2022-05-02 17:05,-77.0077,39.6083,69.80,53.60,56.38,240.00,6.00,0.00,30.02,M,10.00,M,SCT,SCT,M,M,3300.00,4100.00,M,M,M,M,M,M,M,M,M,69.80,KDMW 021705Z AUTO 24006KT 10SM SCT033 SCT041 21/12 A3002 RMK AO2,M\\nDMW,2022-05-02 17:35,-77.0077,39.6083,71.60,51.80,49.64,240.00,9.00,0.00,30.01,M,10.00,M,SCT,SCT,M,M,3900.00,5000.00,M,M,M,M,M,M,M,M,M,71.60,KDMW 021735Z AUTO 24009KT 10SM SCT039 SCT050 22/11 A3001 RMK AO2,M\\nDMW,2022-05-02 17:55,-77.0077,39.6083,71.60,53.60,53.03,230.00,7.00,0.00,30.01,M,10.00,M,SCT,SCT,M,M,4800.00,5000.00,M,M,M,M,M,M,M,M,M,71.60,KDMW 021755Z AUTO 23007KT 10SM SCT048 SCT050 22/12 A3001 RMK AO2,M\\nDMW,2022-05-02 18:15,-77.0077,39.6083,73.40,53.60,49.90,310.00,4.00,0.00,30.01,M,10.00,M,BKN,BKN,M,M,4600.00,6000.00,M,M,M,M,M,M,M,M,M,73.40,KDMW 021815Z AUTO 31004KT 10SM BKN046 BKN060 23/12 A3001 RMK AO2 LTG DSNT SE,M\\nDMW,2022-05-02 18:35,-77.0077,39.6083,73.40,53.60,49.90,230.00,6.00,0.00,30.01,M,10.00,M,SCT,SCT,M,M,4800.00,6000.00,M,M,M,M,M,M,M,M,M,73.40,KDMW 021835Z AUTO 23006KT 10SM SCT048 SCT060 23/12 A3001 RMK AO2 LTG DSNT SE,M\\nDMW,2022-05-02 18:55,-77.0077,39.6083,75.20,53.60,46.98,280.00,5.00,0.00,30.01,M,10.00,M,SCT,M,M,M,4600.00,M,M,M,M,M,M,M,M,M,M,75.20,KDMW 021855Z AUTO 28005KT 10SM SCT046 24/12 A3001 RMK AO2 LTG DSNT SE,M\\nDMW,2022-05-02 19:15,-77.0077,39.6083,75.20,51.80,43.97,290.00,9.00,0.00,30.00,M,10.00,M,SCT,M,M,M,4800.00,M,M,M,M,M,M,M,M,M,M,75.20,KDMW 021915Z AUTO 29009KT 10SM SCT048 24/11 A3000 RMK AO2,M\\nDMW,2022-05-02 19:25,-77.0077,39.6083,75.20,50.00,41.14,270.00,7.00,0.00,30.00,M,10.00,M,CLR,M,M,M,M,M,M,M,M,M,M,M,M,M,M,75.20,KDMW 021925Z AUTO 27007KT 10SM CLR 24/10 A3000 RMK AO2,M\\nDMW,2022-05-02 19:55,-77.0077,39.6083,78.80,50.00,36.51,300.00,6.00,0.00,29.99,M,10.00,M,SCT,BKN,M,M,6000.00,7000.00,M,M,M,M,M,M,M,M,M,78.80,KDMW 021955Z AUTO 30006KT 10SM SCT060 BKN070 26/10 A2999 RMK AO2 LTG DSNT SE,M\\nDMW,2022-05-02 20:05,-77.0077,39.6083,78.80,50.00,36.51,250.00,8.00,0.00,29.99,M,10.00,M,SCT,SCT,M,M,6000.00,7000.00,M,M,M,M,M,M,M,M,M,78.80,KDMW 022005Z AUTO 25008KT 10SM SCT060 SCT070 26/10 A2999 RMK AO2,M\\nDMW,2022-05-02 20:35,-77.0077,39.6083,78.80,48.20,34.13,290.00,6.00,0.00,29.98,M,10.00,M,SCT,M,M,M,7500.00,M,M,M,M,M,M,M,M,M,M,78.80,KDMW 022035Z AUTO 29006KT 10SM SCT075 26/09 A2998 RMK AO2,M\\nDMW,2022-05-02 20:55,-77.0077,39.6083,78.80,46.40,31.90,0.00,0.00,0.00,29.98,M,10.00,M,CLR,M,M,M,M,M,M,M,M,M,M,M,M,M,M,78.80,KDMW 022055Z AUTO 00000KT 10SM CLR 26/08 A2998 RMK AO2,M\\nDMW,2022-05-02 21:15,-77.0077,39.6083,80.60,44.60,28.08,270.00,8.00,0.00,29.98,M,10.00,M,CLR,M,M,M,M,M,M,M,M,M,M,M,M,M,M,79.42,KDMW 022115Z AUTO 27008KT 10SM CLR 27/07 A2998 RMK AO2,M\\nDMW,2022-05-02 21:35,-77.0077,39.6083,80.60,44.60,28.08,280.00,3.00,0.00,29.98,M,10.00,M,CLR,M,M,M,M,M,M,M,M,M,M,M,M,M,M,79.42,KDMW 022135Z AUTO 28003KT 10SM CLR 27/07 A2998 RMK AO2,M\\nDMW,2022-05-02 21:55,-77.0077,39.6083,80.60,44.60,28.08,290.00,7.00,0.00,29.99,M,10.00,M,CLR,M,M,M,M,M,M,M,M,M,M,M,M,M,M,79.42,KDMW 022155Z AUTO 29007KT 270V330 10SM CLR 27/07 A2999 RMK AO2 LTG DSNT SE,M\\nDMW,2022-05-02 22:15,-77.0077,39.6083,80.60,46.40,30.07,300.00,6.00,0.00,29.99,M,10.00,M,CLR,M,M,M,M,M,M,M,M,M,M,M,M,M,M,79.56,KDMW 022215Z AUTO 30006KT 10SM CLR 27/08 A2999 RMK AO2,M\\nDMW,2022-05-02 22:25,-77.0077,39.6083,80.60,46.40,30.07,340.00,5.00,0.00,29.99,M,10.00,M,CLR,M,M,M,M,M,M,M,M,M,M,M,M,M,M,79.56,KDMW 022225Z AUTO 34005KT 10SM CLR 27/08 A2999 RMK AO2,M\\nDMW,2022-05-02 22:55,-77.0077,39.6083,78.80,46.40,31.90,300.00,5.00,0.00,29.99,M,10.00,M,CLR,M,M,M,M,M,M,M,M,M,M,M,M,M,M,78.80,KDMW 022255Z AUTO 30005KT 10SM CLR 26/08 A2999 RMK AO2,M\\nDMW,2022-05-02 23:15,-77.0077,39.6083,78.80,44.60,29.79,320.00,3.00,0.00,30.00,M,10.00,M,CLR,M,M,M,M,M,M,M,M,M,M,M,M,M,M,78.80,KDMW 022315Z AUTO 32003KT 10SM CLR 26/07 A3000 RMK AO2,M\\nDMW,2022-05-02 23:35,-77.0077,39.6083,75.20,44.60,33.57,0.00,0.00,0.00,30.01,M,10.00,M,CLR,M,M,M,M,M,M,M,M,M,M,M,M,M,M,75.20,KDMW 022335Z AUTO 00000KT 10SM CLR 24/07 A3001 RMK AO2 LTG DSNT SE,M\\nDMW,2022-05-02 23:55,-77.0077,39.6083,73.40,46.40,38.18,0.00,0.00,0.00,30.01,M,10.00,M,CLR,M,M,M,M,M,M,M,M,M,M,M,M,M,M,73.40,KDMW 022355Z AUTO 00000KT 10SM CLR 23/08 A3001 RMK AO2,M\\nDMW,2022-05-03 00:15,-77.0077,39.6083,71.60,46.40,40.57,0.00,0.00,0.00,30.02,M,10.00,M,CLR,M,M,M,M,M,M,M,M,M,M,M,M,M,M,71.60,KDMW 030015Z AUTO 00000KT 10SM CLR 22/08 A3002 RMK AO2 LTG DSNT N,M\\nDMW,2022-05-03 00:35,-77.0077,39.6083,69.80,46.40,43.13,0.00,0.00,0.00,30.03,M,10.00,M,CLR,M,M,M,M,M,M,M,M,M,M,M,M,M,M,69.80,KDMW 030035Z AUTO 00000KT 10SM CLR 21/08 A3003 RMK AO2,M\\nDMW,2022-05-03 00:55,-77.0077,39.6083,69.80,46.40,43.13,0.00,0.00,0.00,30.03,M,10.00,M,CLR,M,M,M,M,M,M,M,M,M,M,M,M,M,M,69.80,KDMW 030055Z AUTO 00000KT 10SM CLR 21/08 A3003 RMK AO2,M\\nDMW,2022-05-03 01:15,-77.0077,39.6083,66.20,46.40,48.83,0.00,0.00,0.00,30.04,M,10.00,M,CLR,M,M,M,M,M,M,M,M,M,M,M,M,M,M,66.20,KDMW 030115Z AUTO 00000KT 10SM CLR 19/08 A3004 RMK AO2,M\\nDMW,2022-05-03 01:35,-77.0077,39.6083,64.40,46.40,51.98,50.00,3.00,0.00,30.05,M,10.00,M,CLR,M,M,M,M,M,M,M,M,M,M,M,M,M,M,64.40,KDMW 030135Z AUTO 05003KT 10SM CLR 18/08 A3005 RMK AO2 LTG DSNT E,M\\nDMW,2022-05-03 01:55,-77.0077,39.6083,64.40,46.40,51.98,0.00,0.00,0.00,30.05,M,10.00,M,CLR,M,M,M,M,M,M,M,M,M,M,M,M,M,M,64.40,KDMW 030155Z AUTO 00000KT 10SM CLR 18/08 A3005 RMK AO2,M\\nDMW,2022-05-03 02:15,-77.0077,39.6083,64.40,46.40,51.98,30.00,3.00,0.00,30.06,M,10.00,M,CLR,M,M,M,M,M,M,M,M,M,M,M,M,M,M,64.40,KDMW 030215Z AUTO 03003KT 10SM CLR 18/08 A3006 RMK AO2,M\\nDMW,2022-05-03 02:35,-77.0077,39.6083,64.40,46.40,51.98,30.00,3.00,0.00,30.06,M,10.00,M,CLR,M,M,M,M,M,M,M,M,M,M,M,M,M,M,64.40,KDMW 030235Z AUTO 03003KT 10SM CLR 18/08 A3006 RMK AO2,M\\nDMW,2022-05-03 02:45,-77.0077,39.6083,64.40,46.40,51.98,20.00,3.00,0.00,30.06,M,10.00,M,CLR,M,M,M,M,M,M,M,M,M,M,M,M,M,M,64.40,KDMW 030245Z AUTO 02003KT 10SM CLR 18/08 A3006 RMK AO2,M\\nDMW,2022-05-03 03:15,-77.0077,39.6083,62.60,48.20,59.26,90.00,3.00,0.00,30.08,M,10.00,M,CLR,M,M,M,M,M,M,M,M,M,M,M,M,M,M,62.60,KDMW 030315Z AUTO 09003KT 10SM CLR 17/09 A3008 RMK AO2,M\\nDMW,2022-05-03 03:35,-77.0077,39.6083,60.80,48.20,63.15,0.00,0.00,0.00,30.08,M,10.00,M,CLR,M,M,M,M,M,M,M,M,M,M,M,M,M,M,60.80,KDMW 030335Z AUTO 00000KT 10SM CLR 16/09 A3008 RMK AO2,M\\nDMW,2022-05-03 03:55,-77.0077,39.6083,60.80,46.40,59.01,0.00,0.00,0.00,30.08,M,10.00,M,CLR,M,M,M,M,M,M,M,M,M,M,M,M,M,M,60.80,KDMW 030355Z AUTO 00000KT 10SM CLR 16/08 A3008 RMK AO2 LTG DSNT E,M\\nDMW,2022-05-03 04:15,-77.0077,39.6083,60.80,46.40,59.01,50.00,4.00,0.00,30.08,M,10.00,M,CLR,M,M,M,M,M,M,M,M,M,M,M,M,M,M,60.80,KDMW 030415Z AUTO 05004KT 10SM CLR 16/08 A3008 RMK AO2,M\\nDMW,2022-05-03 04:35,-77.0077,39.6083,60.80,46.40,59.01,50.00,4.00,0.00,30.08,M,10.00,M,CLR,M,M,M,M,M,M,M,M,M,M,M,M,M,M,60.80,KDMW 030435Z AUTO 05004KT 10SM CLR 16/08 A3008 RMK AO2,M\\nDMW,2022-05-03 04:55,-77.0077,39.6083,60.80,46.40,59.01,50.00,4.00,0.00,30.08,M,10.00,M,CLR,M,M,M,M,M,M,M,M,M,M,M,M,M,M,60.80,KDMW 030455Z AUTO 05004KT 10SM CLR 16/08 A3008 RMK AO2,M\\nDMW,2022-05-03 05:15,-77.0077,39.6083,60.80,46.40,59.01,40.00,3.00,0.00,30.08,M,10.00,M,CLR,M,M,M,M,M,M,M,M,M,M,M,M,M,M,60.80,KDMW 030515Z AUTO 04003KT 10SM CLR 16/08 A3008 RMK AO2,M\\nDMW,2022-05-03 05:35,-77.0077,39.6083,60.80,46.40,59.01,50.00,5.00,0.00,30.07,M,10.00,M,CLR,M,M,M,M,M,M,M,M,M,M,M,M,M,M,60.80,KDMW 030535Z AUTO 05005KT 10SM CLR 16/08 A3007 RMK AO2,M\\nDMW,2022-05-03 05:45,-77.0077,39.6083,60.80,46.40,59.01,50.00,4.00,0.00,30.07,M,10.00,M,CLR,M,M,M,M,M,M,M,M,M,M,M,M,M,M,60.80,KDMW 030545Z AUTO 05004KT 10SM CLR 16/08 A3007 RMK AO2,M\\nDMW,2022-05-03 06:35,-77.0077,39.6083,57.20,46.40,67.12,40.00,4.00,0.00,30.07,M,10.00,M,CLR,M,M,M,M,M,M,M,M,M,M,M,M,M,M,57.20,KDMW 030635Z AUTO 04004KT 10SM CLR 14/08 A3007 RMK AO2,M\\nDMW,2022-05-03 06:55,-77.0077,39.6083,59.00,46.40,62.92,50.00,5.00,0.00,30.06,M,10.00,M,CLR,M,M,M,M,M,M,M,M,M,M,M,M,M,M,59.00,KDMW 030655Z AUTO 05005KT 10SM CLR 15/08 A3006 RMK AO2,M\\nDMW,2022-05-03 07:15,-77.0077,39.6083,59.00,46.40,62.92,50.00,4.00,0.00,30.06,M,10.00,M,CLR,M,M,M,M,M,M,M,M,M,M,M,M,M,M,59.00,KDMW 030715Z AUTO 05004KT 10SM CLR 15/08 A3006 RMK AO2,M\\nDMW,2022-05-03 07:35,-77.0077,39.6083,57.20,48.20,71.83,70.00,3.00,0.00,30.07,M,10.00,M,CLR,M,M,M,M,M,M,M,M,M,M,M,M,M,M,57.20,KDMW 030735Z AUTO 07003KT 10SM CLR 14/09 A3007 RMK AO2,M\\nDMW,2022-05-03 07:55,-77.0077,39.6083,57.20,51.80,82.12,70.00,3.00,0.00,30.07,M,10.00,M,CLR,M,M,M,M,M,M,M,M,M,M,M,M,M,M,57.20,KDMW 030755Z AUTO 07003KT 10SM CLR 14/11 A3007 RMK AO2,M\\nDMW,2022-05-03 08:15,-77.0077,39.6083,55.40,50.00,81.99,70.00,3.00,0.00,30.08,M,10.00,M,CLR,M,M,M,M,M,M,M,M,M,M,M,M,M,M,55.40,KDMW 030815Z AUTO 07003KT 10SM CLR 13/10 A3008 RMK AO2,M\\nDMW,2022-05-03 08:25,-77.0077,39.6083,55.40,51.80,87.65,60.00,4.00,0.00,30.08,M,10.00,M,CLR,M,M,M,M,M,M,M,M,M,M,M,M,M,M,55.40,KDMW 030825Z AUTO 06004KT 10SM CLR 13/11 A3008 RMK AO2,M\\nDMW,2022-05-03 08:55,-77.0077,39.6083,55.40,53.60,93.65,80.00,4.00,0.00,30.08,M,7.00,M,CLR,M,M,M,M,M,M,M,M,M,M,M,M,M,M,55.40,KDMW 030855Z AUTO 08004KT 7SM CLR 13/12 A3008 RMK AO2,M\\nDMW,2022-05-03 09:15,-77.0077,39.6083,55.40,53.60,93.65,90.00,4.00,0.00,30.08,M,5.00,M,CLR,M,M,M,M,M,M,M,BR,M,M,M,M,M,M,55.40,KDMW 030915Z AUTO 09004KT 5SM BR CLR 13/12 A3008 RMK AO2 LTG DSNT SE,M\\nDMW,2022-05-03 09:35,-77.0077,39.6083,55.40,53.60,93.65,80.00,3.00,0.00,30.08,M,4.00,M,CLR,M,M,M,M,M,M,M,BR,M,M,M,M,M,M,55.40,KDMW 030935Z AUTO 08003KT 4SM BR CLR 13/12 A3008 RMK AO2,M\\nDMW,2022-05-03 09:55,-77.0077,39.6083,55.40,55.40,100.00,100.00,5.00,0.00,30.08,M,2.50,M,BKN,M,M,M,500.00,M,M,M,BR,M,M,M,M,M,M,55.40,KDMW 030955Z AUTO 10005KT 2 1/2SM BR BKN005 13/13 A3008 RMK AO2,M\\nDMW,2022-05-03 10:15,-77.0077,39.6083,55.40,55.40,100.00,80.00,6.00,0.00,30.08,M,2.00,M,OVC,M,M,M,300.00,M,M,M,BR,M,M,M,M,M,M,55.40,KDMW 031015Z AUTO 08006KT 2SM BR OVC003 13/13 A3008 RMK AO2,M\\nDMW,2022-05-03 10:35,-77.0077,39.6083,55.40,55.40,100.00,90.00,7.00,0.00,30.08,M,1.00,M,OVC,M,M,M,300.00,M,M,M,BR,M,M,M,M,M,M,55.40,KDMW 031035Z AUTO 09007KT 1SM BR OVC003 13/13 A3008 RMK AO2,M\\nDMW,2022-05-03 10:55,-77.0077,39.6083,55.40,55.40,100.00,100.00,6.00,0.00,30.10,M,1.00,M,OVC,M,M,M,300.00,M,M,M,BR,M,M,M,M,M,M,55.40,KDMW 031055Z AUTO 10006KT 1SM BR OVC003 13/13 A3010 RMK AO2 LTG DSNT SE,M\\nDMW,2022-05-03 11:15,-77.0077,39.6083,55.40,55.40,100.00,100.00,6.00,0.00,30.11,M,1.00,M,OVC,M,M,M,300.00,M,M,M,BR,M,M,M,M,M,M,55.40,KDMW 031115Z AUTO 10006KT 1SM BR OVC003 13/13 A3011 RMK AO2,M\\nDMW,2022-05-03 11:35,-77.0077,39.6083,55.40,55.40,100.00,0.00,0.00,0.00,30.12,M,1.00,M,OVC,M,M,M,300.00,M,M,M,BR,M,M,M,M,M,M,55.40,KDMW 031135Z AUTO 00000KT 1SM BR OVC003 13/13 A3012 RMK AO2,M\\nDMW,2022-05-03 11:55,-77.0077,39.6083,57.20,55.40,93.69,100.00,3.00,0.00,30.12,M,1.25,M,OVC,M,M,M,300.00,M,M,M,BR,M,M,M,M,M,M,57.20,KDMW 031155Z AUTO 10003KT 1 1/4SM BR OVC003 14/13 A3012 RMK AO2,M\\nDMW,2022-05-03 12:15,-77.0077,39.6083,57.20,55.40,93.69,120.00,3.00,0.00,30.13,M,1.50,M,OVC,M,M,M,300.00,M,M,M,BR,M,M,M,M,M,M,57.20,KDMW 031215Z AUTO 12003KT 1 1/2SM BR OVC003 14/13 A3013 RMK AO2,M\\nDMW,2022-05-03 12:35,-77.0077,39.6083,57.20,55.40,93.69,80.00,4.00,0.00,30.13,M,1.50,M,OVC,M,M,M,300.00,M,M,M,BR,M,M,M,M,M,M,57.20,KDMW 031235Z AUTO 08004KT 1 1/2SM BR OVC003 14/13 A3013 RMK AO2,M\\nDMW,2022-05-03 12:55,-77.0077,39.6083,57.20,55.40,93.69,110.00,3.00,0.00,30.13,M,1.50,M,OVC,M,M,M,300.00,M,M,M,BR,M,M,M,M,M,M,57.20,KDMW 031255Z AUTO 11003KT 1 1/2SM BR OVC003 14/13 A3013 RMK AO2 LTG DSNT W,M\\nDMW,2022-05-03 13:15,-77.0077,39.6083,57.20,55.40,93.69,100.00,4.00,0.00,30.13,M,1.75,M,OVC,M,M,M,300.00,M,M,M,BR,M,M,M,M,M,M,57.20,KDMW 031315Z AUTO 10004KT 1 3/4SM BR OVC003 14/13 A3013 RMK AO2,M\\nDMW,2022-05-03 13:35,-77.0077,39.6083,57.20,55.40,93.69,110.00,7.00,0.00,30.13,M,1.75,M,OVC,M,M,M,300.00,M,M,M,BR,M,M,M,M,M,M,57.20,KDMW 031335Z AUTO 11007KT 1 3/4SM BR OVC003 14/13 A3013 RMK AO2,M\\nDMW,2022-05-03 13:55,-77.0077,39.6083,57.20,55.40,93.69,140.00,6.00,0.00,30.14,M,2.00,M,OVC,M,M,M,300.00,M,M,M,BR,M,M,M,M,M,M,57.20,KDMW 031355Z AUTO 14006KT 2SM BR OVC003 14/13 A3014 RMK AO2,M\\nDMW,2022-05-03 14:15,-77.0077,39.6083,59.00,55.40,87.83,110.00,4.00,0.00,30.13,M,2.00,M,OVC,M,M,M,300.00,M,M,M,BR,M,M,M,M,M,M,59.00,KDMW 031415Z AUTO 11004KT 2SM BR OVC003 15/13 A3013 RMK AO2,M\\nDMW,2022-05-03 14:35,-77.0077,39.6083,59.00,55.40,87.83,130.00,5.00,0.00,30.13,M,2.00,M,OVC,M,M,M,300.00,M,M,M,BR,M,M,M,M,M,M,59.00,KDMW 031435Z AUTO 13005KT 2SM BR OVC003 15/13 A3013 RMK AO2,M\\nDMW,2022-05-03 14:55,-77.0077,39.6083,60.80,55.40,82.37,150.00,6.00,0.00,30.14,M,3.00,M,OVC,M,M,M,500.00,M,M,M,HZ,M,M,M,M,M,M,60.80,KDMW 031455Z AUTO 15006KT 3SM HZ OVC005 16/13 A3014 RMK AO2,M\\nDMW,2022-05-03 15:15,-77.0077,39.6083,60.80,55.40,82.37,140.00,5.00,0.00,30.14,M,4.00,M,OVC,M,M,M,700.00,M,M,M,HZ,M,M,M,M,M,M,60.80,KDMW 031515Z AUTO 14005KT 4SM HZ OVC007 16/13 A3014 RMK AO2,M\\nDMW,2022-05-03 15:25,-77.0077,39.6083,60.80,55.40,82.37,130.00,4.00,0.00,30.13,M,4.00,M,OVC,M,M,M,700.00,M,M,M,HZ,M,M,M,M,M,M,60.80,KDMW 031525Z AUTO 13004KT 4SM HZ OVC007 16/13 A3013 RMK AO2,M\\nDMW,2022-05-03 15:45,-77.0077,39.6083,62.60,55.40,77.29,130.00,5.00,0.00,30.13,M,4.00,M,OVC,M,M,M,700.00,M,M,M,HZ,M,M,M,M,M,M,62.60,KDMW 031545Z AUTO 13005KT 4SM HZ OVC007 17/13 A3013 RMK AO2,M\\nDMW,2022-05-03 16:15,-77.0077,39.6083,64.40,55.40,72.56,130.00,6.00,0.00,30.11,M,5.00,M,OVC,M,M,M,1100.00,M,M,M,HZ,M,M,M,M,M,M,64.40,KDMW 031615Z AUTO 13006KT 5SM HZ OVC011 18/13 A3011 RMK AO2,M\\nDMW,2022-05-03 16:35,-77.0077,39.6083,64.40,55.40,72.56,130.00,6.00,0.00,30.12,M,5.00,M,OVC,M,M,M,1100.00,M,M,M,HZ,M,M,M,M,M,M,64.40,KDMW 031635Z AUTO 13006KT 5SM HZ OVC011 18/13 A3012 RMK AO2,M\\nDMW,2022-05-03 16:55,-77.0077,39.6083,64.40,55.40,72.56,150.00,4.00,0.00,30.11,M,5.00,M,OVC,M,M,M,1300.00,M,M,M,HZ,M,M,M,M,M,M,64.40,KDMW 031655Z AUTO 15004KT 5SM HZ OVC013 18/13 A3011 RMK AO2,M\\nDMW,2022-05-03 17:15,-77.0077,39.6083,66.20,55.40,68.15,150.00,8.00,0.00,30.12,M,7.00,M,OVC,M,M,M,1300.00,M,M,M,M,M,M,M,M,M,M,66.20,KDMW 031715Z AUTO 15008KT 7SM OVC013 19/13 A3012 RMK AO2,M\\nDMW,2022-05-03 17:35,-77.0077,39.6083,69.80,55.40,60.21,160.00,5.00,0.00,30.12,M,7.00,M,BKN,M,M,M,1500.00,M,M,M,M,M,M,M,M,M,M,69.80,KDMW 031735Z AUTO 16005KT 7SM BKN015 21/13 A3012 RMK AO2,M\\nDMW,2022-05-03 17:55,-77.0077,39.6083,69.80,55.40,60.21,140.00,7.00,0.00,30.11,M,10.00,M,SCT,M,M,M,1700.00,M,M,M,M,M,M,M,M,M,M,69.80,KDMW 031755Z AUTO 14007KT 10SM SCT017 21/13 A3011 RMK AO2,M\\nDMW,2022-05-03 18:15,-77.0077,39.6083,69.80,55.40,60.21,150.00,8.00,0.00,30.10,M,10.00,M,SCT,M,M,M,1700.00,M,M,M,M,M,M,M,M,M,M,69.80,KDMW 031815Z AUTO 15008KT 130V190 10SM SCT017 21/13 A3010 RMK AO2,M\\nDMW,2022-05-03 18:35,-77.0077,39.6083,71.60,55.40,56.63,140.00,6.00,0.00,30.09,M,7.00,M,SCT,M,M,M,2100.00,M,M,M,M,M,M,M,M,M,M,71.60,KDMW 031835Z AUTO 14006KT 7SM SCT021 22/13 A3009 RMK AO2,M\\nDMW,2022-05-03 18:55,-77.0077,39.6083,73.40,55.40,53.29,170.00,9.00,0.00,30.09,M,10.00,M,SCT,M,M,M,2100.00,M,M,M,M,M,M,M,M,M,M,73.40,KDMW 031855Z AUTO 17009KT 10SM SCT021 23/13 A3009 RMK AO2,M\\nDMW,2022-05-03 19:15,-77.0077,39.6083,73.40,55.40,53.29,140.00,8.00,0.00,30.08,M,10.00,M,CLR,M,M,M,M,M,M,M,M,M,M,M,M,M,M,73.40,KDMW 031915Z AUTO 14008KT 10SM CLR 23/13 A3008 RMK AO2,M\\nDMW,2022-05-03 19:35,-77.0077,39.6083,73.40,55.40,53.29,160.00,8.00,0.00,30.07,M,10.00,M,CLR,M,M,M,M,M,M,M,M,M,M,M,M,M,M,73.40,KDMW 031935Z AUTO 16008KT 10SM CLR 23/13 A3007 RMK AO2,M\\nDMW,2022-05-03 19:55,-77.0077,39.6083,73.40,55.40,53.29,160.00,9.00,0.00,30.06,M,10.00,15.00,CLR,M,M,M,M,M,M,M,M,M,M,M,M,M,M,73.40,KDMW 031955Z AUTO 16009G15KT 10SM CLR 23/13 A3006 RMK AO2,M\\nDMW,2022-05-03 20:15,-77.0077,39.6083,75.20,55.40,50.17,170.00,10.00,0.00,30.05,M,10.00,14.00,CLR,M,M,M,M,M,M,M,M,M,M,M,M,M,M,75.20,KDMW 032015Z AUTO 17010G14KT 10SM CLR 24/13 A3005 RMK AO2,M\\nDMW,2022-05-03 20:25,-77.0077,39.6083,75.20,55.40,50.17,140.00,7.00,0.00,30.04,M,10.00,M,CLR,M,M,M,M,M,M,M,M,M,M,M,M,M,M,75.20,KDMW 032025Z AUTO 14007KT 10SM CLR 24/13 A3004 RMK AO2,M\\nDMW,2022-05-03 20:55,-77.0077,39.6083,75.20,55.40,50.17,150.00,5.00,0.00,30.04,M,10.00,M,CLR,M,M,M,M,M,M,M,M,M,M,M,M,M,M,75.20,KDMW 032055Z AUTO 15005KT 10SM CLR 24/13 A3004 RMK AO2,M\\nDMW,2022-05-03 21:15,-77.0077,39.6083,75.20,55.40,50.17,160.00,10.00,0.00,30.03,M,10.00,14.00,CLR,M,M,M,M,M,M,M,M,M,M,M,M,M,M,75.20,KDMW 032115Z AUTO 16010G14KT 10SM CLR 24/13 A3003 RMK AO2,M\\nDMW,2022-05-03 21:35,-77.0077,39.6083,75.20,55.40,50.17,160.00,8.00,0.00,30.03,M,10.00,15.00,CLR,M,M,M,M,M,M,M,M,M,M,M,M,M,M,75.20,KDMW 032135Z AUTO 16008G15KT 10SM CLR 24/13 A3003 RMK AO2,M\\nDMW,2022-05-03 21:55,-77.0077,39.6083,71.60,55.40,56.63,140.00,10.00,0.00,30.02,M,10.00,M,CLR,M,M,M,M,M,M,M,M,M,M,M,M,M,M,71.60,KDMW 032155Z AUTO 14010KT 10SM CLR 22/13 A3002 RMK AO2,M\\nDMW,2022-05-03 22:15,-77.0077,39.6083,71.60,55.40,56.63,140.00,9.00,0.00,30.01,M,10.00,14.00,CLR,M,M,M,M,M,M,M,M,M,M,M,M,M,M,71.60,KDMW 032215Z AUTO 14009G14KT 10SM CLR 22/13 A3001 RMK AO2,M\\nDMW,2022-05-03 22:35,-77.0077,39.6083,71.60,55.40,56.63,140.00,9.00,0.00,30.02,M,10.00,M,CLR,M,M,M,M,M,M,M,M,M,M,M,M,M,M,71.60,KDMW 032235Z AUTO 14009KT 10SM CLR 22/13 A3002 RMK AO2,M\\nDMW,2022-05-03 22:55,-77.0077,39.6083,69.80,55.40,60.21,150.00,9.00,0.00,30.02,M,10.00,15.00,CLR,M,M,M,M,M,M,M,M,M,M,M,M,M,M,69.80,KDMW 032255Z AUTO 15009G15KT 10SM CLR 21/13 A3002 RMK AO2,M\\nDMW,2022-05-03 23:35,-77.0077,39.6083,66.20,55.40,68.15,130.00,8.00,0.00,30.00,M,10.00,M,CLR,M,M,M,M,M,M,M,M,M,M,M,M,M,M,66.20,KDMW 032335Z AUTO 13008KT 10SM CLR 19/13 A3000 RMK AO2,M\\nDMW,2022-05-03 23:55,-77.0077,39.6083,66.20,55.40,68.15,140.00,7.00,0.00,30.00,M,10.00,M,CLR,M,M,M,M,M,M,M,M,M,M,M,M,M,M,66.20,KDMW 032355Z AUTO 14007KT 10SM CLR 19/13 A3000 RMK AO2,M\\nDMW,2022-05-04 00:15,-77.0077,39.6083,66.20,53.60,63.82,130.00,10.00,0.00,29.99,M,10.00,16.00,CLR,M,M,M,M,M,M,M,M,M,M,M,M,M,M,66.20,KDMW 040015Z AUTO 13010G16KT 10SM CLR 19/12 A2999 RMK AO2,M\\nDMW,2022-05-04 00:35,-77.0077,39.6083,64.40,53.60,67.95,140.00,10.00,0.00,29.98,M,10.00,M,CLR,M,M,M,M,M,M,M,M,M,M,M,M,M,M,64.40,KDMW 040035Z AUTO 14010KT 10SM CLR 18/12 A2998 RMK AO2,M\\nDMW,2022-05-04 00:45,-77.0077,39.6083,64.40,53.60,67.95,130.00,10.00,0.00,29.98,M,10.00,17.00,CLR,M,M,M,M,M,M,M,M,M,M,M,M,M,M,64.40,KDMW 040045Z AUTO 13010G17KT 10SM CLR 18/12 A2998 RMK AO2,M\\nDMW,2022-05-04 01:05,-77.0077,39.6083,62.60,53.60,72.38,130.00,15.00,0.00,29.97,M,10.00,20.00,CLR,M,M,M,M,M,M,M,M,M,M,M,M,M,M,62.60,KDMW 040105Z AUTO 13015G20KT 10SM CLR 17/12 A2997 RMK AO2,M\\nDMW,2022-05-04 01:35,-77.0077,39.6083,62.60,51.80,67.75,140.00,16.00,0.00,29.98,M,10.00,M,CLR,M,M,M,M,M,M,M,M,M,M,M,M,M,M,62.60,KDMW 040135Z AUTO 14016KT 10SM CLR 17/11 A2998 RMK AO2,M\\nDMW,2022-05-04 01:55,-77.0077,39.6083,60.80,51.80,72.20,140.00,10.00,0.00,29.99,M,10.00,M,CLR,M,M,M,M,M,M,M,M,M,M,M,M,M,M,60.80,KDMW 040155Z AUTO 14010KT 10SM CLR 16/11 A2999 RMK AO2,M\\nDMW,2022-05-04 02:15,-77.0077,39.6083,60.80,51.80,72.20,130.00,7.00,0.00,30.00,M,10.00,M,SCT,M,M,M,1900.00,M,M,M,M,M,M,M,M,M,M,60.80,KDMW 040215Z AUTO 13007KT 10SM SCT019 16/11 A3000 RMK AO2 LTG DSNT NW,M\\nDMW,2022-05-04 02:35,-77.0077,39.6083,60.80,51.80,72.20,130.00,9.00,0.00,30.00,M,10.00,16.00,OVC,M,M,M,1700.00,M,M,M,M,M,M,M,M,M,M,60.80,KDMW 040235Z AUTO 13009G16KT 10SM OVC017 16/11 A3000 RMK AO2 LTG DSNT W AND NW,M\\nDMW,2022-05-04 02:55,-77.0077,39.6083,59.00,51.80,76.98,130.00,6.00,0.00,30.01,M,10.00,M,OVC,M,M,M,1700.00,M,M,M,M,M,M,M,M,M,M,59.00,KDMW 040255Z AUTO 13006KT 10SM OVC017 15/11 A3001 RMK AO2 LTG DSNT W,M\\nDMW,2022-05-04 03:15,-77.0077,39.6083,57.20,51.80,82.12,140.00,9.00,0.00,30.01,M,10.00,14.00,OVC,M,M,M,1500.00,M,M,M,M,M,M,M,M,M,M,57.20,KDMW 040315Z AUTO 14009G14KT 10SM OVC015 14/11 A3001 RMK AO2 LTG DSNT W AND NW,M\\nDMW,2022-05-04 03:35,-77.0077,39.6083,57.20,51.80,82.12,140.00,9.00,0.00,30.02,M,10.00,M,OVC,M,M,M,1300.00,M,M,M,TS,M,M,M,M,M,M,57.20,KDMW 040335Z AUTO 14009KT 10SM TS OVC013 14/11 A3002 RMK AO2 LTG DSNT SW AND NW,M\\nDMW,2022-05-04 03:55,-77.0077,39.6083,55.40,51.80,87.65,140.00,3.00,0.00,30.05,M,10.00,M,OVC,M,M,M,900.00,M,M,M,-VCTSRA,M,M,M,M,M,M,55.40,KDMW 040355Z AUTO 14003KT 10SM -VCTSRA OVC009 13/11 A3005 RMK AO2 LTG DSNT SW AND NW,M\\nDMW,2022-05-04 04:15,-77.0077,39.6083,55.40,53.60,93.65,140.00,8.00,0.01,30.04,M,3.00,M,OVC,M,M,M,900.00,M,M,M,RA,M,M,M,M,M,M,55.40,KDMW 040415Z AUTO 14008KT 120V180 3SM RA OVC009 13/12 A3004 RMK AO2 LTG DSNT S AND SW P0001,M\\nDMW,2022-05-04 04:55,-77.0077,39.6083,53.60,53.60,100.00,110.00,3.00,0.00,30.03,M,10.00,M,OVC,M,M,M,500.00,M,M,M,VCTS,M,M,M,M,M,M,53.60,KDMW 040455Z AUTO 11003KT 10SM VCTS OVC005 12/12 A3003 RMK AO2 LTG DSNT E THRU SW,M\\nDMW,2022-05-04 05:15,-77.0077,39.6083,53.60,53.60,100.00,100.00,5.00,0.06,30.01,M,4.00,M,OVC,M,M,M,500.00,M,M,M,+RA,M,M,M,M,M,M,53.60,KDMW 040515Z AUTO 10005KT 4SM +RA OVC005 12/12 A3001 RMK AO2 LTG DSNT SE AND SW P0006,M\\nDMW,2022-05-04 05:35,-77.0077,39.6083,53.60,53.60,100.00,110.00,6.00,0.09,29.98,M,7.00,M,OVC,M,M,M,500.00,M,M,M,RA,M,M,M,M,M,M,53.60,KDMW 040535Z AUTO 11006KT 7SM RA OVC005 12/12 A2998 RMK AO2 LTG DSNT SE P0009,M\\nDMW,2022-05-04 05:55,-77.0077,39.6083,53.60,53.60,100.00,150.00,5.00,0.00,30.01,M,10.00,M,OVC,M,M,M,500.00,M,M,M,-RA,M,M,M,M,M,M,53.60,KDMW 040555Z AUTO 15005KT 10SM -RA OVC005 12/12 A3001 RMK AO2 LTG DSNT E THRU S,M\\nDMW,2022-05-04 06:15,-77.0077,39.6083,53.60,53.60,100.00,130.00,4.00,0.04,30.00,M,7.00,M,OVC,M,M,M,500.00,M,M,M,RA,M,M,M,M,M,M,53.60,KDMW 040615Z AUTO 13004KT 7SM RA OVC005 12/12 A3000 RMK AO2 LTG DSNT SE AND S P0004,M\\nDMW,2022-05-04 06:35,-77.0077,39.6083,53.60,53.60,100.00,150.00,5.00,0.11,30.01,M,5.00,M,OVC,M,M,M,500.00,M,M,M,+RA,M,M,M,M,M,M,53.60,KDMW 040635Z AUTO 15005KT 5SM +RA OVC005 12/12 A3001 RMK AO2 LTG DSNT S P0011,M\\nDMW,2022-05-04 06:55,-77.0077,39.6083,53.60,53.60,100.00,130.00,8.00,0.01,29.99,M,10.00,M,OVC,M,M,M,500.00,M,M,M,RA,M,M,M,M,M,M,53.60,KDMW 040655Z AUTO 13008KT 10SM RA OVC005 12/12 A2999 RMK AO2 P0001,M\\nDMW,2022-05-04 07:15,-77.0077,39.6083,53.60,53.60,100.00,140.00,4.00,0.04,30.00,M,10.00,M,OVC,M,M,M,300.00,M,M,M,RA,M,M,M,M,M,M,53.60,KDMW 040715Z AUTO 14004KT 10SM RA OVC003 12/12 A3000 RMK AO2 P0004,M\\nDMW,2022-05-04 07:35,-77.0077,39.6083,53.60,53.60,100.00,140.00,4.00,0.05,29.99,M,7.00,M,OVC,M,M,M,300.00,M,M,M,RA,M,M,M,M,M,M,53.60,KDMW 040735Z AUTO 14004KT 7SM RA OVC003 12/12 A2999 RMK AO2 LTG DSNT SE AND S P0005,M\\nDMW,2022-05-04 07:45,-77.0077,39.6083,53.60,53.60,100.00,120.00,4.00,0.06,29.98,M,10.00,M,OVC,M,M,M,300.00,M,M,M,RA,M,M,M,M,M,M,53.60,KDMW 040745Z AUTO 12004KT 10SM RA OVC003 12/12 A2998 RMK AO2 LTG DSNT SE P0006,M\\nDMW,2022-05-04 08:15,-77.0077,39.6083,53.60,53.60,100.00,120.00,7.00,0.01,29.93,M,10.00,M,OVC,M,M,M,300.00,M,M,M,DZ,M,M,M,M,M,M,53.60,KDMW 040815Z AUTO 12007KT 10SM DZ OVC003 12/12 A2993 RMK AO2 P0001,M\\nDMW,2022-05-04 08:35,-77.0077,39.6083,53.60,53.60,100.00,0.00,0.00,0.01,29.94,M,10.00,M,OVC,M,M,M,300.00,M,M,M,-RA,M,M,M,M,M,M,53.60,KDMW 040835Z AUTO 00000KT 10SM -RA OVC003 12/12 A2994 RMK AO2 P0001,M\\nDMW,2022-05-04 08:55,-77.0077,39.6083,53.60,53.60,100.00,0.00,0.00,0.01,M,M,10.00,M,OVC,M,M,M,300.00,M,M,M,RA,M,M,M,M,M,M,53.60,KDMW 040855Z AUTO 00000KT 10SM RA OVC003 12/12 RMK AO2 P0001,M\\nDMW,2022-05-04 09:15,-77.0077,39.6083,53.60,53.60,100.00,170.00,4.00,0.01,29.98,M,5.00,M,OVC,M,M,M,300.00,M,M,M,-RA,M,M,M,M,M,M,53.60,KDMW 040915Z AUTO 17004KT 5SM -RA OVC003 12/12 A2998 RMK AO2 P0001,M\\nDMW,2022-05-04 09:55,-77.0077,39.6083,53.60,53.60,100.00,0.00,0.00,0.01,29.97,M,7.00,M,OVC,M,M,M,300.00,M,M,M,RA,M,M,M,M,M,M,53.60,KDMW 040955Z AUTO 00000KT 7SM RA OVC003 12/12 A2997 RMK AO2 P0001,M\\nDMW,2022-05-04 10:15,-77.0077,39.6083,53.60,53.60,100.00,0.00,0.00,0.02,29.96,M,7.00,M,OVC,M,M,M,300.00,M,M,M,-RA,M,M,M,M,M,M,53.60,KDMW 041015Z AUTO 00000KT 7SM -RA OVC003 12/12 A2996 RMK AO2 LTG DSNT SE P0002,M\\nDMW,2022-05-04 10:35,-77.0077,39.6083,53.60,53.60,100.00,0.00,0.00,0.03,29.95,M,10.00,M,OVC,M,M,M,300.00,M,M,M,-RA,M,M,M,M,M,M,53.60,KDMW 041035Z AUTO 00000KT 10SM -RA OVC003 12/12 A2995 RMK AO2 P0003,M\\nDMW,2022-05-04 10:55,-77.0077,39.6083,53.60,53.60,100.00,130.00,4.00,0.00,29.94,M,4.00,M,OVC,M,M,M,300.00,M,M,M,-RA,M,M,M,M,M,M,53.60,KDMW 041055Z AUTO 13004KT 4SM -RA OVC003 12/12 A2994 RMK AO2,M\\nDMW,2022-05-04 11:05,-77.0077,39.6083,53.60,53.60,100.00,130.00,3.00,0.00,29.94,M,4.00,M,OVC,M,M,M,300.00,M,M,M,-RA,M,M,M,M,M,M,53.60,KDMW 041105Z AUTO 13003KT 4SM -RA OVC003 12/12 A2994 RMK AO2,M\\nDMW,2022-05-04 11:35,-77.0077,39.6083,55.40,53.60,93.65,0.00,0.00,0.00,29.96,M,5.00,M,OVC,M,M,M,300.00,M,M,M,BR,M,M,M,M,M,M,55.40,KDMW 041135Z AUTO 00000KT 5SM BR OVC003 13/12 A2996 RMK AO2,M\\nDMW,2022-05-04 11:55,-77.0077,39.6083,55.40,55.40,100.00,230.00,3.00,0.00,29.97,M,4.00,M,OVC,M,M,M,300.00,M,M,M,BR,M,M,M,M,M,M,55.40,KDMW 041155Z AUTO 23003KT 4SM BR OVC003 13/13 A2997 RMK AO2,M\\nDMW,2022-05-04 12:15,-77.0077,39.6083,55.40,55.40,100.00,0.00,0.00,0.00,29.96,M,3.00,M,OVC,M,M,M,300.00,M,M,M,-RA,M,M,M,M,M,M,55.40,KDMW 041215Z AUTO 00000KT 3SM -RA OVC003 13/13 A2996 RMK AO2,M\\nDMW,2022-05-04 12:35,-77.0077,39.6083,57.20,57.20,100.00,170.00,4.00,0.00,29.95,M,4.00,M,OVC,M,M,M,300.00,M,M,M,BR,M,M,M,M,M,M,57.20,KDMW 041235Z AUTO 17004KT 4SM BR OVC003 14/14 A2995 RMK AO2,M\\nDMW,2022-05-04 12:55,-77.0077,39.6083,57.20,57.20,100.00,180.00,4.00,0.00,29.96,M,5.00,M,OVC,M,M,M,300.00,M,M,M,BR,M,M,M,M,M,M,57.20,KDMW 041255Z AUTO 18004KT 5SM BR OVC003 14/14 A2996 RMK AO2,M\\nDMW,2022-05-04 13:15,-77.0077,39.6083,59.00,57.20,93.74,170.00,4.00,0.00,29.96,M,7.00,M,OVC,M,M,M,300.00,M,M,M,M,M,M,M,M,M,M,59.00,KDMW 041315Z AUTO 17004KT 7SM OVC003 15/14 A2996 RMK AO2,M\\nDMW,2022-05-04 13:35,-77.0077,39.6083,59.00,57.20,93.74,180.00,5.00,0.00,29.96,M,7.00,M,OVC,M,M,M,300.00,M,M,M,M,M,M,M,M,M,M,59.00,KDMW 041335Z AUTO 18005KT 7SM OVC003 15/14 A2996 RMK AO2,M\\nDMW,2022-05-04 13:55,-77.0077,39.6083,60.80,57.20,87.92,210.00,3.00,0.00,29.96,M,10.00,M,OVC,M,M,M,300.00,M,M,M,M,M,M,M,M,M,M,60.80,KDMW 041355Z AUTO 21003KT 10SM OVC003 16/14 A2996 RMK AO2,M\\nDMW,2022-05-04 14:15,-77.0077,39.6083,62.60,59.00,88.00,190.00,5.00,0.00,29.96,M,10.00,M,OVC,M,M,M,300.00,M,M,M,M,M,M,M,M,M,M,62.60,KDMW 041415Z AUTO 19005KT 10SM OVC003 17/15 A2996 RMK AO2,M\\nDMW,2022-05-04 14:25,-77.0077,39.6083,62.60,59.00,88.00,200.00,5.00,0.00,29.97,M,10.00,M,OVC,M,M,M,300.00,M,M,M,M,M,M,M,M,M,M,62.60,KDMW 041425Z AUTO 20005KT 10SM OVC003 17/15 A2997 RMK AO2,M\\nDMW,2022-05-04 14:55,-77.0077,39.6083,62.60,60.80,93.83,180.00,4.00,0.00,29.96,M,10.00,M,OVC,M,M,M,300.00,M,M,M,M,M,M,M,M,M,M,62.60,KDMW 041455Z AUTO 18004KT 10SM OVC003 17/16 A2996 RMK AO2,M\\nDMW,2022-05-04 15:15,-77.0077,39.6083,64.40,60.80,88.09,180.00,5.00,0.00,29.96,M,10.00,M,OVC,M,M,M,300.00,M,M,M,M,M,M,M,M,M,M,64.40,KDMW 041515Z AUTO 18005KT 10SM OVC003 18/16 A2996 RMK AO2,M\\nDMW,2022-05-04 15:35,-77.0077,39.6083,64.40,60.80,88.09,170.00,5.00,0.00,29.96,M,10.00,M,OVC,M,M,M,500.00,M,M,M,M,M,M,M,M,M,M,64.40,KDMW 041535Z AUTO 17005KT 10SM OVC005 18/16 A2996 RMK AO2,M\\nDMW,2022-05-04 15:55,-77.0077,39.6083,66.20,60.80,82.74,170.00,6.00,0.00,29.96,M,10.00,M,OVC,M,M,M,500.00,M,M,M,M,M,M,M,M,M,M,66.20,KDMW 041555Z AUTO 17006KT 10SM OVC005 19/16 A2996 RMK AO2,M\\nDMW,2022-05-04 16:05,-77.0077,39.6083,66.20,60.80,82.74,170.00,4.00,0.00,29.96,M,10.00,M,OVC,M,M,M,500.00,M,M,M,M,M,M,M,M,M,M,66.20,KDMW 041605Z AUTO 17004KT 10SM OVC005 19/16 A2996 RMK AO2,M\\nDMW,2022-05-04 16:35,-77.0077,39.6083,69.80,62.60,77.90,230.00,3.00,0.00,29.95,M,10.00,M,BKN,OVC,M,M,900.00,1300.00,M,M,M,M,M,M,M,M,M,69.80,KDMW 041635Z AUTO 23003KT 10SM BKN009 OVC013 21/17 A2995 RMK AO2 LTG DSNT SE,M\\nDMW,2022-05-04 16:55,-77.0077,39.6083,71.60,62.60,73.27,170.00,5.00,0.00,29.94,M,10.00,M,SCT,M,M,M,1100.00,M,M,M,M,M,M,M,M,M,M,71.60,KDMW 041655Z AUTO 17005KT 10SM SCT011 22/17 A2994 RMK AO2,M\\nDMW,2022-05-04 17:05,-77.0077,39.6083,73.40,62.60,68.94,200.00,4.00,0.00,29.94,M,10.00,M,SCT,M,M,M,1100.00,M,M,M,M,M,M,M,M,M,M,73.40,KDMW 041705Z AUTO 20004KT 10SM SCT011 23/17 A2994 RMK AO2,M\\nDMW,2022-05-04 17:35,-77.0077,39.6083,73.40,62.60,68.94,160.00,3.00,0.00,29.93,M,10.00,M,SCT,M,M,M,8500.00,M,M,M,M,M,M,M,M,M,M,73.40,KDMW 041735Z AUTO 16003KT 10SM SCT085 23/17 A2993 RMK AO2,M\\nDMW,2022-05-04 17:55,-77.0077,39.6083,73.40,64.40,73.44,200.00,5.00,0.00,29.93,M,10.00,M,BKN,M,M,M,8500.00,M,M,M,M,M,M,M,M,M,M,73.40,KDMW 041755Z AUTO 20005KT 10SM BKN085 23/18 A2993 RMK AO2,M\\nDMW,2022-05-04 18:15,-77.0077,39.6083,75.20,64.40,69.14,180.00,3.00,0.00,29.94,M,10.00,M,SCT,SCT,SCT,M,1700.00,2700.00,8500.00,M,M,M,M,M,M,M,M,75.20,KDMW 041815Z AUTO 18003KT 10SM SCT017 SCT027 SCT085 24/18 A2994 RMK AO2,M\\nDMW,2022-05-04 18:25,-77.0077,39.6083,75.20,64.40,69.14,170.00,4.00,0.00,29.93,M,10.00,M,BKN,BKN,BKN,M,1700.00,2700.00,8500.00,M,M,M,M,M,M,M,M,75.20,KDMW 041825Z AUTO 17004KT 10SM BKN017 BKN027 BKN085 24/18 A2993 RMK AO2,M\\nDMW,2022-05-04 18:55,-77.0077,39.6083,69.80,60.80,73.09,360.00,7.00,0.01,29.95,M,7.00,M,BKN,BKN,OVC,M,2100.00,2900.00,3800.00,M,+RA,M,M,M,M,M,M,69.80,KDMW 041855Z AUTO 36007KT 7SM +RA BKN021 BKN029 OVC038 21/16 A2995 RMK AO2 P0001,M\\nDMW,2022-05-04 19:15,-77.0077,39.6083,64.40,62.60,93.88,50.00,3.00,0.09,29.95,M,10.00,M,SCT,BKN,OVC,M,1800.00,3200.00,4300.00,M,-RA,M,M,M,M,M,M,64.40,KDMW 041915Z AUTO 05003KT 10SM -RA SCT018 BKN032 OVC043 18/17 A2995 RMK AO2 LTG DSNT S P0009,M\\nDMW,2022-05-04 19:35,-77.0077,39.6083,66.20,62.60,88.18,0.00,0.00,0.10,29.95,M,10.00,M,SCT,BKN,M,M,2700.00,7500.00,M,M,M,M,M,M,M,M,M,66.20,KDMW 041935Z AUTO 00000KT 10SM SCT027 BKN075 19/17 A2995 RMK AO2 P0010,M\\nDMW,2022-05-04 19:45,-77.0077,39.6083,66.20,62.60,88.18,0.00,0.00,0.10,29.95,M,10.00,M,BKN,M,M,M,7500.00,M,M,M,M,M,M,M,M,M,M,66.20,KDMW 041945Z AUTO 00000KT 10SM BKN075 19/17 A2995 RMK AO2 P0010,M\\nDMW,2022-05-04 20:15,-77.0077,39.6083,69.80,62.60,77.90,0.00,0.00,0.00,29.94,M,10.00,M,SCT,M,M,M,9500.00,M,M,M,M,M,M,M,M,M,M,69.80,KDMW 042015Z AUTO 00000KT 10SM SCT095 21/17 A2994 RMK AO2,M\\nDMW,2022-05-04 20:35,-77.0077,39.6083,73.40,64.40,73.44,150.00,3.00,0.00,29.94,M,10.00,M,SCT,M,M,M,9500.00,M,M,M,M,M,M,M,M,M,M,73.40,KDMW 042035Z AUTO 15003KT 10SM SCT095 23/18 A2994 RMK AO2,M\\nDMW,2022-05-04 20:55,-77.0077,39.6083,73.40,64.40,73.44,0.00,0.00,0.00,29.94,M,10.00,M,SCT,M,M,M,6000.00,M,M,M,M,M,M,M,M,M,M,73.40,KDMW 042055Z AUTO 00000KT 10SM SCT060 23/18 A2994 RMK AO2,M\\nDMW,2022-05-04 21:15,-77.0077,39.6083,73.40,64.40,73.44,150.00,3.00,0.00,29.94,M,10.00,M,BKN,M,M,M,6000.00,M,M,M,M,M,M,M,M,M,M,73.40,KDMW 042115Z AUTO 15003KT 10SM BKN060 23/18 A2994 RMK AO2,M\\nDMW,2022-05-04 21:35,-77.0077,39.6083,71.60,62.60,73.27,140.00,3.00,0.00,29.94,M,10.00,M,BKN,M,M,M,6000.00,M,M,M,M,M,M,M,M,M,M,71.60,KDMW 042135Z AUTO 14003KT 10SM BKN060 22/17 A2994 RMK AO2,M\\nDMW,2022-05-04 21:55,-77.0077,39.6083,71.60,62.60,73.27,100.00,3.00,0.00,29.95,M,10.00,M,BKN,M,M,M,6000.00,M,M,M,M,M,M,M,M,M,M,71.60,KDMW 042155Z AUTO 10003KT 10SM BKN060 22/17 A2995 RMK AO2 LTG DSNT E,M\\nDMW,2022-05-04 22:15,-77.0077,39.6083,73.40,62.60,68.94,0.00,0.00,0.00,29.95,M,10.00,M,SCT,M,M,M,7000.00,M,M,M,M,M,M,M,M,M,M,73.40,KDMW 042215Z AUTO 00000KT 10SM SCT070 23/17 A2995 RMK AO2 LTG DSNT S,M\\nDMW,2022-05-04 22:35,-77.0077,39.6083,75.20,62.60,64.91,130.00,3.00,0.00,29.95,M,10.00,M,SCT,M,M,M,6000.00,M,M,M,M,M,M,M,M,M,M,75.20,KDMW 042235Z AUTO 13003KT 10SM SCT060 24/17 A2995 RMK AO2,M\\nDMW,2022-05-04 22:55,-77.0077,39.6083,75.20,62.60,64.91,0.00,0.00,0.00,29.95,M,10.00,M,CLR,M,M,M,M,M,M,M,M,M,M,M,M,M,M,75.20,KDMW 042255Z AUTO 00000KT 10SM CLR 24/17 A2995 RMK AO2,M\\nDMW,2022-05-04 23:15,-77.0077,39.6083,73.40,57.20,56.88,290.00,3.00,0.00,29.96,M,10.00,M,CLR,M,M,M,M,M,M,M,M,M,M,M,M,M,M,73.40,KDMW 042315Z AUTO 29003KT 10SM CLR 23/14 A2996 RMK AO2,M\\nDMW,2022-05-04 23:35,-77.0077,39.6083,71.60,55.40,56.63,310.00,5.00,0.00,29.97,M,10.00,M,CLR,M,M,M,M,M,M,M,M,M,M,M,M,M,M,71.60,KDMW 042335Z AUTO 31005KT 10SM CLR 22/13 A2997 RMK AO2,M\\nDMW,2022-05-04 23:55,-77.0077,39.6083,69.80,55.40,60.21,280.00,4.00,0.00,29.98,M,10.00,M,CLR,M,M,M,M,M,M,M,M,M,M,M,M,M,M,69.80,KDMW 042355Z AUTO 28004KT 10SM CLR 21/13 A2998 RMK AO2,M\\nDMW,2022-05-05 00:15,-77.0077,39.6083,69.80,55.40,60.21,300.00,4.00,0.00,29.98,M,10.00,M,CLR,M,M,M,M,M,M,M,M,M,M,M,M,M,M,69.80,KDMW 050015Z AUTO 30004KT 10SM CLR 21/13 A2998 RMK AO2 LTG DSNT N,M\\nDMW,2022-05-05 00:35,-77.0077,39.6083,68.00,55.40,64.04,310.00,6.00,0.00,29.98,M,10.00,M,CLR,M,M,M,M,M,M,M,M,M,M,M,M,M,M,68.00,KDMW 050035Z AUTO 31006KT 10SM CLR 20/13 A2998 RMK AO2,M\\nDMW,2022-05-05 00:55,-77.0077,39.6083,66.20,53.60,63.82,310.00,7.00,0.00,29.99,M,10.00,M,CLR,M,M,M,M,M,M,M,M,M,M,M,M,M,M,66.20,KDMW 050055Z AUTO 31007KT 10SM CLR 19/12 A2999 RMK AO2,M\\nDMW,2022-05-05 01:15,-77.0077,39.6083,66.20,53.60,63.82,320.00,6.00,0.00,30.00,M,10.00,M,CLR,M,M,M,M,M,M,M,M,M,M,M,M,M,M,66.20,KDMW 050115Z AUTO 32006KT 10SM CLR 19/12 A3000 RMK AO2,M\\nDMW,2022-05-05 03:35,-77.0077,39.6083,62.60,55.40,77.29,30.00,7.00,0.00,30.06,M,10.00,M,BKN,OVC,M,M,2300.00,3100.00,M,M,M,M,M,M,M,M,M,62.60,KDMW 050335Z AUTO 03007KT 10SM BKN023 OVC031 17/13 A3006 RMK AO2,M\\nDMW,2022-05-05 03:55,-77.0077,39.6083,62.60,55.40,77.29,10.00,4.00,0.00,30.07,M,10.00,M,BKN,OVC,M,M,2500.00,4000.00,M,M,M,M,M,M,M,M,M,62.60,KDMW 050355Z AUTO 01004KT 10SM BKN025 OVC040 17/13 A3007 RMK AO2,M\\nDMW,2022-05-05 04:15,-77.0077,39.6083,62.60,53.60,72.38,30.00,6.00,0.00,30.07,M,10.00,M,BKN,BKN,OVC,M,2700.00,3300.00,3800.00,M,M,M,M,M,M,M,M,62.60,KDMW 050415Z AUTO 03006KT 10SM BKN027 BKN033 OVC038 17/12 A3007 RMK AO2,M\\nDMW,2022-05-05 04:35,-77.0077,39.6083,62.60,53.60,72.38,10.00,8.00,0.00,30.08,M,10.00,M,BKN,BKN,OVC,M,3000.00,3800.00,4800.00,M,M,M,M,M,M,M,M,62.60,KDMW 050435Z AUTO 01008KT 10SM BKN030 BKN038 OVC048 17/12 A3008 RMK AO2,M\\nDMW,2022-05-05 04:55,-77.0077,39.6083,60.80,51.80,72.20,30.00,5.00,0.00,30.08,M,10.00,M,BKN,OVC,M,M,3700.00,4400.00,M,M,M,M,M,M,M,M,M,60.80,KDMW 050455Z AUTO 03005KT 10SM BKN037 OVC044 16/11 A3008 RMK AO2,M\\nDMW,2022-05-05 05:15,-77.0077,39.6083,60.80,51.80,72.20,30.00,5.00,0.00,30.08,M,10.00,M,SCT,OVC,M,M,3800.00,4400.00,M,M,M,M,M,M,M,M,M,60.80,KDMW 050515Z AUTO 03005KT 10SM SCT038 OVC044 16/11 A3008 RMK AO2,M\\nDMW,2022-05-05 05:35,-77.0077,39.6083,60.80,51.80,72.20,10.00,7.00,0.00,30.07,M,10.00,M,OVC,M,M,M,4200.00,M,M,M,M,M,M,M,M,M,M,60.80,KDMW 050535Z AUTO 01007KT 10SM OVC042 16/11 A3007 RMK AO2 LTG DSNT E,M\\nDMW,2022-05-05 05:55,-77.0077,39.6083,60.80,51.80,72.20,360.00,8.00,0.00,30.08,M,10.00,M,OVC,M,M,M,4000.00,M,M,M,M,M,M,M,M,M,M,60.80,KDMW 050555Z AUTO 36008KT 10SM OVC040 16/11 A3008 RMK AO2 LTG DSNT E,M\\nDMW,2022-05-05 06:15,-77.0077,39.6083,60.80,51.80,72.20,350.00,7.00,0.00,30.07,M,10.00,M,OVC,M,M,M,3800.00,M,M,M,M,M,M,M,M,M,M,60.80,KDMW 050615Z AUTO 35007KT 340V040 10SM OVC038 16/11 A3007 RMK AO2,M\\nDMW,2022-05-05 06:35,-77.0077,39.6083,59.00,51.80,76.98,20.00,5.00,0.00,30.07,M,10.00,M,OVC,M,M,M,4000.00,M,M,M,M,M,M,M,M,M,M,59.00,KDMW 050635Z AUTO 02005KT 10SM OVC040 15/11 A3007 RMK AO2 LTG DSNT SE,M\\nDMW,2022-05-05 06:55,-77.0077,39.6083,59.00,51.80,76.98,360.00,5.00,0.00,30.08,M,10.00,M,OVC,M,M,M,4000.00,M,M,M,M,M,M,M,M,M,M,59.00,KDMW 050655Z AUTO 36005KT 10SM OVC040 15/11 A3008 RMK AO2,M\\nDMW,2022-05-05 07:15,-77.0077,39.6083,59.00,51.80,76.98,360.00,4.00,0.00,30.08,M,10.00,M,SCT,OVC,M,M,2200.00,4200.00,M,M,M,M,M,M,M,M,M,59.00,KDMW 050715Z AUTO 36004KT 10SM SCT022 OVC042 15/11 A3008 RMK AO2,M\\nDMW,2022-05-05 07:35,-77.0077,39.6083,57.20,50.00,76.82,350.00,6.00,0.00,30.09,M,10.00,M,BKN,OVC,M,M,2200.00,4200.00,M,M,M,M,M,M,M,M,M,57.20,KDMW 050735Z AUTO 35006KT 10SM BKN022 OVC042 14/10 A3009 RMK AO2,M\\nDMW,2022-05-05 07:55,-77.0077,39.6083,57.20,50.00,76.82,360.00,5.00,0.00,30.09,M,10.00,M,BKN,OVC,M,M,2200.00,4500.00,M,M,M,M,M,M,M,M,M,57.20,KDMW 050755Z AUTO 36005KT 10SM BKN022 OVC045 14/10 A3009 RMK AO2,M\\nDMW,2022-05-05 08:15,-77.0077,39.6083,57.20,50.00,76.82,360.00,5.00,0.00,30.09,M,10.00,M,BKN,OVC,M,M,2400.00,4500.00,M,M,M,M,M,M,M,M,M,57.20,KDMW 050815Z AUTO 36005KT 10SM BKN024 OVC045 14/10 A3009 RMK AO2,M\\nDMW,2022-05-05 08:35,-77.0077,39.6083,57.20,50.00,76.82,360.00,4.00,0.00,30.08,M,10.00,M,BKN,OVC,M,M,2400.00,4500.00,M,M,M,M,M,M,M,M,M,57.20,KDMW 050835Z AUTO 36004KT 10SM BKN024 OVC045 14/10 A3008 RMK AO2,M\\nDMW,2022-05-05 08:55,-77.0077,39.6083,57.20,50.00,76.82,360.00,5.00,0.00,30.07,M,10.00,M,BKN,OVC,M,M,2200.00,4400.00,M,M,M,M,M,M,M,M,M,57.20,KDMW 050855Z AUTO 36005KT 10SM BKN022 OVC044 14/10 A3007 RMK AO2,M\\nDMW,2022-05-05 09:15,-77.0077,39.6083,57.20,50.00,76.82,350.00,4.00,0.00,30.07,M,10.00,M,SCT,OVC,M,M,2200.00,4400.00,M,M,M,M,M,M,M,M,M,57.20,KDMW 050915Z AUTO 35004KT 10SM SCT022 OVC044 14/10 A3007 RMK AO2,M\\nDMW,2022-05-05 09:35,-77.0077,39.6083,57.20,50.00,76.82,360.00,4.00,0.00,30.07,M,10.00,M,OVC,M,M,M,4200.00,M,M,M,M,M,M,M,M,M,M,57.20,KDMW 050935Z AUTO 36004KT 10SM OVC042 14/10 A3007 RMK AO2,M\\nDMW,2022-05-05 09:55,-77.0077,39.6083,57.20,51.80,82.12,350.00,3.00,0.00,30.08,M,10.00,M,OVC,M,M,M,4200.00,M,M,M,M,M,M,M,M,M,M,57.20,KDMW 050955Z AUTO 35003KT 10SM OVC042 14/11 A3008 RMK AO2,M\\nDMW,2022-05-05 10:15,-77.0077,39.6083,57.20,51.80,82.12,360.00,3.00,0.00,30.08,M,10.00,M,OVC,M,M,M,4200.00,M,M,M,M,M,M,M,M,M,M,57.20,KDMW 051015Z AUTO 36003KT 10SM OVC042 14/11 A3008 RMK AO2,M\\nDMW,2022-05-05 10:35,-77.0077,39.6083,57.20,51.80,82.12,360.00,3.00,0.00,30.09,M,10.00,M,OVC,M,M,M,4400.00,M,M,M,M,M,M,M,M,M,M,57.20,KDMW 051035Z AUTO 36003KT 10SM OVC044 14/11 A3009 RMK AO2,M\\nDMW,2022-05-05 10:55,-77.0077,39.6083,57.20,51.80,82.12,350.00,3.00,0.00,30.09,M,10.00,M,OVC,M,M,M,4400.00,M,M,M,M,M,M,M,M,M,M,57.20,KDMW 051055Z AUTO 35003KT 10SM OVC044 14/11 A3009 RMK AO2 LTG DSNT SE,M\\nDMW,2022-05-05 11:05,-77.0077,39.6083,57.20,51.80,82.12,360.00,5.00,0.00,30.10,M,10.00,M,OVC,M,M,M,4400.00,M,M,M,M,M,M,M,M,M,M,57.20,KDMW 051105Z AUTO 36005KT 10SM OVC044 14/11 A3010 RMK AO2,M\\nDMW,2022-05-05 11:35,-77.0077,39.6083,57.20,51.80,82.12,360.00,4.00,0.00,30.12,M,10.00,M,OVC,M,M,M,4400.00,M,M,M,M,M,M,M,M,M,M,57.20,KDMW 051135Z AUTO 36004KT 10SM OVC044 14/11 A3012 RMK AO2 LTG DSNT SE,M\\nDMW,2022-05-05 11:55,-77.0077,39.6083,57.20,50.00,76.82,360.00,8.00,0.00,30.12,M,10.00,M,OVC,M,M,M,4400.00,M,M,M,M,M,M,M,M,M,M,57.20,KDMW 051155Z AUTO 36008KT 10SM OVC044 14/10 A3012 RMK AO2,M\\nDMW,2022-05-05 12:15,-77.0077,39.6083,57.20,50.00,76.82,360.00,5.00,0.00,30.14,M,10.00,M,OVC,M,M,M,4400.00,M,M,M,M,M,M,M,M,M,M,57.20,KDMW 051215Z AUTO 36005KT 10SM OVC044 14/10 A3014 RMK AO2,M\\nDMW,2022-05-05 12:35,-77.0077,39.6083,59.00,50.00,72.01,10.00,6.00,0.00,30.14,M,10.00,M,OVC,M,M,M,4400.00,M,M,M,M,M,M,M,M,M,M,59.00,KDMW 051235Z AUTO 01006KT 10SM OVC044 15/10 A3014 RMK AO2,M\\nDMW,2022-05-05 12:55,-77.0077,39.6083,59.00,50.00,72.01,10.00,8.00,0.00,30.14,M,10.00,M,OVC,M,M,M,4400.00,M,M,M,M,M,M,M,M,M,M,59.00,KDMW 051255Z AUTO 01008KT 350V050 10SM OVC044 15/10 A3014 RMK AO2,M\\nDMW,2022-05-05 13:15,-77.0077,39.6083,60.80,48.20,63.15,30.00,7.00,0.00,30.13,M,10.00,M,OVC,M,M,M,4400.00,M,M,M,M,M,M,M,M,M,M,60.80,KDMW 051315Z AUTO 03007KT 360V060 10SM OVC044 16/09 A3013 RMK AO2,M\\nDMW,2022-05-05 13:25,-77.0077,39.6083,60.80,48.20,63.15,40.00,6.00,0.00,30.14,M,10.00,M,OVC,M,M,M,4400.00,M,M,M,M,M,M,M,M,M,M,60.80,KDMW 051325Z AUTO 04006KT 10SM OVC044 16/09 A3014 RMK AO2,M\\nDMW,2022-05-05 13:55,-77.0077,39.6083,60.80,48.20,63.15,40.00,7.00,0.00,30.14,M,10.00,M,OVC,M,M,M,4400.00,M,M,M,M,M,M,M,M,M,M,60.80,KDMW 051355Z AUTO 04007KT 10SM OVC044 16/09 A3014 RMK AO2 LTG DSNT SE,M\\nDMW,2022-05-05 14:15,-77.0077,39.6083,60.80,48.20,63.15,60.00,7.00,0.00,30.13,M,10.00,M,OVC,M,M,M,4400.00,M,M,M,M,M,M,M,M,M,M,60.80,KDMW 051415Z AUTO 06007KT 10SM OVC044 16/09 A3013 RMK AO2,M\\nDMW,2022-05-05 14:35,-77.0077,39.6083,62.60,48.20,59.26,50.00,6.00,0.00,30.13,M,10.00,M,OVC,M,M,M,4400.00,M,M,M,M,M,M,M,M,M,M,62.60,KDMW 051435Z AUTO 05006KT 10SM OVC044 17/09 A3013 RMK AO2,M\\nDMW,2022-05-05 14:55,-77.0077,39.6083,64.40,50.00,59.50,60.00,4.00,0.00,30.13,M,10.00,M,OVC,M,M,M,4400.00,M,M,M,M,M,M,M,M,M,M,64.40,KDMW 051455Z AUTO 06004KT 10SM OVC044 18/10 A3013 RMK AO2 LTG DSNT SE,M\\nDMW,2022-05-05 15:15,-77.0077,39.6083,64.40,50.00,59.50,20.00,4.00,0.00,30.13,M,10.00,M,OVC,M,M,M,4400.00,M,M,M,M,M,M,M,M,M,M,64.40,KDMW 051515Z AUTO 02004KT 10SM OVC044 18/10 A3013 RMK AO2,M\\nDMW,2022-05-05 15:35,-77.0077,39.6083,64.40,50.00,59.50,0.00,0.00,0.00,30.13,M,10.00,M,OVC,M,M,M,4400.00,M,M,M,M,M,M,M,M,M,M,64.40,KDMW 051535Z AUTO 00000KT 10SM OVC044 18/10 A3013 RMK AO2,M\\nDMW,2022-05-05 15:55,-77.0077,39.6083,64.40,50.00,59.50,0.00,0.00,0.00,30.13,M,10.00,M,OVC,M,M,M,4600.00,M,M,M,M,M,M,M,M,M,M,64.40,KDMW 051555Z AUTO 00000KT 10SM OVC046 18/10 A3013 RMK AO2,M\\nDMW,2022-05-05 16:15,-77.0077,39.6083,66.20,50.00,55.88,200.00,3.00,0.00,30.12,M,10.00,M,OVC,M,M,M,4600.00,M,M,M,M,M,M,M,M,M,M,66.20,KDMW 051615Z AUTO 20003KT 10SM OVC046 19/10 A3012 RMK AO2,M\\nDMW,2022-05-05 16:35,-77.0077,39.6083,66.20,50.00,55.88,0.00,0.00,0.00,30.12,M,10.00,M,BKN,M,M,M,4600.00,M,M,M,M,M,M,M,M,M,M,66.20,KDMW 051635Z AUTO 00000KT 10SM BKN046 19/10 A3012 RMK AO2,M\\nDMW,2022-05-05 16:55,-77.0077,39.6083,66.20,50.00,55.88,0.00,0.00,0.00,30.12,M,10.00,M,BKN,OVC,M,M,4200.00,4800.00,M,M,M,M,M,M,M,M,M,66.20,KDMW 051655Z AUTO 00000KT 10SM BKN042 OVC048 19/10 A3012 RMK AO2,M\\nDMW,2022-05-05 17:15,-77.0077,39.6083,69.80,50.00,49.37,220.00,3.00,0.00,30.11,M,10.00,M,SCT,BKN,M,M,4200.00,4800.00,M,M,M,M,M,M,M,M,M,69.80,KDMW 051715Z AUTO 22003KT 10SM SCT042 BKN048 21/10 A3011 RMK AO2,M\\nDMW,2022-05-05 17:25,-77.0077,39.6083,69.80,50.00,49.37,0.00,0.00,0.00,30.11,M,10.00,M,BKN,M,M,M,4400.00,M,M,M,M,M,M,M,M,M,M,69.80,KDMW 051725Z AUTO 00000KT 10SM BKN044 21/10 A3011 RMK AO2,M\\nDMW,2022-05-05 17:55,-77.0077,39.6083,71.60,50.00,46.43,0.00,0.00,0.00,30.10,M,10.00,M,OVC,M,M,M,4400.00,M,M,M,M,M,M,M,M,M,M,71.60,KDMW 051755Z AUTO 00000KT 10SM OVC044 22/10 A3010 RMK AO2,M\\nDMW,2022-05-05 18:15,-77.0077,39.6083,69.80,50.00,49.37,0.00,0.00,0.00,30.10,M,10.00,M,OVC,M,M,M,4600.00,M,M,M,M,M,M,M,M,M,M,69.80,KDMW 051815Z AUTO 00000KT 10SM OVC046 21/10 A3010 RMK AO2,M\\nDMW,2022-05-05 18:35,-77.0077,39.6083,71.60,51.80,49.64,190.00,3.00,0.00,30.09,M,10.00,M,OVC,M,M,M,4800.00,M,M,M,M,M,M,M,M,M,M,71.60,KDMW 051835Z AUTO 19003KT 10SM OVC048 22/11 A3009 RMK AO2,M\\nDMW,2022-05-05 18:55,-77.0077,39.6083,69.80,50.00,49.37,0.00,0.00,0.00,30.08,M,10.00,M,OVC,M,M,M,4600.00,M,M,M,M,M,M,M,M,M,M,69.80,KDMW 051855Z AUTO 00000KT 10SM OVC046 21/10 A3008 RMK AO2,M\\nDMW,2022-05-05 19:15,-77.0077,39.6083,69.80,50.00,49.37,0.00,0.00,0.00,30.07,M,10.00,M,OVC,M,M,M,4600.00,M,M,M,M,M,M,M,M,M,M,69.80,KDMW 051915Z AUTO 00000KT 10SM OVC046 21/10 A3007 RMK AO2,M\\nDMW,2022-05-05 19:35,-77.0077,39.6083,69.80,51.80,52.77,0.00,0.00,0.00,30.06,M,10.00,M,OVC,M,M,M,4200.00,M,M,M,M,M,M,M,M,M,M,69.80,KDMW 051935Z AUTO 00000KT 10SM OVC042 21/11 A3006 RMK AO2,M\\nDMW,2022-05-05 19:55,-77.0077,39.6083,69.80,51.80,52.77,220.00,5.00,0.00,30.06,M,10.00,M,OVC,M,M,M,3800.00,M,M,M,M,M,M,M,M,M,M,69.80,KDMW 051955Z AUTO 22005KT 10SM OVC038 21/11 A3006 RMK AO2,M\\nDMW,2022-05-05 20:15,-77.0077,39.6083,68.00,53.60,59.97,200.00,6.00,0.00,30.06,M,10.00,M,SCT,OVC,M,M,3800.00,4400.00,M,M,M,M,M,M,M,M,M,68.00,KDMW 052015Z AUTO 20006KT 10SM SCT038 OVC044 20/12 A3006 RMK AO2,M\\nDMW,2022-05-05 20:35,-77.0077,39.6083,68.00,53.60,59.97,230.00,5.00,0.00,30.06,M,10.00,M,OVC,M,M,M,4800.00,M,M,M,M,M,M,M,M,M,M,68.00,KDMW 052035Z AUTO 23005KT 10SM OVC048 20/12 A3006 RMK AO2,M\\nDMW,2022-05-05 20:55,-77.0077,39.6083,68.00,53.60,59.97,230.00,6.00,0.00,30.06,M,10.00,M,BKN,M,M,M,5000.00,M,M,M,M,M,M,M,M,M,M,68.00,KDMW 052055Z AUTO 23006KT 10SM BKN050 20/12 A3006 RMK AO2,M\\nDMW,2022-05-05 21:15,-77.0077,39.6083,69.80,53.60,56.38,240.00,6.00,0.00,30.06,M,10.00,M,SCT,M,M,M,5000.00,M,M,M,M,M,M,M,M,M,M,69.80,KDMW 052115Z AUTO 24006KT 10SM SCT050 21/12 A3006 RMK AO2,M\\nDMW,2022-05-05 21:35,-77.0077,39.6083,69.80,53.60,56.38,200.00,7.00,0.00,30.06,M,10.00,M,BKN,M,M,M,5000.00,M,M,M,M,M,M,M,M,M,M,69.80,KDMW 052135Z AUTO 20007KT 10SM BKN050 21/12 A3006 RMK AO2,M\\nDMW,2022-05-05 21:55,-77.0077,39.6083,69.80,53.60,56.38,210.00,8.00,0.00,30.05,M,10.00,M,BKN,M,M,M,5000.00,M,M,M,M,M,M,M,M,M,M,69.80,KDMW 052155Z AUTO 21008KT 10SM BKN050 21/12 A3005 RMK AO2,M\\nDMW,2022-05-05 22:15,-77.0077,39.6083,69.80,53.60,56.38,230.00,6.00,0.00,30.05,M,10.00,M,SCT,M,M,M,5000.00,M,M,M,M,M,M,M,M,M,M,69.80,KDMW 052215Z AUTO 23006KT 10SM SCT050 21/12 A3005 RMK AO2,M\\nDMW,2022-05-05 22:35,-77.0077,39.6083,69.80,53.60,56.38,0.00,0.00,0.00,30.05,M,10.00,M,CLR,M,M,M,M,M,M,M,M,M,M,M,M,M,M,69.80,KDMW 052235Z AUTO 00000KT 10SM CLR 21/12 A3005 RMK AO2,M\\nDMW,2022-05-05 22:55,-77.0077,39.6083,69.80,53.60,56.38,0.00,0.00,0.00,30.05,M,10.00,M,CLR,M,M,M,M,M,M,M,M,M,M,M,M,M,M,69.80,KDMW 052255Z AUTO 00000KT 10SM CLR 21/12 A3005 RMK AO2,M\\nDMW,2022-05-05 23:15,-77.0077,39.6083,66.20,53.60,63.82,210.00,3.00,0.00,30.05,M,10.00,M,CLR,M,M,M,M,M,M,M,M,M,M,M,M,M,M,66.20,KDMW 052315Z AUTO 21003KT 10SM CLR 19/12 A3005 RMK AO2,M\\nDMW,2022-05-05 23:25,-77.0077,39.6083,66.20,53.60,63.82,230.00,3.00,0.00,30.05,M,10.00,M,CLR,M,M,M,M,M,M,M,M,M,M,M,M,M,M,66.20,KDMW 052325Z AUTO 23003KT 10SM CLR 19/12 A3005 RMK AO2,M\\nDMW,2022-05-05 23:55,-77.0077,39.6083,64.40,53.60,67.95,0.00,0.00,0.00,30.04,M,10.00,M,CLR,M,M,M,M,M,M,M,M,M,M,M,M,M,M,64.40,KDMW 052355Z AUTO 00000KT 10SM CLR 18/12 A3004 RMK AO2,M\\nDMW,2022-05-06 00:15,-77.0077,39.6083,64.40,53.60,67.95,200.00,3.00,0.00,30.04,M,10.00,M,CLR,M,M,M,M,M,M,M,M,M,M,M,M,M,M,64.40,KDMW 060015Z AUTO 20003KT 10SM CLR 18/12 A3004 RMK AO2,M\\nDMW,2022-05-06 00:35,-77.0077,39.6083,62.60,53.60,72.38,180.00,3.00,0.00,30.04,M,10.00,M,CLR,M,M,M,M,M,M,M,M,M,M,M,M,M,M,62.60,KDMW 060035Z AUTO 18003KT 10SM CLR 17/12 A3004 RMK AO2,M\\nDMW,2022-05-06 00:55,-77.0077,39.6083,62.60,53.60,72.38,180.00,4.00,0.00,30.04,M,10.00,M,CLR,M,M,M,M,M,M,M,M,M,M,M,M,M,M,62.60,KDMW 060055Z AUTO 18004KT 10SM CLR 17/12 A3004 RMK AO2,M\\nDMW,2022-05-06 01:15,-77.0077,39.6083,62.60,53.60,72.38,200.00,4.00,0.00,30.05,M,10.00,M,CLR,M,M,M,M,M,M,M,M,M,M,M,M,M,M,62.60,KDMW 060115Z AUTO 20004KT 10SM CLR 17/12 A3005 RMK AO2,M\\nDMW,2022-05-06 01:35,-77.0077,39.6083,62.60,53.60,72.38,180.00,4.00,0.00,30.06,M,10.00,M,CLR,M,M,M,M,M,M,M,M,M,M,M,M,M,M,62.60,KDMW 060135Z AUTO 18004KT 10SM CLR 17/12 A3006 RMK AO2,M\\nDMW,2022-05-06 01:55,-77.0077,39.6083,62.60,53.60,72.38,0.00,0.00,0.00,30.05,M,10.00,M,CLR,M,M,M,M,M,M,M,M,M,M,M,M,M,M,62.60,KDMW 060155Z AUTO 00000KT 10SM CLR 17/12 A3005 RMK AO2,M\\nDMW,2022-05-06 02:15,-77.0077,39.6083,62.60,53.60,72.38,0.00,0.00,0.00,30.05,M,10.00,M,CLR,M,M,M,M,M,M,M,M,M,M,M,M,M,M,62.60,KDMW 060215Z AUTO 00000KT 10SM CLR 17/12 A3005 RMK AO2,M\\nDMW,2022-05-06 02:35,-77.0077,39.6083,62.60,53.60,72.38,170.00,4.00,0.00,30.03,M,10.00,M,CLR,M,M,M,M,M,M,M,M,M,M,M,M,M,M,62.60,KDMW 060235Z AUTO 17004KT 10SM CLR 17/12 A3003 RMK AO2,M\\nDMW,2022-05-06 02:55,-77.0077,39.6083,62.60,53.60,72.38,210.00,3.00,0.00,30.03,M,10.00,M,CLR,M,M,M,M,M,M,M,M,M,M,M,M,M,M,62.60,KDMW 060255Z AUTO 21003KT 10SM CLR 17/12 A3003 RMK AO2,M\\nDMW,2022-05-06 03:15,-77.0077,39.6083,62.60,53.60,72.38,150.00,5.00,0.00,30.00,M,10.00,M,CLR,M,M,M,M,M,M,M,M,M,M,M,M,M,M,62.60,KDMW 060315Z AUTO 15005KT 10SM CLR 17/12 A3000 RMK AO2,M\\nDMW,2022-05-06 03:35,-77.0077,39.6083,62.60,53.60,72.38,0.00,0.00,0.00,30.01,M,10.00,M,CLR,M,M,M,M,M,M,M,M,M,M,M,M,M,M,62.60,KDMW 060335Z AUTO 00000KT 10SM CLR 17/12 A3001 RMK AO2,M\\nDMW,2022-05-06 03:55,-77.0077,39.6083,60.80,55.40,82.37,210.00,5.00,0.00,30.03,M,10.00,M,CLR,M,M,M,M,M,M,M,M,M,M,M,M,M,M,60.80,KDMW 060355Z AUTO 21005KT 10SM CLR 16/13 A3003 RMK AO2,M\\nDMW,2022-05-06 04:15,-77.0077,39.6083,60.80,55.40,82.37,180.00,4.00,0.00,30.02,M,10.00,M,CLR,M,M,M,M,M,M,M,M,M,M,M,M,M,M,60.80,KDMW 060415Z AUTO 18004KT 10SM CLR 16/13 A3002 RMK AO2,M\\nDMW,2022-05-06 04:35,-77.0077,39.6083,60.80,55.40,82.37,190.00,3.00,0.00,30.02,M,10.00,M,CLR,M,M,M,M,M,M,M,M,M,M,M,M,M,M,60.80,KDMW 060435Z AUTO 19003KT 10SM CLR 16/13 A3002 RMK AO2,M\\nDMW,2022-05-06 04:55,-77.0077,39.6083,60.80,55.40,82.37,170.00,4.00,0.00,30.00,M,10.00,M,CLR,M,M,M,M,M,M,M,M,M,M,M,M,M,M,60.80,KDMW 060455Z AUTO 17004KT 10SM CLR 16/13 A3000 RMK AO2,M\\nDMW,2022-05-06 05:15,-77.0077,39.6083,60.80,55.40,82.37,170.00,4.00,0.00,29.99,M,10.00,M,CLR,M,M,M,M,M,M,M,M,M,M,M,M,M,M,60.80,KDMW 060515Z AUTO 17004KT 10SM CLR 16/13 A2999 RMK AO2,M\\nDMW,2022-05-06 05:35,-77.0077,39.6083,60.80,55.40,82.37,200.00,4.00,0.00,29.99,M,10.00,M,CLR,M,M,M,M,M,M,M,M,M,M,M,M,M,M,60.80,KDMW 060535Z AUTO 20004KT 10SM CLR 16/13 A2999 RMK AO2,M\\nDMW,2022-05-06 05:55,-77.0077,39.6083,60.80,55.40,82.37,180.00,3.00,0.00,29.97,M,10.00,M,CLR,M,M,M,M,M,M,M,M,M,M,M,M,M,M,60.80,KDMW 060555Z AUTO 18003KT 10SM CLR 16/13 A2997 RMK AO2,M\\nDMW,2022-05-06 06:15,-77.0077,39.6083,60.80,55.40,82.37,0.00,0.00,0.00,29.97,M,10.00,M,CLR,M,M,M,M,M,M,M,M,M,M,M,M,M,M,60.80,KDMW 060615Z AUTO 00000KT 10SM CLR 16/13 A2997 RMK AO2,M\\nDMW,2022-05-06 06:35,-77.0077,39.6083,60.80,55.40,82.37,0.00,0.00,0.00,29.96,M,10.00,M,SCT,M,M,M,11000.00,M,M,M,M,M,M,M,M,M,M,60.80,KDMW 060635Z AUTO 00000KT 10SM SCT110 16/13 A2996 RMK AO2,M\\nDMW,2022-05-06 06:55,-77.0077,39.6083,60.80,55.40,82.37,170.00,3.00,0.00,29.96,M,10.00,M,SCT,BKN,M,M,3700.00,10000.00,M,M,-RA,M,M,M,M,M,M,60.80,KDMW 060655Z AUTO 17003KT 10SM -RA SCT037 BKN100 16/13 A2996 RMK AO2,M\\nDMW,2022-05-06 07:15,-77.0077,39.6083,60.80,55.40,82.37,0.00,0.00,0.00,29.95,M,10.00,M,SCT,SCT,BKN,M,3700.00,9000.00,11000.00,M,-DZ,M,M,M,M,M,M,60.80,KDMW 060715Z AUTO 00000KT 10SM -DZ SCT037 SCT090 BKN110 16/13 A2995 RMK AO2,M\\nDMW,2022-05-06 07:35,-77.0077,39.6083,60.80,55.40,82.37,140.00,3.00,0.00,29.95,M,7.00,M,SCT,BKN,OVC,M,3500.00,4500.00,11000.00,M,DZ,M,M,M,M,M,M,60.80,KDMW 060735Z AUTO 14003KT 7SM DZ SCT035 BKN045 OVC110 16/13 A2995 RMK AO2,M\\nDMW,2022-05-06 07:55,-77.0077,39.6083,59.00,57.20,93.74,130.00,3.00,0.00,29.95,M,7.00,M,BKN,OVC,M,M,3500.00,4500.00,M,M,-RA,M,M,M,M,M,M,59.00,KDMW 060755Z AUTO 13003KT 7SM -RA BKN035 OVC045 15/14 A2995 RMK AO2,M\\nDMW,2022-05-06 08:15,-77.0077,39.6083,59.00,57.20,93.74,0.00,0.00,0.00,29.94,M,7.00,M,BKN,OVC,M,M,3500.00,4100.00,M,M,RA,M,M,M,M,M,M,59.00,KDMW 060815Z AUTO 00000KT 7SM RA BKN035 OVC041 15/14 A2994 RMK AO2,M\\nDMW,2022-05-06 08:25,-77.0077,39.6083,59.00,57.20,93.74,0.00,0.00,0.01,29.95,M,7.00,M,BKN,OVC,M,M,3500.00,4100.00,M,M,-RA,M,M,M,M,M,M,59.00,KDMW 060825Z AUTO 00000KT 7SM -RA BKN035 OVC041 15/14 A2995 RMK AO2 P0001,M\\nDMW,2022-05-06 08:55,-77.0077,39.6083,57.20,57.20,100.00,140.00,3.00,0.00,29.93,M,5.00,M,OVC,M,M,M,3500.00,M,M,M,DZ,M,M,M,M,M,M,57.20,KDMW 060855Z AUTO 14003KT 5SM DZ OVC035 14/14 A2993 RMK AO2,M\\nDMW,2022-05-06 09:05,-77.0077,39.6083,57.20,57.20,100.00,160.00,4.00,0.01,29.93,M,5.00,M,SCT,OVC,M,M,2400.00,3500.00,M,M,RA,M,M,M,M,M,M,57.20,KDMW 060905Z AUTO 16004KT 5SM RA SCT024 OVC035 14/14 A2993 RMK AO2 P0001,M\\nDMW,2022-05-06 09:35,-77.0077,39.6083,57.20,57.20,100.00,140.00,4.00,0.03,29.93,M,5.00,M,OVC,M,M,M,2100.00,M,M,M,RA,M,M,M,M,M,M,57.20,KDMW 060935Z AUTO 14004KT 5SM RA OVC021 14/14 A2993 RMK AO2 P0003,M\\nDMW,2022-05-06 09:55,-77.0077,39.6083,57.20,57.20,100.00,140.00,4.00,0.02,29.93,M,4.00,M,SCT,BKN,OVC,M,800.00,2300.00,3100.00,M,RA,M,M,M,M,M,M,57.20,KDMW 060955Z AUTO 14004KT 4SM RA SCT008 BKN023 OVC031 14/14 A2993 RMK AO2 P0002,M\\nDMW,2022-05-06 10:15,-77.0077,39.6083,57.20,57.20,100.00,140.00,5.00,0.05,29.92,M,4.00,M,BKN,OVC,M,M,600.00,2100.00,M,M,RA,M,M,M,M,M,M,57.20,KDMW 061015Z AUTO 14005KT 4SM RA BKN006 OVC021 14/14 A2992 RMK AO2 P0005,M\\nDMW,2022-05-06 10:35,-77.0077,39.6083,57.20,57.20,100.00,140.00,6.00,0.06,29.92,M,4.00,M,OVC,M,M,M,400.00,M,M,M,-RA,M,M,M,M,M,M,57.20,KDMW 061035Z AUTO 14006KT 4SM -RA OVC004 14/14 A2992 RMK AO2 P0006,M\\nDMW,2022-05-06 10:55,-77.0077,39.6083,57.20,57.20,100.00,140.00,5.00,0.03,29.92,M,4.00,M,BKN,OVC,M,M,400.00,900.00,M,M,+RA,M,M,M,M,M,M,57.20,KDMW 061055Z AUTO 14005KT 4SM +RA BKN004 OVC009 14/14 A2992 RMK AO2 P0003,M\\nDMW,2022-05-06 11:15,-77.0077,39.6083,57.20,57.20,100.00,140.00,5.00,0.07,29.92,M,4.00,M,BKN,BKN,OVC,M,600.00,900.00,1400.00,M,RA,M,M,M,M,M,M,57.20,KDMW 061115Z AUTO 14005KT 4SM RA BKN006 BKN009 OVC014 14/14 A2992 RMK AO2 P0007,M\\nDMW,2022-05-06 11:35,-77.0077,39.6083,57.20,57.20,100.00,150.00,8.00,0.11,29.91,M,7.00,M,SCT,BKN,OVC,M,700.00,1200.00,2400.00,M,RA,M,M,M,M,M,M,57.20,KDMW 061135Z AUTO 15008KT 7SM RA SCT007 BKN012 OVC024 14/14 A2991 RMK AO2 P0011,M\\nDMW,2022-05-06 11:40,-77.0077,39.6083,57.20,57.20,100.00,130.00,6.00,0.12,29.91,M,5.00,M,SCT,BKN,OVC,M,700.00,1400.00,2400.00,M,RA,M,M,M,M,M,M,57.20,KDMW 061140Z AUTO 13006KT 5SM RA SCT007 BKN014 OVC024 14/14 A2991 RMK AO2 P0012,M\\nDMW,2022-05-06 12:15,-77.0077,39.6083,57.20,57.20,100.00,130.00,6.00,0.06,29.90,M,7.00,M,BKN,OVC,M,M,600.00,1200.00,M,M,RA,M,M,M,M,M,M,57.20,KDMW 061215Z AUTO 13006KT 7SM RA BKN006 OVC012 14/14 A2990 RMK AO2 P0006,M\\nDMW,2022-05-06 12:35,-77.0077,39.6083,57.20,57.20,100.00,140.00,7.00,0.09,29.91,M,5.00,M,BKN,OVC,M,M,800.00,1200.00,M,M,RA,M,M,M,M,M,M,57.20,KDMW 061235Z AUTO 14007KT 5SM RA BKN008 OVC012 14/14 A2991 RMK AO2 LTG DSNT W P0009,M\\nDMW,2022-05-06 12:55,-77.0077,39.6083,57.20,55.40,93.69,130.00,6.00,0.05,29.91,M,3.00,M,BKN,OVC,M,M,600.00,1000.00,M,M,+RA,M,M,M,M,M,M,57.20,KDMW 061255Z AUTO 13006KT 3SM +RA BKN006 OVC010 14/13 A2991 RMK AO2 LTG DSNT W P0005,M\\nDMW,2022-05-06 13:15,-77.0077,39.6083,57.20,55.40,93.69,130.00,7.00,0.15,29.90,M,3.00,M,BKN,BKN,OVC,M,600.00,1000.00,1900.00,M,+RA,M,M,M,M,M,M,57.20,KDMW 061315Z AUTO 13007KT 3SM +RA BKN006 BKN010 OVC019 14/13 A2990 RMK AO2 P0015,M\\nDMW,2022-05-06 13:35,-77.0077,39.6083,57.20,57.20,100.00,130.00,7.00,0.20,29.89,M,5.00,M,BKN,BKN,OVC,M,600.00,1800.00,3000.00,M,RA,M,M,M,M,M,M,57.20,KDMW 061335Z AUTO 13007KT 5SM RA BKN006 BKN018 OVC030 14/14 A2989 RMK AO2 P0020,M\\nDMW,2022-05-06 13:55,-77.0077,39.6083,57.20,57.20,100.00,130.00,6.00,0.03,29.89,M,5.00,M,BKN,BKN,OVC,M,400.00,800.00,2700.00,M,+RA,M,M,M,M,M,M,57.20,KDMW 061355Z AUTO 13006KT 5SM +RA BKN004 BKN008 OVC027 14/14 A2989 RMK AO2 P0003,M\\nDMW,2022-05-06 14:15,-77.0077,39.6083,57.20,57.20,100.00,130.00,7.00,0.11,29.88,M,5.00,M,BKN,OVC,M,M,600.00,1500.00,M,M,+RA,M,M,M,M,M,M,57.20,KDMW 061415Z AUTO 13007KT 5SM +RA BKN006 OVC015 14/14 A2988 RMK AO2 P0011,M\\nDMW,2022-05-06 14:35,-77.0077,39.6083,57.20,57.20,100.00,140.00,9.00,0.17,29.87,M,7.00,14.00,BKN,OVC,M,M,600.00,1200.00,M,M,RA,M,M,M,M,M,M,57.20,KDMW 061435Z AUTO 14009G14KT 7SM RA BKN006 OVC012 14/14 A2987 RMK AO2 P0017,M\\nDMW,2022-05-06 14:55,-77.0077,39.6083,57.20,55.40,93.69,140.00,10.00,0.02,29.86,M,5.00,M,OVC,M,M,M,600.00,M,M,M,+RA,M,M,M,M,M,M,57.20,KDMW 061455Z AUTO 14010KT 5SM +RA OVC006 14/13 A2986 RMK AO2 P0002,M\\nDMW,2022-05-06 15:05,-77.0077,39.6083,57.20,55.40,93.69,130.00,8.00,0.05,29.86,M,5.00,M,OVC,M,M,M,600.00,M,M,M,+RA,M,M,M,M,M,M,57.20,KDMW 061505Z AUTO 13008KT 5SM +RA OVC006 14/13 A2986 RMK AO2 P0005,M\\nDMW,2022-05-06 15:35,-77.0077,39.6083,M,M,M,130.00,11.00,0.09,29.83,M,7.00,M,OVC,M,M,M,600.00,M,M,M,RA,M,M,M,M,M,M,M,KDMW 061535Z AUTO 13011KT 7SM RA OVC006 A2983 RMK AO2 P0009,M\\nDMW,2022-05-06 15:55,-77.0077,39.6083,57.20,57.20,100.00,130.00,8.00,0.04,29.84,M,3.00,M,OVC,M,M,M,600.00,M,M,M,+RA,M,M,M,M,M,M,57.20,KDMW 061555Z AUTO 13008KT 3SM +RA OVC006 14/14 A2984 RMK AO2 P0004,M\\nDMW,2022-05-06 16:15,-77.0077,39.6083,M,M,M,130.00,8.00,0.11,29.83,M,3.00,M,SCT,BKN,OVC,M,600.00,1400.00,2400.00,M,+RA,M,M,M,M,M,M,M,KDMW 061615Z AUTO 13008KT 3SM +RA SCT006 BKN014 OVC024 A2983 RMK AO2 P0011,M\\nDMW,2022-05-06 16:35,-77.0077,39.6083,57.20,57.20,100.00,120.00,6.00,0.15,29.82,M,7.00,M,SCT,BKN,OVC,M,600.00,900.00,2100.00,M,RA,M,M,M,M,M,M,57.20,KDMW 061635Z AUTO 12006KT 7SM RA SCT006 BKN009 OVC021 14/14 A2982 RMK AO2 P0015,M\\nDMW,2022-05-06 16:55,-77.0077,39.6083,55.40,55.40,100.00,130.00,7.00,0.03,29.82,M,4.00,14.00,OVC,M,M,M,600.00,M,M,M,RA,M,M,M,M,M,M,55.40,KDMW 061655Z AUTO 13007G14KT 100V160 4SM RA OVC006 13/13 A2982 RMK AO2 P0003,M\\nDMW,2022-05-06 17:15,-77.0077,39.6083,55.40,55.40,100.00,110.00,4.00,0.08,29.80,M,5.00,M,OVC,M,M,M,600.00,M,M,M,+RA,M,M,M,M,M,M,55.40,KDMW 061715Z AUTO 11004KT 5SM +RA OVC006 13/13 A2980 RMK AO2 P0008,M\\nDMW,2022-05-06 17:35,-77.0077,39.6083,33.80,55.40,M,130.00,5.00,0.14,29.81,M,4.00,M,OVC,M,M,M,600.00,M,M,M,+RA,M,M,M,M,M,M,M,KDMW 061735Z AUTO 13005KT 4SM +RA OVC006 1/13 A2981 RMK AO2 P0014,M\\nDMW,2022-05-06 17:55,-77.0077,39.6083,55.40,55.40,100.00,120.00,4.00,0.02,29.80,M,5.00,M,BKN,OVC,M,M,600.00,1200.00,M,M,RA,M,M,M,M,M,M,55.40,KDMW 061755Z AUTO 12004KT 5SM RA BKN006 OVC012 13/13 A2980 RMK AO2 P0002,M\\nDMW,2022-05-06 18:15,-77.0077,39.6083,M,M,M,110.00,6.00,0.06,29.78,M,7.00,M,OVC,M,M,M,800.00,M,M,M,RA,M,M,M,M,M,M,M,KDMW 061815Z AUTO 11006KT 7SM RA OVC008 A2978 RMK AO2 LTG DSNT SW P0006,M\\nDMW,2022-05-06 18:25,-77.0077,39.6083,55.40,55.40,100.00,110.00,5.00,0.10,29.77,M,2.50,M,OVC,M,M,M,600.00,M,M,M,+RA,M,M,M,M,M,M,55.40,KDMW 061825Z AUTO 11005KT 2 1/2SM +RA OVC006 13/13 A2977 RMK AO2 VIS 1 3/4V5 LTG DSNT SW P0010,M\\nDMW,2022-05-06 18:55,-77.0077,39.6083,55.40,53.60,93.65,110.00,8.00,0.04,29.76,M,2.50,16.00,BKN,BKN,M,M,600.00,1300.00,M,M,+TSRA,M,M,M,M,M,M,55.40,KDMW 061855Z AUTO 11008G16KT 2 1/2SM +TSRA BKN006 BKN013 13/12 A2976 RMK AO2 VIS 3/4V5 LTG DSNT S AND SW P0004,M\\nDMW,2022-05-06 19:15,-77.0077,39.6083,55.40,53.60,93.65,120.00,6.00,0.07,29.75,M,7.00,M,BKN,OVC,M,M,800.00,1500.00,M,M,RA,M,M,M,M,M,M,55.40,KDMW 061915Z AUTO 12006KT 7SM RA BKN008 OVC015 13/12 A2975 RMK AO2 LTG DSNT S THRU W P0007,M\\nDMW,2022-05-06 19:35,-77.0077,39.6083,55.40,53.60,93.65,110.00,7.00,0.10,29.74,M,10.00,14.00,OVC,M,M,M,600.00,M,M,M,-RA,M,M,M,M,M,M,55.40,KDMW 061935Z AUTO 11007G14KT 10SM -RA OVC006 13/12 A2974 RMK AO2 P0010,M\\nDMW,2022-05-06 19:55,-77.0077,39.6083,55.40,53.60,93.65,110.00,7.00,0.01,29.75,M,10.00,14.00,OVC,M,M,M,600.00,M,M,M,-RA,M,M,M,M,M,M,55.40,KDMW 061955Z AUTO 11007G14KT 070V170 10SM -RA OVC006 13/12 A2975 RMK AO2 LTG DSNT S P0001,M\\nDMW,2022-05-06 20:15,-77.0077,39.6083,55.40,53.60,93.65,90.00,5.00,0.01,29.75,M,10.00,M,OVC,M,M,M,600.00,M,M,M,RA,M,M,M,M,M,M,55.40,KDMW 062015Z AUTO 09005KT 10SM RA OVC006 13/12 A2975 RMK AO2 LTG DSNT S P0001,M\\nDMW,2022-05-06 20:35,-77.0077,39.6083,55.40,53.60,93.65,100.00,6.00,0.04,29.75,M,10.00,M,OVC,M,M,M,600.00,M,M,M,RA,M,M,M,M,M,M,55.40,KDMW 062035Z AUTO 10006KT 10SM RA OVC006 13/12 A2975 RMK AO2 P0004,M\\nDMW,2022-05-06 20:55,-77.0077,39.6083,53.60,53.60,100.00,100.00,11.00,0.00,29.75,M,10.00,17.00,SCT,OVC,M,M,600.00,1300.00,M,M,DZ,M,M,M,M,M,M,53.60,KDMW 062055Z AUTO 10011G17KT 10SM DZ SCT006 OVC013 12/12 A2975 RMK AO2,M\\nDMW,2022-05-06 21:15,-77.0077,39.6083,33.80,51.80,M,110.00,4.00,0.00,29.74,M,7.00,14.00,SCT,OVC,M,M,1300.00,1800.00,M,M,DZ,M,M,M,M,M,M,M,KDMW 062115Z AUTO 11004G14KT 7SM DZ SCT013 OVC018 1/11 A2974 RMK AO2,M\\nDMW,2022-05-06 21:35,-77.0077,39.6083,53.60,53.60,100.00,90.00,4.00,0.00,29.72,M,10.00,M,SCT,OVC,M,M,800.00,1800.00,M,M,-DZ,M,M,M,M,M,M,53.60,KDMW 062135Z AUTO 09004KT 10SM -DZ SCT008 OVC018 12/12 A2972 RMK AO2 LTG DSNT SE AND S,M\\nDMW,2022-05-06 21:55,-77.0077,39.6083,53.60,53.60,100.00,90.00,6.00,0.00,29.71,M,5.00,M,BKN,OVC,M,M,600.00,1800.00,M,M,-DZ,M,M,M,M,M,M,53.60,KDMW 062155Z AUTO 09006KT 5SM -DZ BKN006 OVC018 12/12 A2971 RMK AO2,M\\nDMW,2022-05-06 22:15,-77.0077,39.6083,55.40,53.60,93.65,90.00,6.00,0.00,29.72,M,5.00,M,BKN,OVC,M,M,600.00,1000.00,M,M,BR,M,M,M,M,M,M,55.40,KDMW 062215Z AUTO 09006KT 5SM BR BKN006 OVC010 13/12 A2972 RMK AO2 LTG DSNT SE AND S,M\\nDMW,2022-05-06 22:35,-77.0077,39.6083,53.60,53.60,100.00,100.00,6.00,0.00,29.73,M,5.00,18.00,OVC,M,M,M,800.00,M,M,M,BR,M,M,M,M,M,M,53.60,KDMW 062235Z AUTO 10006G18KT 5SM BR OVC008 12/12 A2973 RMK AO2,M\\nDMW,2022-05-06 22:55,-77.0077,39.6083,53.60,53.60,100.00,90.00,8.00,0.00,29.72,M,4.00,M,OVC,M,M,M,800.00,M,M,M,RA,M,M,M,M,M,M,53.60,KDMW 062255Z AUTO 09008KT 4SM RA OVC008 12/12 A2972 RMK AO2 LTG DSNT W,M\\nDMW,2022-05-06 23:15,-77.0077,39.6083,53.60,53.60,100.00,80.00,7.00,0.00,M,M,7.00,M,OVC,M,M,M,800.00,M,M,M,-RA,M,M,M,M,M,M,53.60,KDMW 062315Z AUTO 08007KT 7SM -RA OVC008 12/12 RMK AO2 LTG DSNT SE AND S,M\\nDMW,2022-05-06 23:35,-77.0077,39.6083,53.60,53.60,100.00,80.00,7.00,0.00,29.72,M,7.00,15.00,OVC,M,M,M,800.00,M,M,M,-DZ,M,M,M,M,M,M,53.60,KDMW 062335Z AUTO 08007G15KT 060V120 7SM -DZ OVC008 12/12 A2972 RMK AO2 LTG DSNT S,M\\nDMW,2022-05-06 23:55,-77.0077,39.6083,53.60,53.60,100.00,90.00,8.00,0.00,M,M,7.00,14.00,OVC,M,M,M,800.00,M,M,M,DZ,M,M,M,M,M,M,53.60,KDMW 062355Z AUTO 09008G14KT 7SM DZ OVC008 12/12 RMK AO2 LTG DSNT SE AND S,M\\nDMW,2022-05-07 00:15,-77.0077,39.6083,53.60,53.60,100.00,80.00,9.00,0.00,29.71,M,5.00,17.00,OVC,M,M,M,600.00,M,M,M,DZ,M,M,M,M,M,M,53.60,KDMW 070015Z AUTO 08009G17KT 060V130 5SM DZ OVC006 12/12 A2971 RMK AO2 LTG DSNT SE,M\\nDMW,2022-05-07 00:35,-77.0077,39.6083,53.60,53.60,100.00,80.00,10.00,0.00,M,M,5.00,15.00,OVC,M,M,M,600.00,M,M,M,-DZ,M,M,M,M,M,M,53.60,KDMW 070035Z AUTO 08010G15KT 5SM -DZ OVC006 12/12 RMK AO2 LTG DSNT SE AND S,M\\nDMW,2022-05-07 00:55,-77.0077,39.6083,53.60,53.60,100.00,80.00,8.00,0.00,29.71,M,7.00,16.00,OVC,M,M,M,600.00,M,M,M,-DZ,M,M,M,M,M,M,53.60,KDMW 070055Z AUTO 08008G16KT 050V120 7SM -DZ OVC006 12/12 A2971 RMK AO2 LTG DSNT SE AND S,M\\nDMW,2022-05-07 01:15,-77.0077,39.6083,53.60,53.60,100.00,90.00,7.00,0.01,29.71,M,10.00,16.00,OVC,M,M,M,600.00,M,M,M,M,M,M,M,M,M,M,53.60,KDMW 070115Z AUTO 09007G16KT 060V130 10SM OVC006 12/12 A2971 RMK AO2 P0001,M\\nDMW,2022-05-07 01:35,-77.0077,39.6083,M,M,M,90.00,8.00,0.01,29.71,M,10.00,16.00,OVC,M,M,M,600.00,M,M,M,DZ,M,M,M,M,M,M,M,KDMW 070135Z AUTO 09008G16KT 060V120 10SM DZ OVC006 12 A2971 RMK AO2 P0001,M\\nDMW,2022-05-07 01:55,-77.0077,39.6083,53.60,51.80,93.60,90.00,6.00,0.00,29.71,M,10.00,15.00,OVC,M,M,M,600.00,M,M,M,DZ,M,M,M,M,M,M,53.60,KDMW 070155Z AUTO 09006G15KT 10SM DZ OVC006 12/11 A2971 RMK AO2,M\\nDMW,2022-05-07 02:15,-77.0077,39.6083,51.80,M,M,80.00,12.00,0.00,29.70,M,10.00,19.00,OVC,M,M,M,800.00,M,M,M,-RA,M,M,M,M,M,M,M,KDMW 070215Z AUTO 08012G19KT 10SM -RA OVC008 11/ A2970 RMK AO2 LTG DSNT S,M\\nDMW,2022-05-07 02:35,-77.0077,39.6083,51.80,51.80,100.00,80.00,14.00,0.00,29.70,M,10.00,23.00,OVC,M,M,M,600.00,M,M,M,M,M,M,M,M,M,M,51.80,KDMW 070235Z AUTO 08014G23KT 10SM OVC006 11/11 A2970 RMK AO2,M\\nDMW,2022-05-07 02:55,-77.0077,39.6083,51.80,51.80,100.00,60.00,10.00,0.00,29.70,M,7.00,16.00,OVC,M,M,M,600.00,M,M,M,-RA,M,M,M,M,M,M,51.80,KDMW 070255Z AUTO 06010G16KT 7SM -RA OVC006 11/11 A2970 RMK AO2 LTG DSNT SW,M\\nDMW,2022-05-07 03:15,-77.0077,39.6083,51.80,50.00,93.55,80.00,11.00,0.01,29.67,M,10.00,19.00,BKN,OVC,M,M,600.00,1200.00,M,M,-RA,M,M,M,M,M,M,51.80,KDMW 070315Z AUTO 08011G19KT 10SM -RA BKN006 OVC012 11/10 A2967 RMK AO2 LTG DSNT S P0001,M\\nDMW,2022-05-07 03:25,-77.0077,39.6083,51.80,50.00,93.55,70.00,9.00,0.02,29.67,M,10.00,17.00,OVC,M,M,M,800.00,M,M,M,RA,M,M,M,M,M,M,51.80,KDMW 070325Z AUTO 07009G17KT 10SM RA OVC008 11/10 A2967 RMK AO2 P0002,M\\nDMW,2022-05-07 03:55,-77.0077,39.6083,51.80,50.00,93.55,70.00,10.00,0.00,29.65,M,7.00,17.00,BKN,OVC,M,M,1000.00,1400.00,M,M,M,M,M,M,M,M,M,51.80,KDMW 070355Z AUTO 07010G17KT 7SM BKN010 OVC014 11/10 A2965 RMK AO2 LTG DSNT S,M\\nDMW,2022-05-07 04:15,-77.0077,39.6083,50.00,48.20,93.50,70.00,10.00,0.01,29.66,M,7.00,19.00,OVC,M,M,M,1000.00,M,M,M,+VCTSDZ,M,M,M,M,M,M,50.00,KDMW 070415Z AUTO 07010G19KT 7SM +VCTSDZ OVC010 10/09 A2966 RMK AO2 LTG DSNT S P0001,M\\nDMW,2022-05-07 04:35,-77.0077,39.6083,50.00,48.20,93.50,70.00,16.00,0.05,29.64,M,5.00,22.00,BKN,OVC,M,M,1200.00,2500.00,M,M,RA,M,M,M,M,M,M,50.00,KDMW 070435Z AUTO 07016G22KT 5SM RA BKN012 OVC025 10/09 A2964 RMK AO2 LTG DSNT S P0005,M\\nDMW,2022-05-07 04:55,-77.0077,39.6083,50.00,48.20,93.50,60.00,12.00,0.00,29.64,M,7.00,18.00,BKN,BKN,OVC,M,1200.00,1700.00,2500.00,M,-TSRA,M,M,M,M,M,M,50.00,KDMW 070455Z AUTO 06012G18KT 7SM -TSRA BKN012 BKN017 OVC025 10/09 A2964 RMK AO2 LTG DSNT E THRU S,M\\nDMW,2022-05-07 05:35,-77.0077,39.6083,50.00,50.00,100.00,70.00,10.00,0.02,29.64,M,4.00,21.00,OVC,M,M,M,900.00,M,M,M,-RA,M,M,M,M,M,M,50.00,KDMW 070535Z AUTO 07010G21KT 4SM -RA OVC009 10/10 A2964 RMK AO2 LTG DSNT S P0002,M\\nDMW,2022-05-07 05:55,-77.0077,39.6083,50.00,50.00,100.00,80.00,9.00,0.03,29.64,M,4.00,16.00,OVC,M,M,M,900.00,M,M,M,RA,M,M,M,M,M,M,50.00,KDMW 070555Z AUTO 08009G16KT 040V100 4SM RA OVC009 10/10 A2964 RMK AO2 LTG DSNT SE P0003,M\\nDMW,2022-05-07 06:15,-77.0077,39.6083,50.00,50.00,100.00,70.00,14.00,0.07,29.62,M,5.00,18.00,OVC,M,M,M,1100.00,M,M,M,+RA,M,M,M,M,M,M,50.00,KDMW 070615Z AUTO 07014G18KT 5SM +RA OVC011 10/10 A2962 RMK AO2 LTG DSNT SE P0007,M\\nDMW,2022-05-07 06:35,-77.0077,39.6083,50.00,50.00,100.00,70.00,11.00,0.15,29.61,M,3.00,17.00,OVC,M,M,M,1100.00,M,M,M,+RA,M,M,M,M,M,M,50.00,KDMW 070635Z AUTO 07011G17KT 3SM +RA OVC011 10/10 A2961 RMK AO2 P0015,M\\nDMW,2022-05-07 06:55,-77.0077,39.6083,50.00,48.20,93.50,70.00,13.00,0.01,29.59,M,10.00,17.00,BKN,OVC,M,M,1300.00,2100.00,M,M,RA,M,M,M,M,M,M,50.00,KDMW 070655Z AUTO 07013G17KT 10SM RA BKN013 OVC021 10/09 A2959 RMK AO2 P0001,M\\nDMW,2022-05-07 07:15,-77.0077,39.6083,50.00,48.20,93.50,70.00,13.00,0.04,29.58,M,10.00,24.00,OVC,M,M,M,1300.00,M,M,M,RA,M,M,M,M,M,M,50.00,KDMW 070715Z AUTO 07013G24KT 10SM RA OVC013 10/09 A2958 RMK AO2 P0004,M\\nDMW,2022-05-07 07:35,-77.0077,39.6083,50.00,48.20,93.50,60.00,16.00,0.07,29.55,M,10.00,25.00,OVC,M,M,M,1300.00,M,M,M,RA,M,M,M,M,M,M,50.00,KDMW 070735Z AUTO 06016G25KT 10SM RA OVC013 10/09 A2955 RMK AO2 LTG DSNT S P0007,M\\nDMW,2022-05-07 07:55,-77.0077,39.6083,50.00,48.20,93.50,60.00,13.00,0.01,29.55,M,10.00,22.00,BKN,OVC,M,M,1300.00,1800.00,M,M,RA,M,M,M,M,M,M,50.00,KDMW 070755Z AUTO 06013G22KT 10SM RA BKN013 OVC018 10/09 A2955 RMK AO2 P0001,M\\nDMW,2022-05-07 08:15,-77.0077,39.6083,51.80,48.20,87.47,70.00,15.00,0.02,29.57,M,10.00,20.00,OVC,M,M,M,1300.00,M,M,M,-RA,M,M,M,M,M,M,51.80,KDMW 070815Z AUTO 07015G20KT 10SM -RA OVC013 11/09 A2957 RMK AO2 LTG DSNT SE P0002,M\\nDMW,2022-05-07 08:35,-77.0077,39.6083,51.80,48.20,87.47,60.00,11.00,0.02,29.58,M,10.00,20.00,OVC,M,M,M,1300.00,M,M,M,-DZ,M,M,M,M,M,M,51.80,KDMW 070835Z AUTO 06011G20KT 10SM -DZ OVC013 11/09 A2958 RMK AO2 P0002,M\\nDMW,2022-05-07 08:55,-77.0077,39.6083,51.80,50.00,93.55,70.00,9.00,0.00,29.59,M,10.00,18.00,OVC,M,M,M,1300.00,M,M,M,-DZ,M,M,M,M,M,M,51.80,KDMW 070855Z AUTO 07009G18KT 10SM -DZ OVC013 11/10 A2959 RMK AO2 LTG DSNT SE AND S,M\\nDMW,2022-05-07 09:15,-77.0077,39.6083,51.80,50.00,93.55,70.00,10.00,0.00,29.60,M,10.00,17.00,OVC,M,M,M,1300.00,M,M,M,-DZ,M,M,M,M,M,M,51.80,KDMW 070915Z AUTO 07010G17KT 050V110 10SM -DZ OVC013 11/10 A2960 RMK AO2,M\\nDMW,2022-05-07 09:35,-77.0077,39.6083,51.80,50.00,93.55,70.00,10.00,0.01,29.60,M,7.00,15.00,OVC,M,M,M,1300.00,M,M,M,+DZ,M,M,M,M,M,M,51.80,KDMW 070935Z AUTO 07010G15KT 7SM +DZ OVC013 11/10 A2960 RMK AO2 P0001,M\\nDMW,2022-05-07 09:55,-77.0077,39.6083,51.80,50.00,93.55,70.00,8.00,0.00,29.61,M,7.00,16.00,SCT,OVC,M,M,900.00,1500.00,M,M,+DZ,M,M,M,M,M,M,51.80,KDMW 070955Z AUTO 07008G16KT 7SM +DZ SCT009 OVC015 11/10 A2961 RMK AO2,M\\nDMW,2022-05-07 10:15,-77.0077,39.6083,51.80,50.00,93.55,60.00,10.00,0.03,29.61,M,7.00,16.00,BKN,OVC,M,M,1100.00,1700.00,M,M,RA,M,M,M,M,M,M,51.80,KDMW 071015Z AUTO 06010G16KT 030V090 7SM RA BKN011 OVC017 11/10 A2961 RMK AO2 LTG DSNT SE P0003,M\\nDMW,2022-05-07 10:35,-77.0077,39.6083,51.80,50.00,93.55,60.00,7.00,0.04,29.61,M,5.00,M,OVC,M,M,M,1300.00,M,M,M,RA,M,M,M,M,M,M,51.80,KDMW 071035Z AUTO 06007KT 5SM RA OVC013 11/10 A2961 RMK AO2 P0004,M\\nDMW,2022-05-07 10:55,-77.0077,39.6083,51.80,50.00,93.55,70.00,9.00,0.00,29.62,M,7.00,16.00,OVC,M,M,M,1300.00,M,M,M,-RA,M,M,M,M,M,M,51.80,KDMW 071055Z AUTO 07009G16KT 7SM -RA OVC013 11/10 A2962 RMK AO2 LTG DSNT SE,M\\nDMW,2022-05-07 11:15,-77.0077,39.6083,51.80,50.00,93.55,70.00,12.00,0.01,29.62,M,4.00,17.00,BKN,OVC,M,M,1300.00,2000.00,M,M,DZ,M,M,M,M,M,M,51.80,KDMW 071115Z AUTO 07012G17KT 4SM DZ BKN013 OVC020 11/10 A2962 RMK AO2 P0001,M\\nDMW,2022-05-07 11:35,-77.0077,39.6083,51.80,51.80,100.00,60.00,8.00,0.02,29.63,M,4.00,14.00,OVC,M,M,M,1500.00,M,M,M,-RA,M,M,M,M,M,M,51.80,KDMW 071135Z AUTO 06008G14KT 4SM -RA OVC015 11/11 A2963 RMK AO2 P0002,M\\nDMW,2022-05-07 11:55,-77.0077,39.6083,51.80,51.80,100.00,60.00,9.00,0.00,29.64,M,4.00,19.00,SCT,BKN,OVC,M,900.00,1300.00,1900.00,M,-RA,M,M,M,M,M,M,51.80,KDMW 071155Z AUTO 06009G19KT 4SM -RA SCT009 BKN013 OVC019 11/11 A2964 RMK AO2,M\\nDMW,2022-05-07 12:15,-77.0077,39.6083,51.80,51.80,100.00,50.00,12.00,0.01,29.65,M,4.00,16.00,BKN,OVC,M,M,1200.00,1800.00,M,M,DZ,M,M,M,M,M,M,51.80,KDMW 071215Z AUTO 05012G16KT 030V090 4SM DZ BKN012 OVC018 11/11 A2965 RMK AO2 P0001,M\\nDMW,2022-05-07 12:35,-77.0077,39.6083,51.80,51.80,100.00,50.00,10.00,0.03,29.65,M,5.00,20.00,BKN,OVC,M,M,1300.00,1900.00,M,M,-RA,M,M,M,M,M,M,51.80,KDMW 071235Z AUTO 05010G20KT 5SM -RA BKN013 OVC019 11/11 A2965 RMK AO2 P0003,M\\nDMW,2022-05-07 12:55,-77.0077,39.6083,51.80,51.80,100.00,50.00,12.00,0.02,29.66,M,7.00,21.00,SCT,OVC,M,M,1300.00,2100.00,M,M,RA,M,M,M,M,M,M,51.80,KDMW 071255Z AUTO 05012G21KT 7SM RA SCT013 OVC021 11/11 A2966 RMK AO2 P0002,M\\nDMW,2022-05-07 13:15,-77.0077,39.6083,51.80,50.00,93.55,50.00,13.00,0.03,29.68,M,10.00,19.00,SCT,BKN,OVC,M,1300.00,1900.00,2400.00,M,-RA,M,M,M,M,M,M,51.80,KDMW 071315Z AUTO 05013G19KT 10SM -RA SCT013 BKN019 OVC024 11/10 A2968 RMK AO2 P0003,M\\nDMW,2022-05-07 13:35,-77.0077,39.6083,51.80,50.00,93.55,60.00,13.00,0.04,29.69,M,7.00,20.00,SCT,BKN,OVC,M,1400.00,1900.00,2900.00,M,RA,M,M,M,M,M,M,51.80,KDMW 071335Z AUTO 06013G20KT 7SM RA SCT014 BKN019 OVC029 11/10 A2969 RMK AO2 P0004,M\\nDMW,2022-05-07 13:45,-77.0077,39.6083,51.80,50.00,93.55,60.00,12.00,0.06,29.69,M,7.00,18.00,SCT,BKN,OVC,M,1400.00,2000.00,2600.00,M,RA,M,M,M,M,M,M,51.80,KDMW 071345Z AUTO 06012G18KT 7SM RA SCT014 BKN020 OVC026 11/10 A2969 RMK AO2 LTG DSNT SE P0006,M\\nDMW,2022-05-07 14:15,-77.0077,39.6083,50.00,48.20,93.50,70.00,12.00,0.04,29.70,M,7.00,23.00,SCT,OVC,M,M,1400.00,2300.00,M,M,RA,M,M,M,M,M,M,50.00,KDMW 071415Z AUTO 07012G23KT 7SM RA SCT014 OVC023 10/09 A2970 RMK AO2 P0004,M\\nDMW,2022-05-07 14:35,-77.0077,39.6083,51.80,48.20,87.47,60.00,10.00,0.05,29.70,M,10.00,19.00,SCT,BKN,OVC,M,1600.00,2000.00,3100.00,M,-RA,M,M,M,M,M,M,51.80,KDMW 071435Z AUTO 06010G19KT 10SM -RA SCT016 BKN020 OVC031 11/09 A2970 RMK AO2 P0005,M\\nDMW,2022-05-07 14:55,-77.0077,39.6083,51.80,50.00,93.55,60.00,12.00,0.00,29.71,M,7.00,18.00,SCT,OVC,M,M,1400.00,2000.00,M,M,DZ,M,M,M,M,M,M,51.80,KDMW 071455Z AUTO 06012G18KT 020V080 7SM DZ SCT014 OVC020 11/10 A2971 RMK AO2,M\\nDMW,2022-05-07 15:15,-77.0077,39.6083,51.80,50.00,93.55,50.00,13.00,0.00,29.71,M,5.00,24.00,BKN,OVC,M,M,1600.00,2400.00,M,M,DZ,M,M,M,M,M,M,51.80,KDMW 071515Z AUTO 05013G24KT 5SM DZ BKN016 OVC024 11/10 A2971 RMK AO2,M\\nDMW,2022-05-07 15:35,-77.0077,39.6083,51.80,48.20,87.47,60.00,14.00,0.00,29.70,M,10.00,25.00,BKN,BKN,OVC,M,1800.00,2400.00,4900.00,M,-DZ,M,M,M,M,M,M,51.80,KDMW 071535Z AUTO 06014G25KT 10SM -DZ BKN018 BKN024 OVC049 11/09 A2970 RMK AO2,M\\nDMW,2022-05-07 15:45,-77.0077,39.6083,51.80,48.20,87.47,60.00,20.00,0.00,29.70,M,10.00,31.00,BKN,BKN,OVC,M,1800.00,2900.00,4900.00,M,M,M,M,M,M,M,M,51.80,KDMW 071545Z AUTO 06020G31KT 10SM BKN018 BKN029 OVC049 11/09 A2970 RMK AO2,M\\nDMW,2022-05-07 16:15,-77.0077,39.6083,51.80,46.40,81.74,60.00,17.00,0.00,29.71,M,10.00,27.00,BKN,BKN,OVC,M,1800.00,2500.00,4300.00,M,M,M,M,M,M,M,M,51.80,KDMW 071615Z AUTO 06017G27KT 10SM BKN018 BKN025 OVC043 11/08 A2971 RMK AO2,M\\nDMW,2022-05-07 16:35,-77.0077,39.6083,51.80,46.40,81.74,70.00,19.00,0.00,29.71,M,10.00,29.00,SCT,SCT,OVC,M,2100.00,2800.00,4500.00,M,M,M,M,M,M,M,M,51.80,KDMW 071635Z AUTO 07019G29KT 10SM SCT021 SCT028 OVC045 11/08 A2971 RMK AO2,M\\nDMW,2022-05-07 16:55,-77.0077,39.6083,51.80,46.40,81.74,70.00,19.00,0.00,29.72,M,10.00,31.00,SCT,SCT,OVC,M,1900.00,2700.00,4500.00,M,M,M,M,M,M,M,M,51.80,KDMW 071655Z AUTO 07019G31KT 10SM SCT019 SCT027 OVC045 11/08 A2972 RMK AO2,M\\nDMW,2022-05-07 17:15,-77.0077,39.6083,51.80,46.40,81.74,70.00,20.00,0.00,29.73,M,10.00,32.00,SCT,SCT,OVC,M,2100.00,2700.00,4500.00,M,DZ,M,M,M,M,M,M,51.80,KDMW 071715Z AUTO 07020G32KT 10SM DZ SCT021 SCT027 OVC045 11/08 A2973 RMK AO2,M\\nDMW,2022-05-07 17:35,-77.0077,39.6083,51.80,46.40,81.74,70.00,15.00,0.00,29.73,M,5.00,28.00,SCT,BKN,OVC,M,1900.00,2700.00,4500.00,M,RA,M,M,M,M,M,M,51.80,KDMW 071735Z AUTO 07015G28KT 5SM RA SCT019 BKN027 OVC045 11/08 A2973 RMK AO2,M\\nDMW,2022-05-07 17:55,-77.0077,39.6083,51.80,48.20,87.47,50.00,12.00,0.01,29.74,M,7.00,22.00,BKN,OVC,M,M,1800.00,2500.00,M,M,RA,M,M,M,M,M,M,51.80,KDMW 071755Z AUTO 05012G22KT 7SM RA BKN018 OVC025 11/09 A2974 RMK AO2 P0001,M\\nDMW,2022-05-07 18:15,-77.0077,39.6083,51.80,48.20,87.47,60.00,12.00,0.01,M,M,7.00,19.00,BKN,OVC,M,M,1800.00,2300.00,M,M,DZ,M,M,M,M,M,M,51.80,KDMW 071815Z AUTO 06012G19KT 7SM DZ BKN018 OVC023 11/09 A29 RMK AO2 P0001,M\\nDMW,2022-05-07 18:35,-77.0077,39.6083,51.80,48.20,87.47,40.00,14.00,0.02,M,M,7.00,17.00,SCT,BKN,OVC,M,900.00,1600.00,2100.00,M,RA,M,M,M,M,M,M,51.80,KDMW 071835Z AUTO 04014G17KT 7SM RA SCT009 BKN016 OVC021 11/09 RMK AO2 P0002,M\\nDMW,2022-05-07 18:55,-77.0077,39.6083,50.00,48.20,93.50,50.00,13.00,0.00,M,M,7.00,21.00,SCT,BKN,OVC,M,1100.00,1600.00,2100.00,M,DZ,M,M,M,M,M,M,50.00,KDMW 071855Z AUTO 05013G21KT 7SM DZ SCT011 BKN016 OVC021 10/09 RMK AO2,M\\nDMW,2022-05-07 19:15,-77.0077,39.6083,48.20,48.20,100.00,40.00,11.00,0.01,29.77,M,7.00,22.00,BKN,OVC,M,M,1300.00,2000.00,M,M,DZ,M,M,M,M,M,M,42.94,KDMW 071915Z AUTO 04011G22KT 7SM DZ BKN013 OVC020 09/09 A2977 RMK AO2 P0001,M\\nDMW,2022-05-07 19:35,-77.0077,39.6083,48.20,32.00,53.27,40.00,11.00,0.01,29.77,M,10.00,20.00,OVC,M,M,M,1300.00,M,M,M,-RA,M,M,M,M,M,M,42.94,KDMW 071935Z AUTO 04011G20KT 10SM -RA OVC013 09/0 A2977 RMK AO2 P0001,M\\nDMW,2022-05-07 19:55,-77.0077,39.6083,48.20,46.40,93.45,40.00,10.00,0.01,M,M,7.00,17.00,OVC,M,M,M,1300.00,M,M,M,RA,M,M,M,M,M,M,43.28,KDMW 071955Z AUTO 04010G17KT 020V080 7SM RA OVC013 09/08 RMK AO2 P0001,M\\nDMW,2022-05-07 20:15,-77.0077,39.6083,48.20,46.40,93.45,40.00,11.00,0.02,M,M,10.00,22.00,BKN,OVC,M,M,1300.00,1700.00,M,M,RA,M,M,M,M,M,M,42.94,KDMW 072015Z AUTO 04011G22KT 10SM RA BKN013 OVC017 09/08 RMK AO2 P0002,M\\nDMW,2022-05-07 20:35,-77.0077,39.6083,48.20,46.40,93.45,40.00,14.00,0.02,29.80,M,10.00,22.00,OVC,M,M,M,1500.00,M,M,M,-DZ,M,M,M,M,M,M,42.04,KDMW 072035Z AUTO 04014G22KT 10SM -DZ OVC015 09/08 A2980 RMK AO2 P0002,M\\nDMW,2022-05-07 20:55,-77.0077,39.6083,48.20,46.40,93.45,40.00,13.00,0.00,29.81,M,10.00,21.00,OVC,M,M,M,1500.00,M,M,M,-DZ,M,M,M,M,M,M,42.32,KDMW 072055Z AUTO 04013G21KT 10SM -DZ OVC015 09/08 A2981 RMK AO2,M\\nDMW,2022-05-07 21:05,-77.0077,39.6083,48.20,46.40,93.45,40.00,8.00,0.00,29.82,M,10.00,18.00,OVC,M,M,M,1500.00,M,M,M,-DZ,M,M,M,M,M,M,44.07,KDMW 072105Z AUTO 04008G18KT 10SM -DZ OVC015 09/08 A2982 RMK AO2,M\\nDMW,2022-05-07 21:35,-77.0077,39.6083,46.40,46.40,100.00,30.00,9.00,0.00,29.84,M,7.00,17.00,OVC,M,M,M,1500.00,M,M,M,M,M,M,M,M,M,M,41.42,KDMW 072135Z AUTO 03009G17KT 7SM OVC015 08/08 A2984 RMK AO2,M\\nDMW,2022-05-07 21:55,-77.0077,39.6083,46.40,46.40,100.00,20.00,7.00,0.01,29.84,M,7.00,15.00,SCT,OVC,M,M,900.00,1500.00,M,M,DZ,M,M,M,M,M,M,42.33,KDMW 072155Z AUTO 02007G15KT 7SM DZ SCT009 OVC015 08/08 A2984 RMK AO2 P0001,M\\nDMW,2022-05-07 22:15,-77.0077,39.6083,46.40,46.40,100.00,40.00,8.00,0.01,29.85,M,7.00,16.00,OVC,M,M,M,1100.00,M,M,M,-RA,M,M,M,M,M,M,41.85,KDMW 072215Z AUTO 04008G16KT 7SM -RA OVC011 08/08 A2985 RMK AO2 P0001,M\\nDMW,2022-05-07 22:35,-77.0077,39.6083,46.40,46.40,100.00,30.00,7.00,0.04,29.86,M,5.00,M,BKN,OVC,M,M,1100.00,1700.00,M,M,RA,M,M,M,M,M,M,42.33,KDMW 072235Z AUTO 03007KT 5SM RA BKN011 OVC017 08/08 A2986 RMK AO2 P0004,M\\nDMW,2022-05-07 22:55,-77.0077,39.6083,46.40,46.40,100.00,40.00,10.00,0.00,29.87,M,5.00,15.00,BKN,OVC,M,M,1200.00,1700.00,M,M,RA,M,M,M,M,M,M,41.03,KDMW 072255Z AUTO 04010G15KT 5SM RA BKN012 OVC017 08/08 A2987 RMK AO2,M\\nDMW,2022-05-07 23:15,-77.0077,39.6083,46.40,46.40,100.00,30.00,7.00,0.01,29.88,M,7.00,M,BKN,OVC,M,M,1200.00,1800.00,M,M,DZ,M,M,M,M,M,M,42.33,KDMW 072315Z AUTO 03007KT 360V060 7SM DZ BKN012 OVC018 08/08 A2988 RMK AO2 P0001,M\\nDMW,2022-05-07 23:35,-77.0077,39.6083,46.40,44.60,93.40,30.00,9.00,0.01,29.88,M,5.00,17.00,BKN,OVC,M,M,1200.00,1600.00,M,M,DZ,M,M,M,M,M,M,41.42,KDMW 072335Z AUTO 03009G17KT 5SM DZ BKN012 OVC016 08/07 A2988 RMK AO2 P0001,M\\nDMW,2022-05-07 23:55,-77.0077,39.6083,44.60,44.60,100.00,40.00,10.00,0.00,29.89,M,7.00,16.00,BKN,OVC,M,M,1200.00,1800.00,M,M,DZ,M,M,M,M,M,M,38.77,KDMW 072355Z AUTO 04010G16KT 010V070 7SM DZ BKN012 OVC018 07/07 A2989 RMK AO2,M\\nDMW,2022-05-08 00:15,-77.0077,39.6083,44.60,44.60,100.00,30.00,11.00,0.00,29.90,M,7.00,17.00,SCT,OVC,M,M,1000.00,1600.00,M,M,DZ,M,M,M,M,M,M,38.39,KDMW 080015Z AUTO 03011G17KT 7SM DZ SCT010 OVC016 07/07 A2990 RMK AO2 LTG DSNT SE AND S,M\\nDMW,2022-05-08 00:35,-77.0077,39.6083,44.60,44.60,100.00,40.00,11.00,0.00,29.91,M,7.00,18.00,BKN,OVC,M,M,1300.00,1900.00,M,M,-DZ,M,M,M,M,M,M,38.39,KDMW 080035Z AUTO 04011G18KT 7SM -DZ BKN013 OVC019 07/07 A2991 RMK AO2 LTG DSNT SE,M\\nDMW,2022-05-08 00:45,-77.0077,39.6083,44.60,44.60,100.00,40.00,11.00,0.00,29.92,M,7.00,20.00,BKN,OVC,M,M,1300.00,1900.00,M,M,-DZ,M,M,M,M,M,M,38.39,KDMW 080045Z AUTO 04011G20KT 010V070 7SM -DZ BKN013 OVC019 07/07 A2992 RMK AO2 LTG DSNT SE,M\\nDMW,2022-05-08 01:15,-77.0077,39.6083,44.60,44.60,100.00,40.00,14.00,0.00,29.93,M,5.00,19.00,SCT,OVC,M,M,1200.00,1800.00,M,M,DZ,M,M,M,M,M,M,37.40,KDMW 080115Z AUTO 04014G19KT 5SM DZ SCT012 OVC018 07/07 A2993 RMK AO2,M\\nDMW,2022-05-08 01:35,-77.0077,39.6083,44.60,44.60,100.00,40.00,12.00,0.01,29.93,M,10.00,17.00,BKN,BKN,OVC,M,1400.00,2100.00,3200.00,M,DZ,M,M,M,M,M,M,38.04,KDMW 080135Z AUTO 04012G17KT 10SM DZ BKN014 BKN021 OVC032 07/07 A2993 RMK AO2 LTG DSNT SE P0001,M\\nDMW,2022-05-08 01:55,-77.0077,39.6083,44.60,44.60,100.00,40.00,11.00,0.00,29.94,M,7.00,18.00,BKN,BKN,OVC,M,1500.00,1900.00,2600.00,M,DZ,M,M,M,M,M,M,38.39,KDMW 080155Z AUTO 04011G18KT 7SM DZ BKN015 BKN019 OVC026 07/07 A2994 RMK AO2 LTG DSNT SE AND S,M\\nDMW,2022-05-08 02:15,-77.0077,39.6083,44.60,44.60,100.00,40.00,9.00,0.00,29.95,M,7.00,16.00,BKN,OVC,M,M,1600.00,2400.00,M,M,DZ,M,M,M,M,M,M,39.18,KDMW 080215Z AUTO 04009G16KT 7SM DZ BKN016 OVC024 07/07 A2995 RMK AO2 LTG DSNT SE,M\\nDMW,2022-05-08 02:35,-77.0077,39.6083,44.60,44.60,100.00,40.00,11.00,0.01,29.96,M,10.00,19.00,BKN,OVC,M,M,1500.00,2200.00,M,M,DZ,M,M,M,M,M,M,38.39,KDMW 080235Z AUTO 04011G19KT 10SM DZ BKN015 OVC022 07/07 A2996 RMK AO2 P0001,M\\nDMW,2022-05-08 02:55,-77.0077,39.6083,44.60,44.60,100.00,40.00,10.00,0.00,29.97,M,7.00,18.00,OVC,M,M,M,1700.00,M,M,M,DZ,M,M,M,M,M,M,38.77,KDMW 080255Z AUTO 04010G18KT 7SM DZ OVC017 07/07 A2997 RMK AO2,M\\nDMW,2022-05-08 03:15,-77.0077,39.6083,44.60,42.80,93.35,30.00,12.00,0.00,29.97,M,7.00,19.00,SCT,BKN,OVC,M,1600.00,2100.00,2800.00,M,DZ,M,M,M,M,M,M,38.04,KDMW 080315Z AUTO 03012G19KT 7SM DZ SCT016 BKN021 OVC028 07/06 A2997 RMK AO2 LTG DSN,M\\nDMW,2022-05-08 03:25,-77.0077,39.6083,44.60,42.80,93.35,40.00,10.00,0.00,29.97,M,7.00,18.00,SCT,OVC,M,M,1600.00,2100.00,M,M,-DZ,M,M,M,M,M,M,38.77,KDMW 080325Z AUTO 04010G18KT 7SM -DZ SCT016 OVC021 07/06 A2997 RMK AO2,M\\nDMW,2022-05-08 03:55,-77.0077,39.6083,44.60,42.80,93.35,40.00,9.00,0.00,29.97,M,10.00,18.00,BKN,BKN,OVC,M,1600.00,2400.00,5000.00,M,M,M,M,M,M,M,M,39.18,KDMW 080355Z AUTO 04009G18KT 010V070 10SM BKN016 BKN024 OVC050 07/06 A2997 RMK AO2,M\\nDMW,2022-05-08 04:15,-77.0077,39.6083,44.60,42.80,93.35,50.00,14.00,0.00,29.97,M,10.00,19.00,SCT,BKN,OVC,M,1600.00,2400.00,5000.00,M,M,M,M,M,M,M,M,37.40,KDMW 080415Z AUTO 05014G19KT 10SM SCT016 BKN024 OVC050 07/06 A2997 RMK AO2,M\\nDMW,2022-05-08 04:35,-77.0077,39.6083,44.60,42.80,93.35,40.00,11.00,0.00,29.98,M,10.00,18.00,SCT,BKN,OVC,M,1400.00,2600.00,3100.00,M,M,M,M,M,M,M,M,38.39,KDMW 080435Z AUTO 04011G18KT 10SM SCT014 BKN026 OVC031 07/06 A2998 RMK AO2,M\\nDMW,2022-05-08 04:55,-77.0077,39.6083,44.60,42.80,93.35,40.00,8.00,0.00,29.97,M,10.00,M,SCT,BKN,OVC,M,1900.00,3000.00,4800.00,M,M,M,M,M,M,M,M,39.63,KDMW 080455Z AUTO 04008KT 10SM SCT019 BKN030 OVC048 07/06 A2997 RMK AO2,M\\nDMW,2022-05-08 05:15,-77.0077,39.6083,44.60,41.00,87.09,40.00,8.00,0.00,29.97,M,10.00,15.00,SCT,SCT,OVC,M,1900.00,2300.00,4800.00,M,M,M,M,M,M,M,M,39.63,KDMW 080515Z AUTO 04008G15KT 10SM SCT019 SCT023 OVC048 07/05 A2997 RMK AO2,M\\nDMW,2022-05-08 05:35,-77.0077,39.6083,44.60,41.00,87.09,50.00,7.00,0.00,29.96,M,10.00,15.00,SCT,OVC,M,M,2100.00,4800.00,M,M,M,M,M,M,M,M,M,40.14,KDMW 080535Z AUTO 05007G15KT 10SM SCT021 OVC048 07/05 A2996 RMK AO2,M\\nDMW,2022-05-08 05:55,-77.0077,39.6083,44.60,39.20,81.20,50.00,11.00,0.00,29.96,M,10.00,19.00,OVC,M,M,M,4800.00,M,M,M,M,M,M,M,M,M,M,38.39,KDMW 080555Z AUTO 05011G19KT 10SM OVC048 07/04 A2996 RMK AO2 LTG DSNT SE,M\\nDMW,2022-05-08 06:15,-77.0077,39.6083,44.60,39.20,81.20,40.00,8.00,0.00,29.96,M,10.00,M,SCT,OVC,M,M,2900.00,4800.00,M,M,M,M,M,M,M,M,M,39.63,KDMW 080615Z AUTO 04008KT 10SM SCT029 OVC048 07/04 A2996 RMK AO2 LTG DSNT SE,M\\nDMW,2022-05-08 06:25,-77.0077,39.6083,44.60,39.20,81.20,30.00,10.00,0.00,29.96,M,10.00,15.00,BKN,OVC,M,M,2700.00,4800.00,M,M,M,M,M,M,M,M,M,38.77,KDMW 080625Z AUTO 03010G15KT 340V050 10SM BKN027 OVC048 07/04 A2996 RMK AO2 LTG DSNT SE,M\\nDMW,2022-05-08 06:55,-77.0077,39.6083,44.60,39.20,81.20,50.00,10.00,0.00,29.97,M,10.00,18.00,BKN,BKN,OVC,M,2300.00,2800.00,4800.00,M,M,M,M,M,M,M,M,38.77,KDMW 080655Z AUTO 05010G18KT 10SM BKN023 BKN028 OVC048 07/04 A2997 RMK AO2,M\\nDMW,2022-05-08 07:15,-77.0077,39.6083,44.60,37.40,75.68,50.00,13.00,0.00,29.97,M,10.00,20.00,OVC,M,M,M,2500.00,M,M,M,M,M,M,M,M,M,M,37.71,KDMW 080715Z AUTO 05013G20KT 10SM OVC025 07/03 A2997 RMK AO2 LTG DSNT SE,M\\nDMW,2022-05-08 07:35,-77.0077,39.6083,44.60,37.40,75.68,50.00,13.00,0.00,29.97,M,10.00,19.00,OVC,M,M,M,2500.00,M,M,M,M,M,M,M,M,M,M,37.71,KDMW 080735Z AUTO 05013G19KT 10SM OVC025 07/03 A2997 RMK AO2 LTG DSNT SE,M\\nDMW,2022-05-08 07:55,-77.0077,39.6083,44.60,37.40,75.68,50.00,9.00,0.00,29.98,M,10.00,20.00,BKN,OVC,M,M,2500.00,3600.00,M,M,M,M,M,M,M,M,M,39.18,KDMW 080755Z AUTO 05009G20KT 10SM BKN025 OVC036 07/03 A2998 RMK AO2,M\\nDMW,2022-05-08 08:15,-77.0077,39.6083,44.60,37.40,75.68,40.00,9.00,0.00,29.99,M,10.00,16.00,OVC,M,M,M,2500.00,M,M,M,M,M,M,M,M,M,M,39.18,KDMW 080815Z AUTO 04009G16KT 10SM OVC025 07/03 A2999 RMK AO2,M\\nDMW,2022-05-08 08:35,-77.0077,39.6083,44.60,35.60,70.48,40.00,15.00,0.00,30.00,M,10.00,20.00,OVC,M,M,M,2700.00,M,M,M,M,M,M,M,M,M,M,37.11,KDMW 080835Z AUTO 04015G20KT 10SM OVC027 07/02 A3000 RMK AO2 LTG DSNT SE,M\\nDMW,2022-05-08 08:55,-77.0077,39.6083,44.60,35.60,70.48,40.00,8.00,0.00,29.99,M,10.00,18.00,BKN,OVC,M,M,2700.00,3500.00,M,M,M,M,M,M,M,M,M,39.63,KDMW 080855Z AUTO 04008G18KT 10SM BKN027 OVC035 07/02 A2999 RMK AO2 LTG DSNT SE,M\\nDMW,2022-05-08 09:15,-77.0077,39.6083,44.60,33.80,65.61,30.00,10.00,0.00,29.99,M,10.00,18.00,BKN,OVC,M,M,2900.00,3500.00,M,M,M,M,M,M,M,M,M,38.77,KDMW 080915Z AUTO 03010G18KT 10SM BKN029 OVC035 07/01 A2999 RMK AO2 LTG DSNT SE,M\\nDMW,2022-05-08 09:35,-77.0077,39.6083,44.60,33.80,65.61,40.00,6.00,0.00,30.00,M,10.00,15.00,OVC,M,M,M,2900.00,M,M,M,M,M,M,M,M,M,M,40.71,KDMW 080935Z AUTO 04006G15KT 10SM OVC029 07/01 A3000 RMK AO2 LTG DSNT SE,M\\nDMW,2022-05-08 09:55,-77.0077,39.6083,44.60,35.60,70.48,40.00,9.00,0.00,30.00,M,10.00,M,OVC,M,M,M,3400.00,M,M,M,M,M,M,M,M,M,M,39.18,KDMW 080955Z AUTO 04009KT 020V080 10SM OVC034 07/02 A3000 RMK AO2,M\\nDMW,2022-05-08 10:15,-77.0077,39.6083,44.60,33.80,65.61,40.00,10.00,0.00,30.00,M,10.00,14.00,OVC,M,M,M,3400.00,M,M,M,M,M,M,M,M,M,M,38.77,KDMW 081015Z AUTO 04010G14KT 10SM OVC034 07/01 A3000 RMK AO2,M\\nDMW,2022-05-08 10:35,-77.0077,39.6083,44.60,33.80,65.61,30.00,4.00,0.00,30.02,M,10.00,M,OVC,M,M,M,3200.00,M,M,M,M,M,M,M,M,M,M,42.13,KDMW 081035Z AUTO 03004KT 10SM OVC032 07/01 A3002 RMK AO2,M\\nDMW,2022-05-08 10:55,-77.0077,39.6083,44.60,33.80,65.61,40.00,8.00,0.00,30.03,M,10.00,M,OVC,M,M,M,3200.00,M,M,M,M,M,M,M,M,M,M,39.63,KDMW 081055Z AUTO 04008KT 10SM OVC032 07/01 A3003 RMK AO2,M\\nDMW,2022-05-08 11:15,-77.0077,39.6083,44.60,33.80,65.61,40.00,11.00,0.00,30.04,M,10.00,18.00,OVC,M,M,M,3200.00,M,M,M,M,M,M,M,M,M,M,38.39,KDMW 081115Z AUTO 04011G18KT 10SM OVC032 07/01 A3004 RMK AO2,M\\nDMW,2022-05-08 11:25,-77.0077,39.6083,46.40,33.80,61.28,50.00,12.00,0.00,30.04,M,10.00,15.00,OVC,M,M,M,3200.00,M,M,M,M,M,M,M,M,M,M,40.33,KDMW 081125Z AUTO 05012G15KT 10SM OVC032 08/01 A3004 RMK AO2,M\\nDMW,2022-05-08 11:55,-77.0077,39.6083,46.40,33.80,61.28,40.00,10.00,0.00,30.04,M,10.00,15.00,OVC,M,M,M,3600.00,M,M,M,M,M,M,M,M,M,M,41.03,KDMW 081155Z AUTO 04010G15KT 10SM OVC036 08/01 A3004 RMK AO2,M\\nDMW,2022-05-08 12:15,-77.0077,39.6083,46.40,33.80,61.28,40.00,8.00,0.00,30.05,M,10.00,M,OVC,M,M,M,3600.00,M,M,M,M,M,M,M,M,M,M,41.85,KDMW 081215Z AUTO 04008KT 10SM OVC036 08/01 A3005 RMK AO2 LTG DSNT SE,M\\nDMW,2022-05-08 12:35,-77.0077,39.6083,46.40,33.80,61.28,60.00,8.00,0.00,30.06,M,10.00,16.00,OVC,M,M,M,3600.00,M,M,M,M,M,M,M,M,M,M,41.85,KDMW 081235Z AUTO 06008G16KT 040V100 10SM OVC036 08/01 A3006 RMK AO2 LTG DSNT SE,M\\nDMW,2022-05-08 12:55,-77.0077,39.6083,48.20,35.60,61.52,60.00,7.00,0.00,30.06,M,10.00,15.00,OVC,M,M,M,3600.00,M,M,M,M,M,M,M,M,M,M,44.53,KDMW 081255Z AUTO 06007G15KT 10SM OVC036 09/02 A3006 RMK AO2,M\\nDMW,2022-05-08 13:15,-77.0077,39.6083,48.20,35.60,61.52,50.00,8.00,0.00,30.07,M,10.00,18.00,OVC,M,M,M,3600.00,M,M,M,M,M,M,M,M,M,M,44.07,KDMW 081315Z AUTO 05008G18KT 10SM OVC036 09/02 A3007 RMK AO2,M\\nDMW,2022-05-08 13:35,-77.0077,39.6083,48.20,33.80,57.26,60.00,9.00,0.00,30.07,M,10.00,15.00,OVC,M,M,M,3600.00,M,M,M,M,M,M,M,M,M,M,43.66,KDMW 081335Z AUTO 06009G15KT 10SM OVC036 09/01 A3007 RMK AO2,M\\nDMW,2022-05-08 13:55,-77.0077,39.6083,48.20,33.80,57.26,60.00,15.00,0.00,30.07,M,10.00,20.00,OVC,M,M,M,3600.00,M,M,M,M,M,M,M,M,M,M,41.78,KDMW 081355Z AUTO 06015G20KT 10SM OVC036 09/01 A3007 RMK AO2,M\\nDMW,2022-05-08 14:15,-77.0077,39.6083,50.00,33.80,53.54,70.00,10.00,0.00,30.08,M,10.00,17.00,OVC,M,M,M,3600.00,M,M,M,M,M,M,M,M,M,M,50.00,KDMW 081415Z AUTO 07010G17KT 10SM OVC036 10/01 A3008 RMK AO2,M\\nDMW,2022-05-08 14:35,-77.0077,39.6083,50.00,33.80,53.54,50.00,10.00,0.00,30.08,M,10.00,18.00,OVC,M,M,M,3800.00,M,M,M,M,M,M,M,M,M,M,50.00,KDMW 081435Z AUTO 05010G18KT 10SM OVC038 10/01 A3008 RMK AO2 LTG DSNT SE,M\\nDMW,2022-05-08 14:45,-77.0077,39.6083,51.80,33.80,50.08,50.00,11.00,0.00,30.09,M,10.00,18.00,OVC,M,M,M,3800.00,M,M,M,M,M,M,M,M,M,M,51.80,KDMW 081445Z AUTO 05011G18KT 10SM OVC038 11/01 A3009 RMK AO2,M\\nDMW,2022-05-08 15:15,-77.0077,39.6083,51.80,33.80,50.08,40.00,12.00,0.00,30.09,M,10.00,17.00,OVC,M,M,M,4000.00,M,M,M,M,M,M,M,M,M,M,51.80,KDMW 081515Z AUTO 04012G17KT 10SM OVC040 11/01 A3009 RMK AO2 LTG DSNT SE,M\\nDMW,2022-05-08 15:35,-77.0077,39.6083,53.60,35.60,50.36,60.00,9.00,0.00,30.08,M,10.00,16.00,OVC,M,M,M,4000.00,M,M,M,M,M,M,M,M,M,M,53.60,KDMW 081535Z AUTO 06009G16KT 10SM OVC040 12/02 A3008 RMK AO2,M\\nDMW,2022-05-08 15:55,-77.0077,39.6083,53.60,33.80,46.88,40.00,12.00,0.00,30.09,M,10.00,19.00,OVC,M,M,M,4000.00,M,M,M,M,M,M,M,M,M,M,53.60,KDMW 081555Z AUTO 04012G19KT 10SM OVC040 12/01 A3009 RMK AO2,M\\nDMW,2022-05-08 16:15,-77.0077,39.6083,53.60,33.80,46.88,40.00,10.00,0.00,30.10,M,10.00,18.00,OVC,M,M,M,4200.00,M,M,M,M,M,M,M,M,M,M,53.60,KDMW 081615Z AUTO 04010G18KT 10SM OVC042 12/01 A3010 RMK AO2,M\\nDMW,2022-05-08 16:35,-77.0077,39.6083,53.60,33.80,46.88,50.00,13.00,0.00,30.09,M,10.00,19.00,OVC,M,M,M,4200.00,M,M,M,M,M,M,M,M,M,M,53.60,KDMW 081635Z AUTO 05013G19KT 10SM OVC042 12/01 A3009 RMK AO2,M\\nDMW,2022-05-08 16:45,-77.0077,39.6083,53.60,33.80,46.88,70.00,12.00,0.00,30.09,M,10.00,18.00,OVC,M,M,M,4200.00,M,M,M,M,M,M,M,M,M,M,53.60,KDMW 081645Z AUTO 07012G18KT 10SM OVC042 12/01 A3009 RMK AO2,M\\nDMW,2022-05-08 17:15,-77.0077,39.6083,55.40,35.60,47.16,40.00,10.00,0.00,30.09,M,10.00,16.00,OVC,M,M,M,4200.00,M,M,M,M,M,M,M,M,M,M,55.40,KDMW 081715Z AUTO 04010G16KT 020V080 10SM OVC042 13/02 A3009 RMK AO2,M\\nDMW,2022-05-08 17:35,-77.0077,39.6083,57.20,35.60,44.19,80.00,11.00,0.00,30.08,M,10.00,16.00,BKN,M,M,M,4400.00,M,M,M,M,M,M,M,M,M,M,57.20,KDMW 081735Z AUTO 08011G16KT 10SM BKN044 14/02 A3008 RMK AO2,M\\nDMW,2022-05-08 17:55,-77.0077,39.6083,57.20,37.40,47.44,60.00,7.00,0.00,30.09,M,10.00,17.00,BKN,M,M,M,4400.00,M,M,M,M,M,M,M,M,M,M,57.20,KDMW 081755Z AUTO 06007G17KT 020V090 10SM BKN044 14/03 A3009 RMK AO2,M\\nDMW,2022-05-08 18:15,-77.0077,39.6083,55.40,37.40,50.64,70.00,8.00,0.00,30.09,M,10.00,M,OVC,M,M,M,4400.00,M,M,M,M,M,M,M,M,M,M,55.40,KDMW 081815Z AUTO 07008KT 040V100 10SM OVC044 13/03 A3009 RMK AO2,M\\nDMW,2022-05-08 18:25,-77.0077,39.6083,57.20,37.40,47.44,40.00,6.00,0.00,30.09,M,10.00,M,BKN,OVC,M,M,4600.00,5000.00,M,M,M,M,M,M,M,M,M,57.20,KDMW 081825Z AUTO 04006KT 10SM BKN046 OVC050 14/03 A3009 RMK AO2,M\\nDMW,2022-05-08 18:55,-77.0077,39.6083,59.00,37.40,44.47,40.00,8.00,0.00,30.08,M,10.00,17.00,BKN,BKN,M,M,4800.00,5500.00,M,M,M,M,M,M,M,M,M,59.00,KDMW 081855Z AUTO 04008G17KT 10SM BKN048 BKN055 15/03 A3008 RMK AO2 LTG DSNT SE,M\\nDMW,2022-05-08 19:15,-77.0077,39.6083,57.20,35.60,44.19,70.00,11.00,0.00,30.08,M,10.00,16.00,BKN,M,M,M,5000.00,M,M,M,M,M,M,M,M,M,M,57.20,KDMW 081915Z AUTO 07011G16KT 10SM BKN050 14/02 A3008 RMK AO2 LTG DSNT SE,M\\nDMW,2022-05-08 19:35,-77.0077,39.6083,57.20,35.60,44.19,60.00,8.00,0.00,30.08,M,10.00,M,OVC,M,M,M,6000.00,M,M,M,M,M,M,M,M,M,M,57.20,KDMW 081935Z AUTO 06008KT 360V090 10SM OVC060 14/02 A3008 RMK AO2 LTG DSNT SE,M\\nDMW,2022-05-08 19:55,-77.0077,39.6083,57.20,35.60,44.19,40.00,8.00,0.00,30.07,M,10.00,M,OVC,M,M,M,6000.00,M,M,M,M,M,M,M,M,M,M,57.20,KDMW 081955Z AUTO 04008KT 10SM OVC060 14/02 A3007 RMK AO2 LTG DSNT SE,M\\nDMW,2022-05-08 20:15,-77.0077,39.6083,59.00,35.60,41.42,60.00,5.00,0.00,30.07,M,10.00,M,SCT,SCT,BKN,M,6000.00,7500.00,8000.00,M,M,M,M,M,M,M,M,59.00,KDMW 082015Z AUTO 06005KT 10SM SCT060 SCT075 BKN080 15/02 A3007 RMK AO2,M\\nDMW,2022-05-08 20:35,-77.0077,39.6083,62.60,35.60,36.45,80.00,5.00,0.00,30.07,M,10.00,M,SCT,BKN,M,M,7500.00,9000.00,M,M,M,M,M,M,M,M,M,62.60,KDMW 082035Z AUTO 08005KT 10SM SCT075 BKN090 17/02 A3007 RMK AO2,M\\nDMW,2022-05-08 20:55,-77.0077,39.6083,62.60,37.40,39.14,90.00,6.00,0.00,30.07,M,10.00,M,SCT,M,M,M,9000.00,M,M,M,M,M,M,M,M,M,M,62.60,KDMW 082055Z AUTO 09006KT 10SM SCT090 17/03 A3007 RMK AO2,M\\nDMW,2022-05-08 21:15,-77.0077,39.6083,62.60,35.60,36.45,70.00,7.00,0.00,30.07,M,10.00,M,CLR,M,M,M,M,M,M,M,M,M,M,M,M,M,M,62.60,KDMW 082115Z AUTO 07007KT 10SM CLR 17/02 A3007 RMK AO2,M\\nDMW,2022-05-08 21:35,-77.0077,39.6083,64.40,35.60,34.22,60.00,8.00,0.00,30.07,M,10.00,M,CLR,M,M,M,M,M,M,M,M,M,M,M,M,M,M,64.40,KDMW 082135Z AUTO 06008KT 050V110 10SM CLR 18/02 A3007 RMK AO2,M\\nDMW,2022-05-08 21:45,-77.0077,39.6083,62.60,33.80,33.93,70.00,8.00,0.00,M,M,10.00,M,CLR,M,M,M,M,M,M,M,M,M,M,M,M,M,M,62.60,KDMW 082145Z AUTO 07008KT 10SM CLR 17/01 A30 BLO 12 RMK AO2,M\\nDMW,2022-05-08 22:15,-77.0077,39.6083,62.60,35.60,36.45,50.00,7.00,0.00,30.07,M,10.00,M,CLR,M,M,M,M,M,M,M,M,M,M,M,M,M,M,62.60,KDMW 082215Z AUTO 05007KT 010V080 10SM CLR 17/02 A3007 RMK AO2,M\\nDMW,2022-05-08 22:35,-77.0077,39.6083,62.60,33.80,33.93,70.00,9.00,0.00,30.08,M,10.00,M,CLR,M,M,M,M,M,M,M,M,M,M,M,M,M,M,62.60,KDMW 082235Z AUTO 07009KT 10SM CLR 17/01 A3008 RMK AO2,M\\nDMW,2022-05-08 22:55,-77.0077,39.6083,62.60,33.80,33.93,70.00,8.00,0.00,30.09,M,10.00,M,CLR,M,M,M,M,M,M,M,M,M,M,M,M,M,M,62.60,KDMW 082255Z AUTO 07008KT 10SM CLR 17/01 A3009 RMK AO2,M\\nDMW,2022-05-08 23:15,-77.0077,39.6083,62.60,35.60,36.45,80.00,4.00,0.00,30.10,M,10.00,M,CLR,M,M,M,M,M,M,M,M,M,M,M,M,M,M,62.60,KDMW 082315Z AUTO 08004KT 10SM CLR 17/02 A3010 RMK AO2,M\\nDMW,2022-05-08 23:35,-77.0077,39.6083,60.80,35.60,38.85,100.00,3.00,0.00,30.10,M,10.00,M,CLR,M,M,M,M,M,M,M,M,M,M,M,M,M,M,60.80,KDMW 082335Z AUTO 10003KT 10SM CLR 16/02 A3010 RMK AO2,M\\nDMW,2022-05-08 23:55,-77.0077,39.6083,59.00,35.60,41.42,150.00,3.00,0.00,30.11,M,10.00,M,CLR,M,M,M,M,M,M,M,M,M,M,M,M,M,M,59.00,KDMW 082355Z AUTO 15003KT 10SM CLR 15/02 A3011 RMK AO2,M\\n'"
            ],
            "application/vnd.google.colaboratory.intrinsic+json": {
              "type": "string"
            }
          },
          "metadata": {},
          "execution_count": 40
        }
      ]
    },
    {
      "cell_type": "code",
      "source": [
        "outfn"
      ],
      "metadata": {
        "colab": {
          "base_uri": "https://localhost:8080/",
          "height": 35
        },
        "id": "Cew9dr7huQC7",
        "outputId": "7564d7de-52b5-4758-d7e1-c772992978de"
      },
      "execution_count": 41,
      "outputs": [
        {
          "output_type": "execute_result",
          "data": {
            "text/plain": [
              "'DMW_202205010000_202205090000.txt'"
            ],
            "application/vnd.google.colaboratory.intrinsic+json": {
              "type": "string"
            }
          },
          "metadata": {},
          "execution_count": 41
        }
      ]
    },
    {
      "cell_type": "code",
      "source": [
        "out"
      ],
      "metadata": {
        "colab": {
          "base_uri": "https://localhost:8080/"
        },
        "id": "ahjKoUypyeCR",
        "outputId": "a8d8fafa-2942-4461-bca3-171077ba8183"
      },
      "execution_count": 42,
      "outputs": [
        {
          "output_type": "execute_result",
          "data": {
            "text/plain": [
              "<_io.TextIOWrapper name='DMW_202205010000_202205090000.txt' mode='w' encoding='UTF-8'>"
            ]
          },
          "metadata": {},
          "execution_count": 42
        }
      ]
    },
    {
      "cell_type": "code",
      "source": [
        "f2read = 'NUI_202205010000_202205090000.txt'"
      ],
      "metadata": {
        "id": "iZ4AWv_7ykfI"
      },
      "execution_count": 49,
      "outputs": []
    },
    {
      "cell_type": "code",
      "source": [
        "with open(f2read, \"r\") as file1:\n",
        "    FileContent = file1.read()\n",
        "    print(FileContent)"
      ],
      "metadata": {
        "colab": {
          "base_uri": "https://localhost:8080/"
        },
        "id": "-upxWiyJ0M6j",
        "outputId": "03c3f76b-eac6-4f4d-f12f-2221b3825803"
      },
      "execution_count": 50,
      "outputs": [
        {
          "output_type": "stream",
          "name": "stdout",
          "text": [
            "#DEBUG: Format Typ    -> comma\n",
            "#DEBUG: Time Period   -> 2022-05-01 00:00:00+00:00 2022-05-09 00:00:00+00:00\n",
            "#DEBUG: Time Zone     -> Etc/UTC\n",
            "#DEBUG: Data Contact   -> daryl herzmann akrherz@iastate.edu 515-294-5978\n",
            "#DEBUG: Entries Found -> -1\n",
            "station,valid,lon,lat,tmpf,dwpf,relh,drct,sknt,p01i,alti,mslp,vsby,gust,skyc1,skyc2,skyc3,skyc4,skyl1,skyl2,skyl3,skyl4,wxcodes,ice_accretion_1hr,ice_accretion_3hr,ice_accretion_6hr,peak_wind_gust,peak_wind_drct,peak_wind_time,feel,metar,snowdepth\n",
            "NUI,2022-05-01 00:53,-76.4285,38.1460,55.00,30.90,39.63,130.00,5.00,0.00,30.11,1019.60,10.00,M,CLR,M,M,M,M,M,M,M,M,M,M,M,M,M,M,55.00,KNUI 010053Z AUTO 13005KT 10SM CLR 13/M01 A3011 RMK AO2 SLP196 T01281006 $,M\n",
            "NUI,2022-05-01 01:53,-76.4285,38.1460,55.00,37.00,50.58,140.00,4.00,0.00,30.11,1019.70,10.00,M,CLR,M,M,M,M,M,M,M,M,M,M,M,M,M,M,55.00,KNUI 010153Z AUTO 14004KT 10SM CLR 13/03 A3011 RMK AO2 SLP197 T01280028 $,M\n",
            "NUI,2022-05-01 02:53,-76.4285,38.1460,52.00,41.00,66.00,150.00,4.00,0.00,30.11,1019.40,10.00,M,CLR,M,M,M,M,M,M,M,M,M,M,M,M,M,M,52.00,KNUI 010253Z AUTO 15004KT 10SM CLR 11/05 A3011 RMK AO2 SLP194 T01110050 50000 $,M\n",
            "NUI,2022-05-01 03:53,-76.4285,38.1460,57.00,46.90,68.90,180.00,6.00,0.00,30.11,1019.70,10.00,M,CLR,M,M,M,M,M,M,M,M,M,M,M,M,M,M,57.00,KNUI 010353Z AUTO 18006KT 10SM CLR 14/08 A3011 RMK AO2 SLP197 T01390083 $,M\n",
            "NUI,2022-05-01 04:53,-76.4285,38.1460,57.00,48.00,71.81,190.00,4.00,0.00,30.12,1019.90,10.00,M,CLR,M,M,M,M,M,M,M,M,M,M,M,M,M,M,57.00,KNUI 010453Z AUTO 19004KT 10SM CLR 14/09 A3012 RMK AO2 SLP199 T01390089 402060033 $,M\n",
            "NUI,2022-05-01 05:53,-76.4285,38.1460,55.90,46.90,71.69,190.00,3.00,0.00,30.12,1020.00,10.00,M,CLR,M,M,M,M,M,M,M,M,M,M,M,M,M,M,55.90,KNUI 010553Z AUTO 19003KT 10SM CLR 13/08 A3012 RMK AO2 SLP200 T01330083 10150 20111 51006 $,M\n",
            "NUI,2022-05-01 06:53,-76.4285,38.1460,54.00,46.00,74.26,0.00,0.00,0.00,30.10,1019.30,10.00,M,CLR,M,M,M,M,M,M,M,M,M,M,M,M,M,M,54.00,KNUI 010653Z AUTO 00000KT 10SM CLR 12/08 A3010 RMK AO2 SLP193 T01220078 $,M\n",
            "NUI,2022-05-01 07:53,-76.4285,38.1460,53.10,46.90,79.40,0.00,0.00,0.00,30.10,1019.10,10.00,M,CLR,M,M,M,M,M,M,M,M,M,M,M,M,M,M,53.10,KNUI 010753Z AUTO 00000KT 10SM CLR 12/08 A3010 RMK AO2 SLP191 T01170083 $,M\n",
            "NUI,2022-05-01 08:53,-76.4285,38.1460,53.10,46.00,76.75,190.00,4.00,0.00,30.10,1019.10,10.00,M,CLR,M,M,M,M,M,M,M,M,M,M,M,M,M,M,53.10,KNUI 010853Z AUTO 19004KT 10SM CLR 12/08 A3010 RMK AO2 SLP191 T01170078 56009 $,M\n",
            "NUI,2022-05-01 09:53,-76.4285,38.1460,51.10,46.00,82.62,0.00,0.00,0.00,30.10,1019.30,10.00,M,BKN,M,M,M,8000.00,M,M,M,M,M,M,M,M,M,M,51.10,KNUI 010953Z AUTO 00000KT 10SM BKN080 11/08 A3010 RMK AO2 SLP193 T01060078 $,M\n",
            "NUI,2022-05-01 10:53,-76.4285,38.1460,53.10,48.00,82.76,0.00,0.00,0.00,30.12,1019.80,10.00,M,OVC,M,M,M,6500.00,M,M,M,M,M,M,M,M,M,M,53.10,KNUI 011053Z AUTO 00000KT 10SM OVC065 12/09 A3012 RMK AO2 SLP198 T01170089 $,M\n",
            "NUI,2022-05-01 11:53,-76.4285,38.1460,57.90,50.00,74.91,130.00,4.00,0.00,30.11,1019.60,10.00,M,OVC,M,M,M,5500.00,M,M,M,M,M,M,M,M,M,M,57.90,KNUI 011153Z AUTO 13004KT 10SM OVC055 14/10 A3011 RMK AO2 SLP196 T01440100 10144 20106 50005 $,M\n",
            "NUI,2022-05-01 12:53,-76.4285,38.1460,59.00,51.10,75.02,90.00,3.00,0.00,30.12,1019.80,10.00,M,OVC,M,M,M,5000.00,M,M,M,M,M,M,M,M,M,M,59.00,KNUI 011253Z AUTO 09003KT 10SM OVC050 15/11 A3012 RMK AO2 SLP198 T01500106 $,M\n",
            "NUI,2022-05-01 13:53,-76.4285,38.1460,61.00,51.10,69.86,130.00,5.00,0.00,30.12,1019.90,10.00,M,OVC,M,M,M,4600.00,M,M,M,M,M,M,M,M,M,M,61.00,KNUI 011353Z AUTO 13005KT 10SM OVC046 16/11 A3012 RMK AO2 SLP199 T01610106 $,M\n",
            "NUI,2022-05-01 14:53,-76.4285,38.1460,64.00,46.90,53.72,130.00,7.00,0.00,30.12,1019.90,10.00,M,OVC,M,M,M,4900.00,M,M,M,M,M,M,M,M,M,M,64.00,KNUI 011453Z AUTO 13007KT 10SM OVC049 18/08 A3012 RMK AO2 SLP199 T01780083 50003 $,M\n",
            "NUI,2022-05-01 15:53,-76.4285,38.1460,66.00,43.00,43.20,130.00,8.00,0.00,30.11,1019.50,10.00,16.00,BKN,M,M,M,4500.00,M,M,M,M,M,M,M,M,M,M,66.00,KNUI 011553Z AUTO 13008G16KT 10SM BKN045 19/06 A3011 RMK AO2 SLP195 T01890061 $,M\n",
            "NUI,2022-05-01 16:53,-76.4285,38.1460,68.00,43.00,40.31,170.00,8.00,0.00,30.09,1018.80,10.00,16.00,BKN,M,M,M,10000.00,M,M,M,M,M,M,M,M,M,M,68.00,KNUI 011653Z AUTO 17008G16KT 120V190 10SM BKN100 20/06 A3009 RMK AO2 SLP188 T02000061 $,M\n",
            "NUI,2022-05-01 17:53,-76.4285,38.1460,69.10,46.00,43.52,130.00,8.00,0.00,30.07,1018.10,10.00,15.00,FEW,M,M,M,9500.00,M,M,M,M,M,M,M,M,M,M,69.10,KNUI 011753Z AUTO 13008G15KT 10SM FEW095 21/08 A3007 RMK AO2 SLP181 T02060078 10211 20144 58018 $,M\n",
            "NUI,2022-05-01 18:53,-76.4285,38.1460,69.10,48.00,46.92,150.00,8.00,0.00,30.06,1018.00,10.00,M,BKN,M,M,M,10000.00,M,M,M,M,M,M,M,M,M,M,69.10,KNUI 011853Z AUTO 15008KT 10SM BKN100 21/09 A3006 RMK AO2 SLP180 T02060089 $,M\n",
            "NUI,2022-05-01 19:53,-76.4285,38.1460,68.00,50.00,52.51,100.00,8.00,0.00,30.05,1017.40,10.00,M,BKN,M,M,M,4800.00,M,M,M,M,M,M,M,M,M,M,68.00,KNUI 011953Z AUTO 10008KT 10SM BKN048 20/10 A3005 RMK AO2 PRESFR SLP174 T02000100 $,M\n",
            "NUI,2022-05-01 20:54,-76.4285,38.1460,68.00,52.00,56.55,120.00,10.00,0.00,30.01,1016.20,10.00,18.00,M,M,M,M,M,M,M,M,M,M,M,M,M,M,M,68.00,KNUI 012054Z AUTO 12010G18KT 10SM 20/11 A3001 RMK AO2 SLP162 T02000111 $,M\n",
            "NUI,2022-05-01 21:53,-76.4285,38.1460,66.90,51.10,56.82,110.00,12.00,0.00,30.01,1016.20,10.00,M,FEW,SCT,M,M,9500.00,11000.00,M,M,M,M,M,M,M,M,M,66.90,KNUI 012153Z AUTO 11012KT 10SM FEW095 SCT110 19/11 A3001 RMK AO2 SLP162 T01940106 $,M\n",
            "NUI,2022-05-01 22:53,-76.4285,38.1460,64.90,48.00,54.26,110.00,11.00,0.00,30.00,1015.70,10.00,17.00,FEW,SCT,M,M,10000.00,12000.00,M,M,M,M,M,M,M,M,M,64.90,KNUI 012253Z AUTO 11011G17KT 10SM FEW100 SCT120 18/09 A3000 RMK AO2 SLP157 T01830089 $,M\n",
            "NUI,2022-05-01 23:53,-76.4285,38.1460,63.00,48.90,59.98,100.00,9.00,0.0001,30.01,1016.20,10.00,M,BKN,M,M,M,11000.00,M,M,M,M,M,M,M,M,M,M,63.00,KNUI 012353Z AUTO 10009KT 10SM BKN110 17/09 A3001 RMK AO2 RAB34E45 SLP162 P0000 60000 T01720094 10217 20172 55001 $,M\n",
            "NUI,2022-05-02 00:53,-76.4285,38.1460,63.00,51.10,65.09,110.00,8.00,0.00,30.00,1015.90,10.00,M,BKN,M,M,M,11000.00,M,M,M,M,M,M,M,M,M,M,63.00,KNUI 020053Z AUTO 11008KT 10SM BKN110 17/11 A3000 RMK AO2 SLP159 T01720106 $,M\n",
            "NUI,2022-05-02 01:17,-76.4285,38.1460,63.00,52.00,67.29,M,5.00,0.00,30.02,M,10.00,M,FEW,OVC,M,M,4600.00,11000.00,M,M,VCTS,M,M,M,M,M,M,63.00,KNUI 020117Z AUTO VRB05KT 10SM VCTS FEW046 OVC110 17/11 A3002 RMK AO2 T01720111 $,M\n",
            "NUI,2022-05-02 01:25,-76.4285,38.1460,63.00,53.10,70.07,130.00,5.00,0.00,30.02,M,10.00,M,SCT,OVC,M,M,4600.00,11000.00,M,M,TS,M,M,M,M,M,M,63.00,KNUI 020125Z AUTO 13005KT 10SM TS SCT046 OVC110 17/12 A3002 RMK AO2 TSB19 T01720117 $,M\n",
            "NUI,2022-05-02 01:40,-76.4285,38.1460,63.00,53.10,70.07,130.00,6.00,0.00,30.02,M,10.00,M,FEW,SCT,BKN,M,4700.00,7000.00,12000.00,M,M,M,M,M,M,M,M,63.00,KNUI 020140Z AUTO 13006KT 10SM FEW047 SCT070 BKN120 17/12 A3002 RMK AO2 TSB19E34 T01720117 $,M\n",
            "NUI,2022-05-02 01:53,-76.4285,38.1460,63.00,54.00,72.42,130.00,7.00,0.00,30.02,1016.40,10.00,M,FEW,SCT,M,M,7000.00,12000.00,M,M,M,M,M,M,M,M,M,63.00,KNUI 020153Z AUTO 13007KT 10SM FEW070 SCT120 17/12 A3002 RMK AO2 TSB19E34 SLP164 T01720122 $,M\n",
            "NUI,2022-05-02 02:53,-76.4285,38.1460,63.00,55.90,77.61,120.00,5.00,0.00,29.99,1015.40,10.00,M,FEW,M,M,M,11000.00,M,M,M,M,M,M,M,M,M,M,63.00,KNUI 020253Z AUTO 12005KT 10SM FEW110 17/13 A2999 RMK AO2 SLP154 T01720133 58008 $,M\n",
            "NUI,2022-05-02 03:53,-76.4285,38.1460,63.00,57.00,80.76,0.00,0.00,0.0001,30.00,1015.70,10.00,M,FEW,FEW,BKN,M,5500.00,8000.00,10000.00,M,M,M,M,M,M,M,M,63.00,KNUI 020353Z AUTO 00000KT 10SM FEW055 FEW080 BKN100 17/14 A3000 RMK AO2 RAB27E36 SLP157 P0000 T01720139 $,M\n",
            "NUI,2022-05-02 04:53,-76.4285,38.1460,64.00,59.00,83.78,M,3.00,0.00,29.98,1015.10,9.00,M,BKN,M,M,M,10000.00,M,M,M,M,M,M,M,M,M,M,64.00,KNUI 020453Z AUTO VRB03KT 9SM BKN100 18/15 A2998 RMK AO2 SLP151 T01780150 402170106 $,M\n",
            "NUI,2022-05-02 05:53,-76.4285,38.1460,64.00,60.10,87.14,180.00,5.00,0.00,29.97,1014.60,10.00,M,FEW,FEW,M,M,7500.00,9500.00,M,M,M,M,M,M,M,M,M,64.00,KNUI 020553Z AUTO 18005KT 10SM FEW075 FEW095 18/16 A2997 RMK AO2 SLP146 60000 T01780156 10183 20167 58007 $,M\n",
            "NUI,2022-05-02 06:53,-76.4285,38.1460,64.00,60.10,87.14,190.00,3.00,0.00,29.96,1014.50,10.00,M,SCT,M,M,M,5000.00,M,M,M,M,M,M,M,M,M,M,64.00,KNUI 020653Z AUTO 19003KT 10SM SCT050 18/16 A2996 RMK AO2 SLP145 T01780156 $,M\n",
            "NUI,2022-05-02 07:53,-76.4285,38.1460,64.00,59.00,83.78,210.00,4.00,0.00,29.97,1014.80,10.00,M,BKN,BKN,BKN,M,4300.00,6000.00,7000.00,M,M,M,M,M,M,M,M,64.00,KNUI 020753Z AUTO 21004KT 10SM BKN043 BKN060 BKN070 18/15 A2997 RMK AO2 SLP148 T01780150 $,M\n",
            "NUI,2022-05-02 08:53,-76.4285,38.1460,64.00,59.00,83.78,230.00,6.00,0.00,29.96,1014.40,10.00,M,SCT,M,M,M,3800.00,M,M,M,M,M,M,M,M,M,M,64.00,KNUI 020853Z AUTO 23006KT 10SM SCT038 18/15 A2996 RMK AO2 SLP144 T01780150 58002 $,M\n",
            "NUI,2022-05-02 09:53,-76.4285,38.1460,64.00,59.00,83.78,230.00,5.00,0.00,29.95,1014.10,10.00,M,CLR,M,M,M,M,M,M,M,M,M,M,M,M,M,M,64.00,KNUI 020953Z AUTO 23005KT 10SM CLR 18/15 A2995 RMK AO2 SLP141 T01780150 $,M\n",
            "NUI,2022-05-02 10:50,-76.4285,38.1460,64.40,59.00,82.62,240.00,5.00,0.00,29.96,M,10.00,M,BKN,M,M,M,1700.00,M,M,M,M,M,M,M,M,M,M,64.40,KNUI 021050Z AUTO 24005KT 10SM BKN017 18/15 A2996 RMK AO2 $,M\n",
            "NUI,2022-05-02 10:53,-76.4285,38.1460,64.00,59.00,83.78,240.00,7.00,0.00,29.96,1014.60,10.00,M,BKN,M,M,M,1700.00,M,M,M,M,M,M,M,M,M,M,64.00,KNUI 021053Z AUTO 24007KT 10SM BKN017 18/15 A2996 RMK AO2 SLP146 T01780150 $,M\n",
            "NUI,2022-05-02 11:50,-76.4285,38.1460,66.20,60.80,82.74,250.00,5.00,0.00,29.99,M,10.00,M,SCT,M,M,M,1500.00,M,M,M,M,M,M,M,M,M,M,66.20,KNUI 021150Z AUTO 25005KT 10SM SCT015 19/16 A2999 RMK AO2,M\n",
            "NUI,2022-05-02 11:53,-76.4285,38.1460,66.00,60.10,81.27,250.00,4.00,0.00,29.99,1015.40,10.00,M,FEW,M,M,M,1500.00,M,M,M,M,M,M,M,M,M,M,66.00,KNUI 021153Z AUTO 25004KT 10SM FEW015 19/16 A2999 RMK AO2 SLP154 T01890156 10189 20172 51009,M\n",
            "NUI,2022-05-02 12:53,-76.4285,38.1460,69.10,61.00,75.40,270.00,5.00,0.00,30.00,1015.60,10.00,M,CLR,M,M,M,M,M,M,M,M,M,M,M,M,M,M,69.10,KNUI 021253Z AUTO 27005KT 10SM CLR 21/16 A3000 RMK AO2 SLP156 T02060161,M\n",
            "NUI,2022-05-02 13:53,-76.4285,38.1460,72.00,62.10,71.02,300.00,6.00,0.00,30.01,1016.10,10.00,M,FEW,M,M,M,1500.00,M,M,M,M,M,M,M,M,M,M,72.00,KNUI 021353Z AUTO 30006KT 10SM FEW015 22/17 A3001 RMK AO2 SLP161 T02220167,M\n",
            "NUI,2022-05-02 14:53,-76.4285,38.1460,73.90,62.10,66.61,M,4.00,0.00,30.02,1016.30,10.00,M,CLR,M,M,M,M,M,M,M,M,M,M,M,M,M,M,73.90,KNUI 021453Z AUTO VRB04KT 10SM CLR 23/17 A3002 RMK AO2 SLP163 T02330167 51009,M\n",
            "NUI,2022-05-02 15:53,-76.4285,38.1460,73.90,60.10,62.05,80.00,8.00,0.00,30.02,1016.40,10.00,M,CLR,M,M,M,M,M,M,M,M,M,M,M,M,M,M,73.90,KNUI 021553Z AUTO 08008KT 10SM CLR 23/16 A3002 RMK AO2 SLP164 T02330156,M\n",
            "NUI,2022-05-02 16:53,-76.4285,38.1460,72.00,57.90,61.15,60.00,9.00,0.00,30.02,1016.40,10.00,M,CLR,M,M,M,M,M,M,M,M,M,M,M,M,M,M,72.00,KNUI 021653Z AUTO 06009KT 010V080 10SM CLR 22/14 A3002 RMK AO2 SLP164 T02220144,M\n",
            "NUI,2022-05-02 17:22,-76.4285,38.1460,73.00,57.90,59.12,70.00,6.00,0.00,30.01,M,10.00,M,FEW,M,M,M,300.00,M,M,M,M,M,M,M,M,M,M,73.00,KNUI 021722Z AUTO 07006KT 10SM FEW003 23/14 A3001 RMK AO2 T02280144 $,M\n",
            "NUI,2022-05-02 17:53,-76.4285,38.1460,75.00,57.90,55.28,60.00,8.00,0.00,30.00,1015.90,10.00,M,CLR,M,M,M,M,M,M,M,M,M,M,M,M,M,M,75.00,KNUI 021753Z AUTO 06008KT 10SM CLR 24/14 A3000 RMK AO2 SLP159 T02390144 10244 20189 58004 $,M\n",
            "NUI,2022-05-02 18:53,-76.4285,38.1460,75.90,55.90,49.91,100.00,5.00,0.00,30.00,1015.90,10.00,M,SCT,M,M,M,6500.00,M,M,M,M,M,M,M,M,M,M,75.90,KNUI 021853Z AUTO 10005KT 10SM SCT065 24/13 A3000 RMK AO2 SLP159 T02440133 $,M\n",
            "NUI,2022-05-02 19:53,-76.4285,38.1460,79.00,54.00,42.03,70.00,8.00,0.00,29.98,1015.00,10.00,M,FEW,M,M,M,6500.00,M,M,M,M,M,M,M,M,M,M,79.00,KNUI 021953Z AUTO 07008KT 10SM FEW065 26/12 A2998 RMK AO2 SLP150 T02610122,M\n",
            "NUI,2022-05-02 20:53,-76.4285,38.1460,79.00,48.90,34.81,90.00,7.00,0.00,29.97,1014.90,10.00,M,CLR,M,M,M,M,M,M,M,M,M,M,M,M,M,M,79.00,KNUI 022053Z AUTO 09007KT 10SM CLR 26/09 A2997 RMK AO2 SLP149 T02610094 58010,M\n",
            "NUI,2022-05-02 21:53,-76.4285,38.1460,78.10,52.00,40.23,110.00,7.00,0.00,29.97,1014.70,10.00,M,CLR,M,M,M,M,M,M,M,M,M,M,M,M,M,M,78.10,KNUI 022153Z AUTO 11007KT 10SM CLR 26/11 A2997 RMK AO2 SLP147 T02560111,M\n",
            "NUI,2022-05-02 22:53,-76.4285,38.1460,75.90,54.00,46.57,110.00,4.00,0.00,29.98,1015.00,10.00,M,CLR,M,M,M,M,M,M,M,M,M,M,M,M,M,M,75.90,KNUI 022253Z AUTO 11004KT 10SM CLR 24/12 A2998 RMK AO2 SLP150 T02440122,M\n",
            "NUI,2022-05-02 23:53,-76.4285,38.1460,70.00,55.90,60.89,0.00,0.00,0.00,29.98,1015.20,10.00,M,CLR,M,M,M,M,M,M,M,M,M,M,M,M,M,M,70.00,KNUI 022353Z AUTO 00000KT 10SM CLR 21/13 A2998 RMK AO2 SLP152 T02110133 10267 20211 53003,M\n",
            "NUI,2022-05-03 00:53,-76.4285,38.1460,66.00,55.90,69.88,0.00,0.00,0.00,30.00,1015.70,10.00,M,CLR,M,M,M,M,M,M,M,M,M,M,M,M,M,M,66.00,KNUI 030053Z AUTO 00000KT 10SM CLR 19/13 A3000 RMK AO2 SLP157 T01890133,M\n",
            "NUI,2022-05-03 01:53,-76.4285,38.1460,63.00,55.00,75.11,0.00,0.00,0.00,30.01,1016.10,10.00,M,CLR,M,M,M,M,M,M,M,M,M,M,M,M,M,M,63.00,KNUI 030153Z AUTO 00000KT 10SM CLR 17/13 A3001 RMK AO2 SLP161 T01720128,M\n",
            "NUI,2022-05-03 02:53,-76.4285,38.1460,63.00,54.00,72.42,100.00,4.00,0.00,30.02,1016.40,10.00,M,CLR,M,M,M,M,M,M,M,M,M,M,M,M,M,M,63.00,KNUI 030253Z AUTO 10004KT 10SM CLR 17/12 A3002 RMK AO2 SLP164 T01720122 51012,M\n",
            "NUI,2022-05-03 03:53,-76.4285,38.1460,61.00,55.00,80.61,0.00,0.00,0.00,30.01,1016.20,10.00,M,CLR,M,M,M,M,M,M,M,M,M,M,M,M,M,M,61.00,KNUI 030353Z AUTO 00000KT 10SM CLR 16/13 A3001 RMK AO2 SLP162 T01610128,M\n",
            "NUI,2022-05-03 04:53,-76.4285,38.1460,60.10,55.90,85.99,70.00,3.00,0.00,30.02,1016.40,9.00,M,CLR,M,M,M,M,M,M,M,M,M,M,M,M,M,M,60.10,KNUI 030453Z AUTO 07003KT 9SM CLR 16/13 A3002 RMK AO2 SLP164 T01560133 402670150,M\n",
            "NUI,2022-05-03 05:53,-76.4285,38.1460,63.00,59.00,86.77,80.00,5.00,0.00,30.01,1016.20,6.00,M,CLR,M,M,M,M,M,M,M,BR,M,M,M,M,M,M,63.00,KNUI 030553Z AUTO 08005KT 6SM BR CLR 17/15 A3001 RMK AO2 SLP162 T01720150 10211 20150 58003,M\n",
            "NUI,2022-05-03 06:53,-76.4285,38.1460,63.00,59.00,86.77,90.00,5.00,0.00,29.99,1015.50,5.00,M,CLR,M,M,M,M,M,M,M,BR,M,M,M,M,M,M,63.00,KNUI 030653Z AUTO 09005KT 5SM BR CLR 17/15 A2999 RMK AO2 SLP155 T01720150,M\n",
            "NUI,2022-05-03 07:53,-76.4285,38.1460,62.10,59.00,89.57,60.00,4.00,0.00,30.00,1015.70,4.00,M,CLR,M,M,M,M,M,M,M,BR,M,M,M,M,M,M,62.10,KNUI 030753Z AUTO 06004KT 4SM BR CLR 17/15 A3000 RMK AO2 SLP157 T01670150,M\n",
            "NUI,2022-05-03 08:19,-76.4285,38.1460,63.00,60.10,90.25,50.00,6.00,0.00,30.01,M,4.00,M,SCT,M,M,M,400.00,M,M,M,BR,M,M,M,M,M,M,63.00,KNUI 030819Z AUTO 05006KT 4SM BR SCT004 17/16 A3001 RMK AO2 T01720156,M\n",
            "NUI,2022-05-03 08:28,-76.4285,38.1460,63.00,60.10,90.25,60.00,6.00,0.00,30.01,M,4.00,M,BKN,M,M,M,400.00,M,M,M,BR,M,M,M,M,M,M,63.00,KNUI 030828Z AUTO 06006KT 4SM BR BKN004 17/16 A3001 RMK AO2 T01720156,M\n",
            "NUI,2022-05-03 08:53,-76.4285,38.1460,63.00,60.10,90.25,50.00,8.00,0.00,30.02,1016.50,5.00,M,OVC,M,M,M,400.00,M,M,M,BR,M,M,M,M,M,M,63.00,KNUI 030853Z AUTO 05008KT 5SM BR OVC004 17/16 A3002 RMK AO2 SLP165 T01720156 53003,M\n",
            "NUI,2022-05-03 09:53,-76.4285,38.1460,62.10,57.90,86.11,70.00,9.00,0.00,30.04,1017.20,4.00,M,OVC,M,M,M,400.00,M,M,M,BR,M,M,M,M,M,M,62.10,KNUI 030953Z AUTO 07009KT 4SM BR OVC004 17/14 A3004 RMK AO2 SLP172 T01670144,M\n",
            "NUI,2022-05-03 10:01,-76.4285,38.1460,62.10,57.90,86.11,80.00,8.00,0.00,30.04,M,4.00,M,OVC,M,M,M,500.00,M,M,M,BR,M,M,M,M,M,M,62.10,KNUI 031001Z AUTO 08008KT 4SM BR OVC005 17/14 A3004 RMK AO2 T01670144,M\n",
            "NUI,2022-05-03 10:37,-76.4285,38.1460,61.00,57.90,89.52,60.00,9.00,0.00,30.05,M,2.50,M,OVC,M,M,M,300.00,M,M,M,BR,M,M,M,M,M,M,61.00,KNUI 031037Z AUTO 06009KT 2 1/2SM BR OVC003 16/14 A3005 RMK AO2 CIG 003V006 T01610144,M\n",
            "NUI,2022-05-03 10:53,-76.4285,38.1460,59.00,55.90,89.44,70.00,11.00,0.00,30.06,1018.00,2.50,15.00,OVC,M,M,M,400.00,M,M,M,BR,M,M,M,M,M,M,59.00,KNUI 031053Z AUTO 07011G15KT 2 1/2SM BR OVC004 15/13 A3006 RMK AO2 SLP180 T01500133,M\n",
            "NUI,2022-05-03 11:01,-76.4285,38.1460,59.00,55.90,89.44,80.00,10.00,0.00,30.07,M,3.00,M,OVC,M,M,M,400.00,M,M,M,BR,M,M,M,M,M,M,59.00,KNUI 031101Z AUTO 08010KT 3SM BR OVC004 15/13 A3007 RMK AO2 T01500133,M\n",
            "NUI,2022-05-03 11:53,-76.4285,38.1460,59.00,55.90,89.44,70.00,7.00,0.00,30.08,1018.70,3.00,M,OVC,M,M,M,400.00,M,M,M,BR,M,M,M,M,M,M,59.00,KNUI 031153Z AUTO 07007KT 3SM BR OVC004 15/13 A3008 RMK AO2 SLP187 T01500133 10178 20150 52022,M\n",
            "NUI,2022-05-03 12:10,-76.4285,38.1460,59.00,55.90,89.44,60.00,9.00,0.00,30.09,M,3.00,M,OVC,M,M,M,500.00,M,M,M,BR,M,M,M,M,M,M,59.00,KNUI 031210Z AUTO 06009KT 3SM BR OVC005 15/13 A3009 RMK AO2 T01500133,M\n",
            "NUI,2022-05-03 12:53,-76.4285,38.1460,60.10,55.00,83.23,70.00,10.00,0.00,30.11,1019.60,4.00,M,OVC,M,M,M,600.00,M,M,M,HZ,M,M,M,M,M,M,60.10,KNUI 031253Z AUTO 07010KT 4SM HZ OVC006 16/13 A3011 RMK AO2 SLP196 T01560128,M\n",
            "NUI,2022-05-03 13:13,-76.4285,38.1460,61.00,55.00,80.61,70.00,8.00,0.00,30.11,M,5.00,M,BKN,OVC,M,M,1000.00,1400.00,M,M,HZ,M,M,M,M,M,M,61.00,KNUI 031313Z AUTO 07008KT 5SM HZ BKN010 OVC014 16/13 A3011 RMK AO2 CIG 007V012 T01610128,M\n",
            "NUI,2022-05-03 13:53,-76.4285,38.1460,62.10,53.10,72.33,80.00,12.00,0.00,30.11,1019.50,9.00,M,OVC,M,M,M,1600.00,M,M,M,M,M,M,M,M,M,M,62.10,KNUI 031353Z AUTO 08012KT 9SM OVC016 17/12 A3011 RMK AO2 SLP195 T01670117,M\n",
            "NUI,2022-05-03 14:53,-76.4285,38.1460,63.00,54.00,72.42,90.00,7.00,0.00,30.12,1019.90,9.00,M,OVC,M,M,M,1700.00,M,M,M,M,M,M,M,M,M,M,63.00,KNUI 031453Z AUTO 09007KT 9SM OVC017 17/12 A3012 RMK AO2 SLP199 T01720122 53003,M\n",
            "NUI,2022-05-03 15:53,-76.4285,38.1460,66.00,55.00,67.64,M,4.00,0.00,30.11,1019.60,10.00,M,OVC,M,M,M,2000.00,M,M,M,M,M,M,M,M,M,M,66.00,KNUI 031553Z AUTO VRB04KT 10SM OVC020 19/13 A3011 RMK AO2 SLP196 T01890128,M\n",
            "NUI,2022-05-03 16:53,-76.4285,38.1460,66.90,55.00,65.56,110.00,5.00,0.00,30.10,1019.30,10.00,M,OVC,M,M,M,2100.00,M,M,M,M,M,M,M,M,M,M,66.90,KNUI 031653Z AUTO 11005KT 10SM OVC021 19/13 A3010 RMK AO2 SLP193 T01940128,M\n",
            "NUI,2022-05-03 17:53,-76.4285,38.1460,69.10,55.00,60.78,M,5.00,0.00,30.09,1018.80,10.00,M,OVC,M,M,M,2300.00,M,M,M,M,M,M,M,M,M,M,69.10,KNUI 031753Z AUTO VRB05KT 10SM OVC023 21/13 A3009 RMK AO2 SLP188 T02060128 10206 20150 58010,M\n",
            "NUI,2022-05-03 18:53,-76.4285,38.1460,69.10,57.00,65.35,160.00,6.00,0.00,30.09,1018.70,10.00,M,OVC,M,M,M,2300.00,M,M,M,M,M,M,M,M,M,M,69.10,KNUI 031853Z AUTO 16006KT 10SM OVC023 21/14 A3009 RMK AO2 SLP187 T02060139,M\n",
            "NUI,2022-05-03 19:46,-76.4285,38.1460,66.90,57.90,72.81,180.00,9.00,0.00,30.07,M,10.00,M,SCT,M,M,M,2100.00,M,M,M,M,M,M,M,M,M,M,66.90,KNUI 031946Z AUTO 18009KT 10SM SCT021 19/14 A3007 RMK AO2 T01940144,M\n",
            "NUI,2022-05-03 19:53,-76.4285,38.1460,69.10,57.90,67.50,160.00,10.00,0.00,30.06,1017.90,10.00,M,FEW,M,M,M,1900.00,M,M,M,M,M,M,M,M,M,M,69.10,KNUI 031953Z AUTO 16010KT 10SM FEW019 21/14 A3006 RMK AO2 SLP179 T02060144,M\n",
            "NUI,2022-05-03 20:27,-76.4285,38.1460,66.00,57.00,72.72,170.00,8.00,0.00,30.05,M,10.00,M,BKN,M,M,M,2000.00,M,M,M,M,M,M,M,M,M,M,66.00,KNUI 032027Z AUTO 17008KT 10SM BKN020 19/14 A3005 RMK AO2 T01890139,M\n",
            "NUI,2022-05-03 20:53,-76.4285,38.1460,66.00,57.00,72.72,180.00,6.00,0.00,30.05,1017.40,10.00,M,OVC,M,M,M,2000.00,M,M,M,M,M,M,M,M,M,M,66.00,KNUI 032053Z AUTO 18006KT 10SM OVC020 19/14 A3005 RMK AO2 SLP174 T01890139 58015,M\n",
            "NUI,2022-05-03 21:30,-76.4285,38.1460,66.00,57.00,72.72,140.00,7.00,0.00,30.04,M,10.00,M,FEW,M,M,M,2000.00,M,M,M,M,M,M,M,M,M,M,66.00,KNUI 032130Z AUTO 14007KT 10SM FEW020 19/14 A3004 RMK AO2 T01890139,M\n",
            "NUI,2022-05-03 21:53,-76.4285,38.1460,64.00,57.00,77.97,140.00,9.00,0.00,30.04,1017.10,10.00,M,BKN,M,M,M,1100.00,M,M,M,M,M,M,M,M,M,M,64.00,KNUI 032153Z AUTO 14009KT 10SM BKN011 18/14 A3004 RMK AO2 SLP171 T01780139,M\n",
            "NUI,2022-05-03 22:53,-76.4285,38.1460,63.00,55.90,77.61,M,6.00,0.00,30.02,1016.60,10.00,M,OVC,M,M,M,1400.00,M,M,M,M,M,M,M,M,M,M,63.00,KNUI 032253Z AUTO VRB06KT 10SM OVC014 17/13 A3002 RMK AO2 SLP166 T01720133,M\n",
            "NUI,2022-05-03 23:53,-76.4285,38.1460,61.00,55.00,80.61,110.00,11.00,0.00,30.02,1016.50,9.00,18.00,OVC,M,M,M,1100.00,M,M,M,M,M,M,M,M,M,M,61.00,KNUI 032353Z AUTO 11011G18KT 9SM OVC011 16/13 A3002 RMK AO2 SLP165 T01610128 10211 20161 56008,M\n",
            "NUI,2022-05-04 00:25,-76.4285,38.1460,60.10,55.00,83.23,130.00,10.00,0.00,30.03,M,7.00,15.00,OVC,M,M,M,800.00,M,M,M,M,M,M,M,M,M,M,60.10,KNUI 040025Z AUTO 13010G15KT 7SM OVC008 16/13 A3003 RMK AO2 T01560128,M\n",
            "NUI,2022-05-04 00:53,-76.4285,38.1460,59.00,55.90,89.44,120.00,12.00,0.00,30.01,1016.30,2.50,17.00,OVC,M,M,M,600.00,M,M,M,BR,M,M,M,M,M,M,59.00,KNUI 040053Z AUTO 12012G17KT 2 1/2SM BR OVC006 15/13 A3001 RMK AO2 SLP163 T01500133,M\n",
            "NUI,2022-05-04 01:02,-76.4285,38.1460,59.00,55.00,86.56,120.00,9.00,0.00,30.02,M,5.00,M,OVC,M,M,M,500.00,M,M,M,BR,M,M,M,M,M,M,59.00,KNUI 040102Z AUTO 12009KT 5SM BR OVC005 15/13 A3002 RMK AO2 T01500128,M\n",
            "NUI,2022-05-04 01:15,-76.4285,38.1460,59.00,55.00,86.56,130.00,11.00,0.00,30.01,M,7.00,M,OVC,M,M,M,400.00,M,M,M,M,M,M,M,M,M,M,59.00,KNUI 040115Z AUTO 13011KT 7SM OVC004 15/13 A3001 RMK AO2 T01500128,M\n",
            "NUI,2022-05-04 01:53,-76.4285,38.1460,57.90,55.00,90.04,150.00,8.00,0.00,30.03,1016.80,3.00,18.00,OVC,M,M,M,400.00,M,M,M,BR,M,M,M,M,M,M,57.90,KNUI 040153Z AUTO 15008G18KT 3SM BR OVC004 14/13 A3003 RMK AO2 SLP168 T01440128,M\n",
            "NUI,2022-05-04 02:13,-76.4285,38.1460,57.00,55.00,93.01,130.00,9.00,0.00,30.03,M,2.50,15.00,OVC,M,M,M,400.00,M,M,M,BR,M,M,M,M,M,M,57.00,KNUI 040213Z AUTO 13009G15KT 2 1/2SM BR OVC004 14/13 A3003 RMK AO2 T01390128,M\n",
            "NUI,2022-05-04 02:30,-76.4285,38.1460,57.00,55.00,93.01,130.00,7.00,0.00,30.04,M,3.00,M,OVC,M,M,M,300.00,M,M,M,BR,M,M,M,M,M,M,57.00,KNUI 040230Z AUTO 13007KT 110V170 3SM BR OVC003 14/13 A3004 RMK AO2 T01390128,M\n",
            "NUI,2022-05-04 02:44,-76.4285,38.1460,57.90,55.00,90.04,120.00,6.00,0.00,30.03,M,2.50,M,OVC,M,M,M,300.00,M,M,M,BR,M,M,M,M,M,M,57.90,KNUI 040244Z AUTO 12006KT 2 1/2SM BR OVC003 14/13 A3003 RMK AO2 T01440128,M\n",
            "NUI,2022-05-04 02:53,-76.4285,38.1460,57.90,55.00,90.04,110.00,6.00,0.00,30.03,1016.70,2.00,M,OVC,M,M,M,300.00,M,M,M,BR,M,M,M,M,M,M,57.90,KNUI 040253Z AUTO 11006KT 2SM BR OVC003 14/13 A3003 RMK AO2 SLP167 T01440128 53002,M\n",
            "NUI,2022-05-04 03:53,-76.4285,38.1460,57.90,55.90,93.04,120.00,7.00,0.00,30.00,1015.80,1.75,M,OVC,M,M,M,200.00,M,M,M,BR,M,M,M,M,M,M,57.90,KNUI 040353Z AUTO 12007KT 1 3/4SM BR OVC002 14/13 A3000 RMK AO2 SLP158 T01440133,M\n",
            "NUI,2022-05-04 04:17,-76.4285,38.1460,57.90,55.90,93.04,130.00,11.00,0.00,30.00,M,1.50,M,OVC,M,M,M,200.00,M,M,M,BR,M,M,M,M,M,M,57.90,KNUI 040417Z AUTO 13011KT 1 1/2SM BR OVC002 14/13 A3000 RMK AO2 T01440133,M\n",
            "NUI,2022-05-04 04:53,-76.4285,38.1460,57.90,55.90,93.04,100.00,7.00,0.00,29.98,1015.30,1.00,M,OVC,M,M,M,200.00,M,M,M,BR,M,M,M,M,M,M,57.90,KNUI 040453Z AUTO 10007KT 1SM BR OVC002 14/13 A2998 RMK AO2 SLP153 T01440133 402110139,M\n",
            "NUI,2022-05-04 05:40,-76.4285,38.1460,59.00,57.00,93.07,80.00,4.00,0.00,30.00,M,0.75,M,OVC,M,M,M,200.00,M,M,M,BR,M,M,M,M,M,M,59.00,KNUI 040540Z AUTO 08004KT 3/4SM BR OVC002 15/14 A3000 RMK AO2 T01500139,M\n",
            "NUI,2022-05-04 05:53,-76.4285,38.1460,59.00,57.00,93.07,M,5.00,0.00,30.03,1016.80,1.00,M,OVC,M,M,M,200.00,M,M,M,BR,M,M,M,M,M,M,59.00,KNUI 040553Z AUTO VRB05KT 1SM BR OVC002 15/14 A3003 RMK AO2 PRESRR SLP168 T01500139 10161 20139 53000,M\n",
            "NUI,2022-05-04 06:27,-76.4285,38.1460,57.90,55.90,93.04,70.00,6.00,0.00,30.01,M,2.50,M,BKN,OVC,M,M,200.00,1000.00,M,M,BR,M,M,M,M,M,M,57.90,KNUI 040627Z AUTO 07006KT 2 1/2SM BR BKN002 OVC010 14/13 A3001 RMK AO2 CIG 002V006 T01440133,M\n",
            "NUI,2022-05-04 06:38,-76.4285,38.1460,57.90,55.00,90.04,50.00,9.00,0.00,30.00,M,4.00,M,OVC,M,M,M,400.00,M,M,M,BR,M,M,M,M,M,M,57.90,KNUI 040638Z AUTO 05009KT 4SM BR OVC004 14/13 A3000 RMK AO2 CIG 002V009 T01440128,M\n",
            "NUI,2022-05-04 06:50,-76.4285,38.1460,57.20,55.40,93.69,50.00,6.00,0.00,30.00,M,5.00,M,OVC,M,M,M,500.00,M,M,M,BR,M,M,M,M,M,M,57.20,KNUI 040650Z AUTO 05006KT 5SM BR OVC005 14/13 A3000 RMK AO2 CIG 003V009,M\n",
            "NUI,2022-05-04 06:53,-76.4285,38.1460,57.00,55.00,93.01,50.00,5.00,0.00,29.99,1015.60,5.00,M,OVC,M,M,M,500.00,M,M,M,BR,M,M,M,M,M,M,57.00,KNUI 040653Z AUTO 05005KT 5SM BR OVC005 14/13 A2999 RMK AO2 CIG 003V009 SLP156 T01390128,M\n",
            "NUI,2022-05-04 07:05,-76.4285,38.1460,57.00,55.00,93.01,40.00,5.00,0.00,30.00,M,6.00,M,OVC,M,M,M,400.00,M,M,M,BR,M,M,M,M,M,M,57.00,KNUI 040705Z AUTO 04005KT 6SM BR OVC004 14/13 A3000 RMK AO2 T01390128,M\n",
            "NUI,2022-05-04 07:28,-76.4285,38.1460,57.00,55.00,93.01,20.00,5.00,0.00,30.01,M,10.00,M,OVC,M,M,M,500.00,M,M,M,M,M,M,M,M,M,M,57.00,KNUI 040728Z AUTO 02005KT 10SM OVC005 14/13 A3001 RMK AO2 CIG 004V009 T01390128,M\n",
            "NUI,2022-05-04 07:53,-76.4285,38.1460,57.00,54.00,89.68,40.00,7.00,0.00,30.00,1015.90,10.00,M,BKN,OVC,M,M,700.00,1300.00,M,M,M,M,M,M,M,M,M,57.00,KNUI 040753Z AUTO 04007KT 10SM BKN007 OVC013 14/12 A3000 RMK AO2 CIG 005V012 SLP159 T01390122,M\n",
            "NUI,2022-05-04 08:05,-76.4285,38.1460,55.90,53.10,90.29,60.00,6.00,0.00,30.00,M,10.00,M,SCT,OVC,M,M,900.00,1500.00,M,M,M,M,M,M,M,M,M,55.90,KNUI 040805Z AUTO 06006KT 10SM SCT009 OVC015 13/12 A3000 RMK AO2 T01330117,M\n",
            "NUI,2022-05-04 08:22,-76.4285,38.1460,57.00,54.00,89.68,100.00,6.00,0.00,29.99,M,10.00,M,SCT,BKN,OVC,M,1600.00,3000.00,3900.00,M,M,M,M,M,M,M,M,57.00,KNUI 040822Z AUTO 10006KT 10SM SCT016 BKN030 OVC039 14/12 A2999 RMK AO2 T01390122,M\n",
            "NUI,2022-05-04 08:53,-76.4285,38.1460,55.90,54.00,93.32,90.00,5.00,0.00,29.98,1015.20,10.00,M,FEW,SCT,M,M,3500.00,4900.00,M,M,M,M,M,M,M,M,M,55.90,KNUI 040853Z AUTO 09005KT 10SM FEW035 SCT049 13/12 A2998 RMK AO2 SLP152 T01330122 58005,M\n",
            "NUI,2022-05-04 09:53,-76.4285,38.1460,57.00,54.00,89.68,130.00,5.00,0.00,29.96,1014.30,10.00,M,CLR,M,M,M,M,M,M,M,M,M,M,M,M,M,M,57.00,KNUI 040953Z AUTO 13005KT 10SM CLR 14/12 A2996 RMK AO2 SLP143 T01390122,M\n",
            "NUI,2022-05-04 10:48,-76.4285,38.1460,57.20,55.40,93.69,150.00,3.00,0.00,29.96,M,10.00,M,SCT,BKN,BKN,M,400.00,6000.00,9500.00,M,M,M,M,M,M,M,M,57.20,KNUI 041048Z AUTO 15003KT 10SM SCT004 BKN060 BKN095 14/13 A2996 RMK AO2,M\n",
            "NUI,2022-05-04 10:53,-76.4285,38.1460,57.90,55.00,90.04,160.00,4.00,0.00,29.96,1014.40,10.00,M,BKN,BKN,M,M,400.00,9500.00,M,M,M,M,M,M,M,M,M,57.90,KNUI 041053Z AUTO 16004KT 10SM BKN004 BKN095 14/13 A2996 RMK AO2 SLP144 T01440128,M\n",
            "NUI,2022-05-04 11:53,-76.4285,38.1460,59.00,55.90,89.44,180.00,7.00,0.00,29.96,1014.60,10.00,M,OVC,M,M,M,400.00,M,M,M,M,M,M,M,M,M,M,59.00,KNUI 041153Z AUTO 18007KT 10SM OVC004 15/13 A2996 RMK AO2 SLP146 T01500133 10150 20133 53002,M\n",
            "NUI,2022-05-04 12:53,-76.4285,38.1460,60.10,57.00,89.48,190.00,3.00,0.00,29.97,1014.70,5.00,M,OVC,M,M,M,300.00,M,M,M,BR,M,M,M,M,M,M,60.10,KNUI 041253Z AUTO 19003KT 5SM BR OVC003 16/14 A2997 RMK AO2 SLP147 T01560139,M\n",
            "NUI,2022-05-04 13:53,-76.4285,38.1460,62.10,59.00,89.57,0.00,0.00,0.00,29.97,1014.70,7.00,M,OVC,M,M,M,400.00,M,M,M,M,M,M,M,M,M,M,62.10,KNUI 041353Z AUTO 00000KT 7SM OVC004 17/15 A2997 RMK AO2 SLP147 T01670150,M\n",
            "NUI,2022-05-04 14:07,-76.4285,38.1460,63.00,59.00,86.77,M,4.00,0.00,29.97,M,8.00,M,OVC,M,M,M,500.00,M,M,M,M,M,M,M,M,M,M,63.00,KNUI 041407Z AUTO VRB04KT 8SM OVC005 17/15 A2997 RMK AO2 T01720150,M\n",
            "NUI,2022-05-04 14:53,-76.4285,38.1460,64.00,60.10,87.14,180.00,3.00,0.00,29.96,1014.30,8.00,M,M,M,M,M,M,M,M,M,M,M,M,M,M,M,M,64.00,KNUI 041453Z AUTO 18003KT 8SM 18/16 A2996 RMK AO2 SLP143 T01780156 $,M\n",
            "NUI,2022-05-04 15:19,-76.4285,38.1460,66.90,60.10,78.77,280.00,5.00,0.00,29.96,M,8.00,M,OVC,M,M,M,900.00,M,M,M,M,M,M,M,M,M,M,66.90,KNUI 041519Z AUTO 28005KT 8SM OVC009 19/16 A2996 RMK AO2 T01940156 $,M\n",
            "NUI,2022-05-04 15:33,-76.4285,38.1460,70.00,61.00,73.11,260.00,3.00,0.00,29.96,M,9.00,M,OVC,M,M,M,1100.00,M,M,M,M,M,M,M,M,M,M,70.00,KNUI 041533Z AUTO 26003KT 9SM OVC011 21/16 A2996 RMK AO2 T02110161,M\n",
            "NUI,2022-05-04 15:53,-76.4285,38.1460,70.00,61.00,73.11,M,4.00,0.00,29.95,1014.30,9.00,M,OVC,M,M,M,1200.00,M,M,M,M,M,M,M,M,M,M,70.00,KNUI 041553Z AUTO VRB04KT 9SM OVC012 21/16 A2995 RMK AO2 SLP143 T02110161,M\n",
            "NUI,2022-05-04 16:11,-76.4285,38.1460,72.00,62.10,71.02,M,4.00,0.00,29.95,M,9.00,M,SCT,SCT,M,M,1300.00,9500.00,M,M,M,M,M,M,M,M,M,72.00,KNUI 041611Z AUTO VRB04KT 9SM SCT013 SCT095 22/17 A2995 RMK AO2 T02220167,M\n",
            "NUI,2022-05-04 16:53,-76.4285,38.1460,72.00,62.10,71.02,0.00,0.00,0.00,29.93,1013.30,10.00,M,FEW,M,M,M,10000.00,M,M,M,M,M,M,M,M,M,M,72.00,KNUI 041653Z AUTO 00000KT 10SM FEW100 22/17 A2993 RMK AO2 SLP133 T02220167,M\n",
            "NUI,2022-05-04 17:53,-76.4285,38.1460,75.90,64.00,66.60,0.00,0.00,0.00,29.92,1013.20,10.00,M,FEW,M,M,M,9000.00,M,M,M,M,M,M,M,M,M,M,75.90,KNUI 041753Z AUTO 00000KT 10SM FEW090 24/18 A2992 RMK AO2 SLP132 T02440178 10244 20150 58012,M\n",
            "NUI,2022-05-04 18:53,-76.4285,38.1460,78.10,64.00,61.92,M,3.00,0.00,29.91,1012.90,10.00,M,SCT,M,M,M,9000.00,M,M,M,M,M,M,M,M,M,M,78.10,KNUI 041853Z AUTO VRB03KT 10SM SCT090 26/18 A2991 RMK AO2 SLP129 T02560178,M\n",
            "NUI,2022-05-04 19:53,-76.4285,38.1460,75.90,63.00,64.31,50.00,6.00,0.00,29.91,1012.70,10.00,M,CLR,M,M,M,M,M,M,M,M,M,M,M,M,M,M,75.90,KNUI 041953Z AUTO 05006KT 10SM CLR 24/17 A2991 RMK AO2 SLP127 T02440172,M\n",
            "NUI,2022-05-04 20:53,-76.4285,38.1460,75.00,63.00,66.27,80.00,7.00,0.00,29.90,1012.40,10.00,M,CLR,M,M,M,M,M,M,M,M,M,M,M,M,M,M,75.00,KNUI 042053Z AUTO 08007KT 10SM CLR 24/17 A2990 RMK AO2 SLP124 T02390172 57007,M\n",
            "NUI,2022-05-04 21:53,-76.4285,38.1460,73.00,63.00,70.87,50.00,5.00,0.00,29.91,1012.70,10.00,M,CLR,M,M,M,M,M,M,M,M,M,M,M,M,M,M,73.00,KNUI 042153Z AUTO 05005KT 10SM CLR 23/17 A2991 RMK AO2 SLP127 T02280172,M\n",
            "NUI,2022-05-04 22:53,-76.4285,38.1460,71.10,63.00,75.58,50.00,5.00,0.00,29.91,1012.70,9.00,M,BKN,OVC,M,M,9000.00,11000.00,M,M,M,M,M,M,M,M,M,71.10,KNUI 042253Z AUTO 05005KT 9SM BKN090 OVC110 22/17 A2991 RMK AO2 SLP127 T02170172,M\n",
            "NUI,2022-05-04 23:53,-76.4285,38.1460,71.10,63.00,75.58,M,3.00,0.00,29.93,1013.40,6.00,M,SCT,BKN,M,M,8500.00,10000.00,M,M,HZ,M,M,M,M,M,M,71.10,KNUI 042353Z AUTO VRB03KT 6SM HZ SCT085 BKN100 22/17 A2993 RMK AO2 SLP134 T02170172 10256 20217 53009,M\n",
            "NUI,2022-05-05 00:53,-76.4285,38.1460,69.10,62.10,78.39,50.00,5.00,0.00,29.94,1013.90,8.00,M,BKN,M,M,M,7000.00,M,M,M,M,M,M,M,M,M,M,69.10,KNUI 050053Z AUTO 05005KT 8SM BKN070 21/17 A2994 RMK AO2 SLP139 T02060167,M\n",
            "NUI,2022-05-05 01:53,-76.4285,38.1460,66.90,62.10,84.56,0.00,0.00,0.00,29.99,1015.40,8.00,M,SCT,M,M,M,7500.00,M,M,M,M,M,M,M,M,M,M,66.90,KNUI 050153Z AUTO 00000KT 8SM SCT075 19/17 A2999 RMK AO2 PRESRR SLP154 T01940167,M\n",
            "NUI,2022-05-05 02:53,-76.4285,38.1460,68.00,62.10,81.41,0.00,0.00,0.00,30.00,1015.70,8.00,M,OVC,M,M,M,8000.00,M,M,M,M,M,M,M,M,M,M,68.00,KNUI 050253Z AUTO 00000KT 8SM OVC080 20/17 A3000 RMK AO2 SLP157 T02000167 51023,M\n",
            "NUI,2022-05-05 03:53,-76.4285,38.1460,68.00,62.10,81.41,320.00,4.00,0.00,30.01,1016.30,8.00,M,BKN,OVC,M,M,4900.00,8000.00,M,M,M,M,M,M,M,M,M,68.00,KNUI 050353Z AUTO 32004KT 8SM BKN049 OVC080 20/17 A3001 RMK AO2 SLP163 T02000167,M\n",
            "NUI,2022-05-05 04:53,-76.4285,38.1460,66.90,61.00,81.33,0.00,0.00,0.00,30.01,1016.10,8.00,M,CLR,M,M,M,M,M,M,M,M,M,M,M,M,M,M,66.90,KNUI 050453Z AUTO 00000KT 8SM CLR 19/16 A3001 RMK AO2 SLP161 T01940161 402560133,M\n",
            "NUI,2022-05-05 05:53,-76.4285,38.1460,66.90,59.00,75.74,0.00,0.00,0.00,30.00,1015.90,10.00,M,SCT,M,M,M,6500.00,M,M,M,M,M,M,M,M,M,M,66.90,KNUI 050553Z AUTO 00000KT 10SM SCT065 19/15 A3000 RMK AO2 SLP159 T01940150 10211 20183 50001,M\n",
            "NUI,2022-05-05 06:53,-76.4285,38.1460,66.00,57.00,72.72,M,3.00,0.00,30.01,1016.10,10.00,M,CLR,M,M,M,M,M,M,M,M,M,M,M,M,M,M,66.00,KNUI 050653Z AUTO VRB03KT 10SM CLR 19/14 A3001 RMK AO2 SLP161 T01890139,M\n",
            "NUI,2022-05-05 07:53,-76.4285,38.1460,64.00,55.00,72.52,M,5.00,0.00,30.02,1016.40,10.00,M,CLR,M,M,M,M,M,M,M,M,M,M,M,M,M,M,64.00,KNUI 050753Z AUTO VRB05KT 10SM CLR 18/13 A3002 RMK AO2 SLP164 T01780128,M\n",
            "NUI,2022-05-05 08:53,-76.4285,38.1460,62.10,54.00,74.75,M,4.00,0.00,30.03,1016.80,10.00,M,CLR,M,M,M,M,M,M,M,M,M,M,M,M,M,M,62.10,KNUI 050853Z AUTO VRB04KT 10SM CLR 17/12 A3003 RMK AO2 SLP168 T01670122 53009,M\n",
            "NUI,2022-05-05 09:53,-76.4285,38.1460,62.10,53.10,72.33,M,6.00,0.00,30.02,1016.40,10.00,M,FEW,M,M,M,6000.00,M,M,M,M,M,M,M,M,M,M,62.10,KNUI 050953Z AUTO VRB06KT 10SM FEW060 17/12 A3002 RMK AO2 SLP164 T01670117,M\n",
            "NUI,2022-05-05 10:53,-76.4285,38.1460,62.10,53.10,72.33,M,3.00,0.00,30.04,1017.00,10.00,M,CLR,M,M,M,M,M,M,M,M,M,M,M,M,M,M,62.10,KNUI 051053Z AUTO VRB03KT 10SM CLR 17/12 A3004 RMK AO2 SLP170 T01670117,M\n",
            "NUI,2022-05-05 11:53,-76.4285,38.1460,64.00,53.10,67.66,M,6.00,0.00,30.06,1017.70,10.00,15.00,CLR,M,M,M,M,M,M,M,M,M,M,M,M,M,M,64.00,KNUI 051153Z AUTO VRB06G15KT 10SM CLR 18/12 A3006 RMK AO2 SLP177 T01780117 10194 20161 53009,M\n",
            "NUI,2022-05-05 12:53,-76.4285,38.1460,66.00,54.00,65.21,10.00,7.00,0.00,30.10,1019.20,10.00,M,CLR,M,M,M,M,M,M,M,M,M,M,M,M,M,M,66.00,KNUI 051253Z AUTO 01007KT 10SM CLR 19/12 A3010 RMK AO2 SLP192 T01890122,M\n",
            "NUI,2022-05-05 13:27,-76.4285,38.1460,64.90,53.10,65.56,30.00,9.00,0.00,30.11,M,10.00,M,BKN,M,M,M,2100.00,M,M,M,M,M,M,M,M,M,M,64.90,KNUI 051327Z AUTO 03009KT 360V060 10SM BKN021 18/12 A3011 RMK AO2 T01830117,M\n",
            "NUI,2022-05-05 13:53,-76.4285,38.1460,64.90,53.10,65.56,M,6.00,0.00,30.11,1019.50,10.00,M,OVC,M,M,M,2100.00,M,M,M,M,M,M,M,M,M,M,64.90,KNUI 051353Z AUTO VRB06KT 10SM OVC021 18/12 A3011 RMK AO2 SLP195 T01830117,M\n",
            "NUI,2022-05-05 14:53,-76.4285,38.1460,66.90,54.00,63.21,M,5.00,0.00,30.10,1019.30,10.00,M,BKN,BKN,OVC,M,2100.00,3100.00,6000.00,M,M,M,M,M,M,M,M,66.90,KNUI 051453Z AUTO VRB05KT 10SM BKN021 BKN031 OVC060 19/12 A3010 RMK AO2 SLP193 T01940122 50015,M\n",
            "NUI,2022-05-05 15:53,-76.4285,38.1460,66.90,54.00,63.21,320.00,5.00,0.00,30.11,1019.50,10.00,M,OVC,M,M,M,2200.00,M,M,M,M,M,M,M,M,M,M,66.90,KNUI 051553Z AUTO 32005KT 10SM OVC022 19/12 A3011 RMK AO2 SLP195 T01940122,M\n",
            "NUI,2022-05-05 16:53,-76.4285,38.1460,66.90,55.00,65.56,M,3.00,0.00,30.10,1019.30,10.00,M,BKN,OVC,M,M,2200.00,2700.00,M,M,M,M,M,M,M,M,M,66.90,KNUI 051653Z AUTO VRB03KT 10SM BKN022 OVC027 19/13 A3010 RMK AO2 SLP193 T01940128,M\n",
            "NUI,2022-05-05 17:20,-76.4285,38.1460,69.10,55.90,62.80,M,3.00,0.00,30.10,M,10.00,M,SCT,BKN,OVC,M,2300.00,3200.00,4300.00,M,M,M,M,M,M,M,M,69.10,KNUI 051720Z AUTO VRB03KT 10SM SCT023 BKN032 OVC043 21/13 A3010 RMK AO2 T02060133,M\n",
            "NUI,2022-05-05 17:43,-76.4285,38.1460,68.00,55.90,65.22,290.00,4.00,0.00,30.09,M,10.00,M,SCT,BKN,OVC,M,2300.00,2800.00,4300.00,M,M,M,M,M,M,M,M,68.00,KNUI 051743Z AUTO 29004KT 10SM SCT023 BKN028 OVC043 20/13 A3009 RMK AO2 T02000133,M\n",
            "NUI,2022-05-05 17:51,-76.4285,38.1460,69.80,57.20,64.26,M,3.00,0.00,30.09,M,10.00,M,SCT,BKN,OVC,M,2500.00,3300.00,4300.00,M,M,M,M,M,M,M,M,69.80,KNUI 051751Z AUTO VRB03KT 10SM SCT025 BKN033 OVC043 21/14 A3009 RMK AO2,M\n",
            "NUI,2022-05-05 17:53,-76.4285,38.1460,69.10,55.90,62.80,240.00,3.00,0.00,30.09,1018.70,10.00,M,SCT,BKN,OVC,M,2500.00,3300.00,4300.00,M,M,M,M,M,M,M,M,69.10,KNUI 051753Z AUTO 24003KT 10SM SCT025 BKN033 OVC043 21/13 A3009 RMK AO2 SLP187 T02060133 10206 20178 56008,M\n",
            "NUI,2022-05-05 18:02,-76.4285,38.1460,70.00,55.90,60.89,M,3.00,0.00,30.08,M,10.00,M,BKN,BKN,OVC,M,2400.00,2900.00,4300.00,M,M,M,M,M,M,M,M,70.00,KNUI 051802Z AUTO VRB03KT 10SM BKN024 BKN029 OVC043 21/13 A3008 RMK AO2 T02110133,M\n",
            "NUI,2022-05-05 18:53,-76.4285,38.1460,66.00,55.00,67.64,50.00,4.00,0.00,30.07,1018.20,10.00,M,OVC,M,M,M,2300.00,M,M,M,M,M,M,M,M,M,M,66.00,KNUI 051853Z AUTO 05004KT 10SM OVC023 19/13 A3007 RMK AO2 SLP182 T01890128,M\n",
            "NUI,2022-05-05 19:53,-76.4285,38.1460,64.90,55.00,70.28,60.00,6.00,0.00,30.05,1017.50,10.00,M,OVC,M,M,M,2500.00,M,M,M,M,M,M,M,M,M,M,64.90,KNUI 051953Z AUTO 06006KT 10SM OVC025 18/13 A3005 RMK AO2 SLP175 T01830128,M\n",
            "NUI,2022-05-05 20:53,-76.4285,38.1460,66.90,55.00,65.56,30.00,3.00,0.00,30.05,1017.60,10.00,M,BKN,OVC,M,M,2700.00,3500.00,M,M,M,M,M,M,M,M,M,66.90,KNUI 052053Z AUTO 03003KT 10SM BKN027 OVC035 19/13 A3005 RMK AO2 SLP176 T01940128 55012,M\n",
            "NUI,2022-05-05 21:34,-76.4285,38.1460,66.90,55.90,67.74,30.00,3.00,0.00,30.06,M,10.00,M,SCT,OVC,M,M,2700.00,5000.00,M,M,M,M,M,M,M,M,M,66.90,KNUI 052134Z AUTO 03003KT 10SM SCT027 OVC050 19/13 A3006 RMK AO2 T01940133,M\n",
            "NUI,2022-05-05 21:53,-76.4285,38.1460,66.00,55.90,69.88,30.00,3.00,0.00,30.05,1017.60,10.00,M,OVC,M,M,M,5000.00,M,M,M,M,M,M,M,M,M,M,66.00,KNUI 052153Z AUTO 03003KT 10SM OVC050 19/13 A3005 RMK AO2 SLP176 T01890133,M\n",
            "NUI,2022-05-05 22:53,-76.4285,38.1460,66.00,55.00,67.64,80.00,4.00,0.00,30.05,1017.40,10.00,M,OVC,M,M,M,5500.00,M,M,M,M,M,M,M,M,M,M,66.00,KNUI 052253Z AUTO 08004KT 10SM OVC055 19/13 A3005 RMK AO2 SLP174 T01890128,M\n",
            "NUI,2022-05-05 23:53,-76.4285,38.1460,64.00,55.90,74.93,70.00,3.00,0.00,30.03,1016.80,10.00,M,OVC,M,M,M,5500.00,M,M,M,M,M,M,M,M,M,M,64.00,KNUI 052353Z AUTO 07003KT 10SM OVC055 18/13 A3003 RMK AO2 SLP168 T01780133 10211 20178 58007,M\n",
            "NUI,2022-05-06 00:53,-76.4285,38.1460,63.00,55.90,77.61,0.00,0.00,0.00,30.04,1017.20,10.00,M,OVC,M,M,M,5000.00,M,M,M,M,M,M,M,M,M,M,63.00,KNUI 060053Z AUTO 00000KT 10SM OVC050 17/13 A3004 RMK AO2 SLP172 T01720133,M\n",
            "NUI,2022-05-06 01:53,-76.4285,38.1460,63.00,55.00,75.11,0.00,0.00,0.00,30.05,1017.60,10.00,M,OVC,M,M,M,5500.00,M,M,M,M,M,M,M,M,M,M,63.00,KNUI 060153Z AUTO 00000KT 10SM OVC055 17/13 A3005 RMK AO2 SLP176 T01720128,M\n",
            "NUI,2022-05-06 02:53,-76.4285,38.1460,59.00,55.00,86.56,130.00,4.00,0.00,30.04,1017.20,10.00,M,CLR,M,M,M,M,M,M,M,M,M,M,M,M,M,M,59.00,KNUI 060253Z AUTO 13004KT 10SM CLR 15/13 A3004 RMK AO2 SLP172 T01500128 50003,M\n",
            "NUI,2022-05-06 03:53,-76.4285,38.1460,61.00,55.90,83.29,130.00,4.00,0.00,30.02,1016.60,10.00,M,CLR,M,M,M,M,M,M,M,M,M,M,M,M,M,M,61.00,KNUI 060353Z AUTO 13004KT 10SM CLR 16/13 A3002 RMK AO2 SLP166 T01610133,M\n",
            "NUI,2022-05-06 04:53,-76.4285,38.1460,60.10,55.00,83.23,160.00,3.00,0.00,30.01,1016.10,10.00,M,CLR,M,M,M,M,M,M,M,M,M,M,M,M,M,M,60.10,KNUI 060453Z AUTO 16003KT 10SM CLR 16/13 A3001 RMK AO2 SLP161 T01560128 402110150,M\n",
            "NUI,2022-05-06 05:53,-76.4285,38.1460,60.10,54.00,80.25,180.00,5.00,0.00,30.00,1015.80,10.00,M,CLR,M,M,M,M,M,M,M,M,M,M,M,M,M,M,60.10,KNUI 060553Z AUTO 18005KT 10SM CLR 16/12 A3000 RMK AO2 SLP158 T01560122 10178 20150 56014,M\n",
            "NUI,2022-05-06 06:53,-76.4285,38.1460,59.00,54.00,83.46,120.00,3.00,0.00,29.96,1014.60,10.00,M,SCT,M,M,M,5000.00,M,M,M,M,M,M,M,M,M,M,59.00,KNUI 060653Z AUTO 12003KT 10SM SCT050 15/12 A2996 RMK AO2 SLP146 T01500122,M\n",
            "NUI,2022-05-06 07:53,-76.4285,38.1460,57.00,53.10,86.77,120.00,3.00,0.00,29.94,1013.90,10.00,M,CLR,M,M,M,M,M,M,M,M,M,M,M,M,M,M,57.00,KNUI 060753Z AUTO 12003KT 10SM CLR 14/12 A2994 RMK AO2 SLP139 T01390117,M\n",
            "NUI,2022-05-06 08:53,-76.4285,38.1460,57.90,53.10,84.00,0.00,0.00,0.00,29.94,1013.60,10.00,M,CLR,M,M,M,M,M,M,M,M,M,M,M,M,M,M,57.90,KNUI 060853Z AUTO 00000KT 10SM CLR 14/12 A2994 RMK AO2 SLP136 T01440117 56022,M\n",
            "NUI,2022-05-06 09:53,-76.4285,38.1460,55.00,51.10,86.66,0.00,0.00,0.00,29.94,1013.90,10.00,M,CLR,M,M,M,M,M,M,M,M,M,M,M,M,M,M,55.00,KNUI 060953Z AUTO 00000KT 10SM CLR 13/11 A2994 RMK AO2 SLP139 T01280106,M\n",
            "NUI,2022-05-06 10:53,-76.4285,38.1460,57.00,53.10,86.77,0.00,0.00,0.00,29.95,1014.00,10.00,M,SCT,M,M,M,11000.00,M,M,M,M,M,M,M,M,M,M,57.00,KNUI 061053Z AUTO 00000KT 10SM SCT110 14/12 A2995 RMK AO2 SLP140 T01390117,M\n",
            "NUI,2022-05-06 11:53,-76.4285,38.1460,61.00,55.00,80.61,110.00,5.00,0.00,29.91,1012.80,10.00,M,BKN,M,M,M,4100.00,M,M,M,M,M,M,M,M,M,M,61.00,KNUI 061153Z AUTO 11005KT 10SM BKN041 16/13 A2991 RMK AO2 PRESFR SLP128 T01610128 10161 20128 58008 $,M\n",
            "NUI,2022-05-06 12:53,-76.4285,38.1460,63.00,55.00,75.11,160.00,4.00,0.00,29.91,1012.90,10.00,M,SCT,SCT,BKN,M,3100.00,4000.00,11000.00,M,M,M,M,M,M,M,M,63.00,KNUI 061253Z AUTO 16004KT 10SM SCT031 SCT040 BKN110 17/13 A2991 RMK AO2 SLP129 T01720128 $,M\n",
            "NUI,2022-05-06 13:53,-76.4285,38.1460,66.00,57.00,72.72,150.00,5.00,0.00,29.90,1012.40,10.00,M,BKN,BKN,M,M,3300.00,10000.00,M,M,M,M,M,M,M,M,M,66.00,KNUI 061353Z AUTO 15005KT 10SM BKN033 BKN100 19/14 A2990 RMK AO2 SLP124 T01890139 $,M\n",
            "NUI,2022-05-06 14:53,-76.4285,38.1460,66.00,57.90,75.12,120.00,4.00,0.0001,29.88,1011.70,10.00,M,OVC,M,M,M,3400.00,M,M,M,M,M,M,M,M,M,M,66.00,KNUI 061453Z AUTO 12004KT 10SM OVC034 19/14 A2988 RMK AO2 RAB30E46 SLP117 P0000 60000 T01890144 58012 $,M\n",
            "NUI,2022-05-06 15:53,-76.4285,38.1460,64.00,57.90,80.54,100.00,8.00,0.0001,29.83,1010.10,10.00,M,FEW,SCT,OVC,M,4200.00,7000.00,11000.00,M,-RA,M,M,M,M,M,M,64.00,KNUI 061553Z AUTO 10008KT 10SM -RA FEW042 SCT070 OVC110 18/14 A2983 RMK AO2 RAB17 SLP101 P0000 T01780144 $,M\n",
            "NUI,2022-05-06 16:53,-76.4285,38.1460,64.90,57.00,75.56,170.00,8.00,0.0001,29.84,1010.30,10.00,M,BKN,M,M,M,3500.00,M,M,M,M,M,M,M,M,M,M,64.90,KNUI 061653Z AUTO 17008KT 10SM BKN035 18/14 A2984 RMK AO2 RAE29 SLP103 P0000 T01830139 $,M\n",
            "NUI,2022-05-06 17:53,-76.4285,38.1460,69.10,57.90,67.50,140.00,8.00,0.00,29.78,1008.50,10.00,16.00,CLR,M,M,M,M,M,M,M,M,M,M,M,M,M,M,69.10,KNUI 061753Z AUTO 14008G16KT 10SM CLR 21/14 A2978 RMK AO2 SLP085 60000 T02060144 10206 20161 58032 $,M\n",
            "NUI,2022-05-06 18:53,-76.4285,38.1460,66.90,57.00,70.49,120.00,8.00,0.00,29.75,1007.20,10.00,M,BKN,M,M,M,9500.00,M,M,M,M,M,M,M,M,M,M,66.90,KNUI 061853Z AUTO 12008KT 10SM BKN095 19/14 A2975 RMK AO2 SLP072 T01940139 $,M\n",
            "NUI,2022-05-06 19:53,-76.4285,38.1460,66.90,55.90,67.74,120.00,11.00,0.00,29.70,1005.50,10.00,19.00,BKN,BKN,M,M,6500.00,8000.00,M,M,M,M,M,M,M,M,M,66.90,KNUI 061953Z AUTO 12011G19KT 10SM BKN065 BKN080 19/13 A2970 RMK AO2 SLP055 T01940133 $,M\n",
            "NUI,2022-05-06 20:35,-76.4285,38.1460,66.00,57.00,72.72,120.00,10.00,0.0001,29.68,M,10.00,M,SCT,SCT,BKN,M,1500.00,2200.00,6500.00,M,TS,M,M,M,M,M,M,66.00,KNUI 062035Z AUTO 12010KT 10SM TS SCT015 SCT022 BKN065 19/14 A2968 RMK AO2 RAB06E20 TSB29 P0000 T01890139 $,M\n",
            "NUI,2022-05-06 20:53,-76.4285,38.1460,64.90,55.90,72.61,130.00,7.00,0.0001,29.68,1005.10,10.00,M,BKN,OVC,M,M,1600.00,6000.00,M,M,TS,M,M,M,M,M,M,64.90,KNUI 062053Z AUTO 13007KT 10SM TS BKN016 OVC060 18/13 A2968 RMK AO2 RAB06E20 TSB29 SLP051 P0000 60000 T01830133 55021 $,M\n",
            "NUI,2022-05-06 21:01,-76.4285,38.1460,64.90,55.90,72.61,110.00,6.00,0.00,29.68,M,10.00,M,BKN,OVC,M,M,1800.00,6000.00,M,M,M,M,M,M,M,M,M,64.90,KNUI 062101Z AUTO 11006KT 10SM BKN018 OVC060 18/13 A2968 RMK AO2 TSE2055 T01830133 $,M\n",
            "NUI,2022-05-06 21:53,-76.4285,38.1460,64.00,57.90,80.54,M,3.00,0.16,29.68,1005.00,1.25,M,OVC,M,M,M,1900.00,M,M,M,+TSRA,M,M,M,M,M,M,64.00,KNUI 062153Z AUTO VRB03KT 1 1/4SM +TSRA OVC019 18/14 A2968 RMK AO2 RAB47 TSE2055B41 SLP050 P0016 T01780144 $,M\n",
            "NUI,2022-05-06 21:58,-76.4285,38.1460,64.00,57.90,80.54,M,4.00,0.0001,29.68,M,2.00,M,OVC,M,M,M,1900.00,M,M,M,-RA,M,M,M,M,M,M,64.00,KNUI 062158Z AUTO VRB04KT 2SM -RA OVC019 18/14 A2968 RMK AO2 TSE56 P0000 T01780144 $,M\n",
            "NUI,2022-05-06 22:06,-76.4285,38.1460,64.00,57.90,80.54,0.00,0.00,0.0001,29.69,M,10.00,M,OVC,M,M,M,1900.00,M,M,M,M,M,M,M,M,M,M,64.00,KNUI 062206Z AUTO 00000KT 10SM OVC019 18/14 A2969 RMK AO2 RAE06 TSE2156 P0000 T01780144 $,M\n",
            "NUI,2022-05-06 22:53,-76.4285,38.1460,63.00,59.00,86.77,70.00,5.00,0.0001,29.67,1004.50,10.00,M,OVC,M,M,M,1700.00,M,M,M,M,M,M,M,M,M,M,63.00,KNUI 062253Z AUTO 07005KT 10SM OVC017 17/15 A2967 RMK AO2 RAE06B16E26 TSE2156 SLP045 P0000 T01720150 $,M\n",
            "NUI,2022-05-06 23:53,-76.4285,38.1460,63.00,57.90,83.42,60.00,8.00,0.0001,29.63,1003.30,10.00,M,OVC,M,M,M,1600.00,M,M,M,M,M,M,M,M,M,M,63.00,KNUI 062353Z AUTO 06008KT 10SM OVC016 17/14 A2963 RMK AO2 RAB24E48 SLP033 P0000 60016 T01720144 10200 20172 58017 $,M\n",
            "NUI,2022-05-07 00:19,-76.4285,38.1460,63.00,57.90,83.42,60.00,4.00,0.00,29.64,M,10.00,M,FEW,OVC,M,M,900.00,1700.00,M,M,VCTS,M,M,M,M,M,M,63.00,KNUI 070019Z AUTO 06004KT 10SM VCTS FEW009 OVC017 17/14 A2964 RMK AO2 TSE18 T01720144 $,M\n",
            "NUI,2022-05-07 00:29,-76.4285,38.1460,63.00,57.90,83.42,M,3.00,0.0001,29.64,M,10.00,M,SCT,OVC,M,M,900.00,1600.00,M,M,-TSRA,M,M,M,M,M,M,63.00,KNUI 070029Z AUTO VRB03KT 10SM -TSRA SCT009 OVC016 17/14 A2964 RMK AO2 RAB22 TSE18B23B24 P0000 T01720144 $,M\n",
            "NUI,2022-05-07 00:41,-76.4285,38.1460,63.00,59.00,86.77,70.00,9.00,0.06,29.64,M,2.50,M,SCT,BKN,OVC,M,900.00,1600.00,3400.00,M,+RA BR,M,M,M,M,M,M,63.00,KNUI 070041Z AUTO 07009KT 2 1/2SM +RA BR SCT009 BKN016 OVC034 17/15 A2964 RMK AO2 RAB22 TSE18B23B24E40 P0006 T01720150 $,M\n",
            "NUI,2022-05-07 00:48,-76.4285,38.1460,62.60,59.00,88.00,80.00,7.00,0.09,29.65,M,3.00,M,SCT,SCT,OVC,M,900.00,1900.00,4400.00,M,RA BR,M,M,M,M,M,M,62.60,KNUI 070048Z AUTO 08007KT 3SM RA BR SCT009 SCT019 OVC044 17/15 A2965 RMK AO2 RAB22 TSE18B23B24E40 P0009 $,M\n",
            "NUI,2022-05-07 00:53,-76.4285,38.1460,63.00,59.00,86.77,100.00,5.00,0.11,29.65,1004.00,4.00,M,FEW,BKN,OVC,M,900.00,4600.00,5000.00,M,+RA BR,M,M,M,M,M,M,63.00,KNUI 070053Z AUTO 10005KT 4SM +RA BR FEW009 BKN046 OVC050 17/15 A2965 RMK AO2 RAB22 TSE18B23B24E40 SLP040 P0011 T01720150 $,M\n",
            "NUI,2022-05-07 01:53,-76.4285,38.1460,63.00,60.10,90.25,70.00,12.00,0.20,29.61,1002.70,6.00,19.00,FEW,SCT,OVC,M,600.00,7000.00,9000.00,M,-RA BR,M,M,M,M,M,M,63.00,KNUI 070153Z AUTO 07012G19KT 6SM -RA BR FEW006 SCT070 OVC090 17/16 A2961 RMK AO2 PRESFR SLP027 P0020 T01720156 $,M\n",
            "NUI,2022-05-07 02:16,-76.4285,38.1460,63.00,59.00,86.77,60.00,12.00,0.01,29.58,M,10.00,M,BKN,OVC,M,M,500.00,9000.00,M,M,M,M,M,M,M,M,M,63.00,KNUI 070216Z AUTO 06012KT 10SM BKN005 OVC090 17/15 A2958 RMK AO2 RAE09 CIG 004V010 PRESFR P0001 T01720150 $,M\n",
            "NUI,2022-05-07 02:48,-76.4285,38.1460,62.60,59.00,88.00,70.00,12.00,0.01,29.55,M,10.00,M,OVC,M,M,M,400.00,M,M,M,M,M,M,M,M,M,M,62.60,KNUI 070248Z AUTO 07012KT 10SM OVC004 17/15 A2955 RMK AO2 RAE09 P0001 $,M\n",
            "NUI,2022-05-07 02:53,-76.4285,38.1460,62.10,59.00,89.57,60.00,14.00,0.01,29.55,1000.60,10.00,20.00,OVC,M,M,M,400.00,M,M,M,M,M,M,M,M,M,M,62.10,KNUI 070253Z AUTO 06014G20KT 10SM OVC004 17/15 A2955 RMK AO2 RAE09 SLP006 P0001 60032 T01670150 56035 $,M\n",
            "NUI,2022-05-07 03:10,-76.4285,38.1460,62.10,57.90,86.11,70.00,11.00,0.00,29.56,M,10.00,19.00,OVC,M,M,M,500.00,M,M,M,M,M,M,M,M,M,M,62.10,KNUI 070310Z AUTO 07011G19KT 10SM OVC005 17/14 A2956 RMK AO2 T01670144 $,M\n",
            "NUI,2022-05-07 03:53,-76.4285,38.1460,61.00,57.00,86.67,60.00,15.00,0.00,29.54,1000.30,10.00,20.00,OVC,M,M,M,500.00,M,M,M,M,M,M,M,M,M,M,61.00,KNUI 070353Z AUTO 06015G20KT 10SM OVC005 16/14 A2954 RMK AO2 SLP003 T01610139 $,M\n",
            "NUI,2022-05-07 04:12,-76.4285,38.1460,60.10,57.00,89.48,70.00,16.00,0.00,29.53,M,10.00,22.00,OVC,M,M,M,400.00,M,M,M,M,M,M,M,M,M,M,60.10,KNUI 070412Z AUTO 07016G22KT 10SM OVC004 16/14 A2953 RMK AO2 T01560139 $,M\n",
            "NUI,2022-05-07 04:22,-76.4285,38.1460,60.10,57.00,89.48,60.00,18.00,0.11,29.54,M,2.50,22.00,OVC,M,M,M,400.00,M,M,M,+TSRA BR,M,M,M,M,M,M,60.10,KNUI 070422Z AUTO 06018G22KT 2 1/2SM +TSRA BR OVC004 16/14 A2954 RMK AO2 RAB19 TSB20 P0011 T01560139 $,M\n",
            "NUI,2022-05-07 04:35,-76.4285,38.1460,60.10,59.00,96.15,70.00,12.00,0.12,29.55,M,9.00,19.00,BKN,OVC,M,M,400.00,1100.00,M,M,-RA,M,M,M,M,M,M,60.10,KNUI 070435Z AUTO 07012G19KT 9SM -RA BKN004 OVC011 16/15 A2955 RMK AO2 RAB19 TSB20E35 P0012 T01560150 $,M\n",
            "NUI,2022-05-07 04:53,-76.4285,38.1460,60.10,M,M,60.00,12.00,0.12,29.55,1000.50,8.00,19.00,OVC,M,M,M,400.00,M,M,M,M,M,M,M,M,M,M,M,KNUI 070453Z AUTO 06012G19KT 8SM OVC004 16/ A2955 RMK AO2 RAB19E39 TSB20E35 CIG 003V008 SLP005 P0012 T0156 402110128 $,M\n",
            "NUI,2022-05-07 05:53,-76.4285,38.1460,60.10,M,M,M,4.00,0.0001,29.51,999.20,10.00,M,OVC,M,M,M,500.00,M,M,M,M,M,M,M,M,M,M,M,KNUI 070553Z AUTO VRB04KT 10SM OVC005 16/ A2951 RMK AO2 RAB02E12 SLP992 P0000 60044 T0156 10172 20150 58014 $,M\n",
            "NUI,2022-05-07 06:53,-76.4285,38.1460,59.00,M,M,50.00,8.00,0.0001,29.48,998.10,10.00,M,OVC,M,M,M,500.00,M,M,M,M,M,M,M,M,M,M,M,KNUI 070653Z AUTO 05008KT 10SM OVC005 15/ A2948 RMK AO2 RAB04E17 SLP981 P0000 T0150 $,M\n",
            "NUI,2022-05-07 07:53,-76.4285,38.1460,57.90,57.90,100.00,60.00,9.00,0.00,29.48,998.20,10.00,15.00,OVC,M,M,M,500.00,M,M,M,M,M,M,M,M,M,M,57.90,KNUI 070753Z AUTO 06009G15KT 10SM OVC005 14/14 A2948 RMK AO2 SLP982 T01440144 $,M\n",
            "NUI,2022-05-07 08:53,-76.4285,38.1460,57.00,55.90,96.10,60.00,9.00,0.00,29.50,999.00,3.00,17.00,OVC,M,M,M,500.00,M,M,M,BR,M,M,M,M,M,M,57.00,KNUI 070853Z AUTO 06009G17KT 3SM BR OVC005 14/13 A2950 RMK AO2 SLP990 60000 T01390133 55002 $,M\n",
            "NUI,2022-05-07 09:53,-76.4285,38.1460,57.00,53.10,86.77,60.00,11.00,0.01,29.50,998.90,4.00,17.00,OVC,M,M,M,700.00,M,M,M,BR,M,M,M,M,M,M,57.00,KNUI 070953Z AUTO 06011G17KT 4SM BR OVC007 14/12 A2950 RMK AO2 RAB0855E41 CIG 004V011 SLP989 P0001 T01390117 $,M\n",
            "NUI,2022-05-07 10:53,-76.4285,38.1460,55.90,53.10,90.29,20.00,8.00,0.01,29.52,999.50,4.00,M,OVC,M,M,M,500.00,M,M,M,BR,M,M,M,M,M,M,55.90,KNUI 071053Z AUTO 02008KT 4SM BR OVC005 13/12 A2952 RMK AO2 RAB10E44 SLP995 P0001 T01330117 $,M\n",
            "NUI,2022-05-07 11:07,-76.4285,38.1460,55.90,53.10,90.29,50.00,9.00,0.01,29.52,M,2.50,M,OVC,M,M,M,500.00,M,M,M,RA BR,M,M,M,M,M,M,55.90,KNUI 071107Z AUTO 05009KT 2 1/2SM RA BR OVC005 13/12 A2952 RMK AO2 RAB1056 P0001 T01330117 $,M\n",
            "NUI,2022-05-07 11:17,-76.4285,38.1460,55.90,53.10,90.29,50.00,8.00,0.01,29.52,M,4.00,14.00,OVC,M,M,M,500.00,M,M,M,-RA BR,M,M,M,M,M,M,55.90,KNUI 071117Z AUTO 05008G14KT 4SM -RA BR OVC005 13/12 A2952 RMK AO2 RAB1056 P0001 T01330117 $,M\n",
            "NUI,2022-05-07 11:53,-76.4285,38.1460,57.00,53.10,86.77,50.00,7.00,0.01,29.53,999.90,6.00,M,BKN,OVC,M,M,600.00,1200.00,M,M,BR,M,M,M,M,M,M,57.00,KNUI 071153Z AUTO 05007KT 6SM BR BKN006 OVC012 14/12 A2953 RMK AO2 RAB1056E22 SLP999 P0001 60003 70063 T01390117 10156 20133 53009 $,M\n",
            "NUI,2022-05-07 12:53,-76.4285,38.1460,57.00,53.10,86.77,50.00,7.00,0.00,29.55,1000.50,4.00,M,OVC,M,M,M,800.00,M,M,M,BR,M,M,M,M,M,M,57.00,KNUI 071253Z AUTO 05007KT 4SM BR OVC008 14/12 A2955 RMK AO2 SLP005 T01390117 $,M\n",
            "NUI,2022-05-07 13:09,-76.4285,38.1460,57.00,53.10,86.77,40.00,7.00,0.00,29.55,M,2.50,M,OVC,M,M,M,800.00,M,M,M,BR,M,M,M,M,M,M,57.00,KNUI 071309Z AUTO 04007KT 2 1/2SM BR OVC008 14/12 A2955 RMK AO2 CIG 006V011 T01390117 $,M\n",
            "NUI,2022-05-07 13:33,-76.4285,38.1460,57.00,54.00,89.68,20.00,6.00,0.00,29.56,M,3.00,M,OVC,M,M,M,700.00,M,M,M,BR,M,M,M,M,M,M,57.00,KNUI 071333Z AUTO 02006KT 3SM BR OVC007 14/12 A2956 RMK AO2 CIG 005V011 T01390122 $,M\n",
            "NUI,2022-05-07 13:48,-76.4285,38.1460,57.20,53.60,87.74,M,5.00,0.00,29.56,M,2.50,M,OVC,M,M,M,700.00,M,M,M,BR,M,M,M,M,M,M,57.20,KNUI 071348Z AUTO VRB05KT 2 1/2SM BR OVC007 14/12 A2956 RMK AO2 CIG 005V011 $,M\n",
            "NUI,2022-05-07 13:53,-76.4285,38.1460,57.00,53.10,86.77,M,4.00,0.00,29.56,1001.00,2.50,M,OVC,M,M,M,700.00,M,M,M,BR,M,M,M,M,M,M,57.00,KNUI 071353Z AUTO VRB04KT 2 1/2SM BR OVC007 14/12 A2956 RMK AO2 CIG 005V011 SLP010 T01390117 $,M\n",
            "NUI,2022-05-07 14:12,-76.4285,38.1460,57.00,53.10,86.77,40.00,7.00,0.00,29.56,M,2.50,M,OVC,M,M,M,800.00,M,M,M,BR,M,M,M,M,M,M,57.00,KNUI 071412Z AUTO 04007KT 010V070 2 1/2SM BR OVC008 14/12 A2956 RMK AO2 CIG 005V012 T01390117 $,M\n",
            "NUI,2022-05-07 14:45,-76.4285,38.1460,57.00,53.10,86.77,M,3.00,0.00,29.58,M,1.75,M,OVC,M,M,M,800.00,M,M,M,BR,M,M,M,M,M,M,57.00,KNUI 071445Z AUTO VRB03KT 1 3/4SM BR OVC008 14/12 A2958 RMK AO2 CIG 004V012 T01390117 $,M\n",
            "NUI,2022-05-07 14:53,-76.4285,38.1460,57.00,53.10,86.77,30.00,5.00,0.00,29.58,1001.60,1.50,M,OVC,M,M,M,600.00,M,M,M,BR,M,M,M,M,M,M,57.00,KNUI 071453Z AUTO 03005KT 1 1/2SM BR OVC006 14/12 A2958 RMK AO2 CIG 004V011 SLP016 T01390117 53010 $,M\n",
            "NUI,2022-05-07 15:45,-76.4285,38.1460,57.90,53.10,84.00,M,5.00,0.00,29.59,M,2.00,M,BKN,OVC,M,M,700.00,1100.00,M,M,HZ,M,M,M,M,M,M,57.90,KNUI 071545Z AUTO VRB05KT 2SM HZ BKN007 OVC011 14/12 A2959 RMK AO2 CIG 005V009 T01440117 $,M\n",
            "NUI,2022-05-07 15:53,-76.4285,38.1460,57.90,53.10,84.00,M,6.00,0.00,29.59,1001.80,2.00,M,BKN,OVC,M,M,700.00,1300.00,M,M,HZ,M,M,M,M,M,M,57.90,KNUI 071553Z AUTO VRB06KT 2SM HZ BKN007 OVC013 14/12 A2959 RMK AO2 SLP018 T01440117 $,M\n",
            "NUI,2022-05-07 16:53,-76.4285,38.1460,57.90,54.00,86.82,30.00,6.00,0.00,29.59,1002.00,1.75,M,BKN,OVC,M,M,800.00,1400.00,M,M,BR,M,M,M,M,M,M,57.90,KNUI 071653Z AUTO 03006KT 1 3/4SM BR BKN008 OVC014 14/12 A2959 RMK AO2 SLP020 T01440122 $,M\n",
            "NUI,2022-05-07 17:53,-76.4285,38.1460,57.00,53.10,86.77,20.00,7.00,0.01,29.60,1002.40,1.75,15.00,BKN,OVC,M,M,700.00,1400.00,M,M,-RA BR,M,M,M,M,M,M,57.00,KNUI 071753Z AUTO 02007G15KT 1 3/4SM -RA BR BKN007 OVC014 14/12 A2960 RMK AO2 RAB12 CIG 005V011 SLP024 P0001 60001 T01390117 10144 20139 53008 $,M\n",
            "NUI,2022-05-07 18:09,-76.4285,38.1460,57.00,54.00,89.68,40.00,8.00,0.0001,29.60,M,1.75,19.00,BKN,BKN,OVC,M,800.00,1100.00,1700.00,M,-RA BR,M,M,M,M,M,M,57.00,KNUI 071809Z AUTO 04008G19KT 1 3/4SM -RA BR BKN008 BKN011 OVC017 14/12 A2960 RMK AO2 P0000 T01390122 $,M\n",
            "NUI,2022-05-07 18:53,-76.4285,38.1460,57.00,53.10,86.77,40.00,9.00,0.01,29.62,1003.00,1.75,19.00,BKN,OVC,M,M,700.00,1200.00,M,M,-RA BR,M,M,M,M,M,M,57.00,KNUI 071853Z AUTO 04009G19KT 1 3/4SM -RA BR BKN007 OVC012 14/12 A2962 RMK AO2 SLP030 P0001 T01390117 $,M\n",
            "NUI,2022-05-07 19:44,-76.4285,38.1460,55.90,53.10,90.29,40.00,7.00,0.02,29.64,M,1.50,20.00,BKN,OVC,M,M,1000.00,1400.00,M,M,-RA BR,M,M,M,M,M,M,55.90,KNUI 071944Z AUTO 04007G20KT 1 1/2SM -RA BR BKN010 OVC014 13/12 A2964 RMK AO2 P0002 T01330117 $,M\n",
            "NUI,2022-05-07 19:53,-76.4285,38.1460,55.90,53.10,90.29,30.00,12.00,0.03,29.64,1003.60,1.50,20.00,BKN,OVC,M,M,800.00,1400.00,M,M,-RA BR,M,M,M,M,M,M,55.90,KNUI 071953Z AUTO 03012G20KT 1 1/2SM -RA BR BKN008 OVC014 13/12 A2964 RMK AO2 SLP036 P0003 T01330117 $,M\n",
            "NUI,2022-05-07 20:01,-76.4285,38.1460,55.90,53.10,90.29,40.00,15.00,0.01,29.64,M,2.00,26.00,SCT,OVC,M,M,900.00,1400.00,M,M,-RA BR,M,M,M,26.00,70.00,2022-05-07 19:59,55.90,KNUI 072001Z AUTO 04015G26KT 2SM -RA BR SCT009 OVC014 13/12 A2964 RMK AO2 PK WND 07026/1959 P0001 T01330117 $,M\n",
            "NUI,2022-05-07 20:08,-76.4285,38.1460,55.90,53.10,90.29,30.00,13.00,0.01,29.64,M,1.75,26.00,SCT,BKN,OVC,M,900.00,1700.00,2100.00,M,-RA BR,M,M,M,26.00,70.00,2022-05-07 19:59,55.90,KNUI 072008Z AUTO 03013G26KT 1 3/4SM -RA BR SCT009 BKN017 OVC021 13/12 A2964 RMK AO2 PK WND 07026/1959 P0001 T01330117 $,M\n",
            "NUI,2022-05-07 20:16,-76.4285,38.1460,55.90,53.10,90.29,50.00,9.00,0.01,29.65,M,1.75,22.00,BKN,BKN,OVC,M,900.00,1300.00,2100.00,M,-RA BR,M,M,M,26.00,70.00,2022-05-07 19:59,55.90,KNUI 072016Z AUTO 05009G22KT 1 3/4SM -RA BR BKN009 BKN013 OVC021 13/12 A2965 RMK AO2 PK WND 07026/1959 P0001 T01330117 $,M\n",
            "NUI,2022-05-07 20:36,-76.4285,38.1460,55.90,52.00,86.71,40.00,12.00,0.02,29.66,M,1.25,23.00,SCT,BKN,OVC,M,900.00,1300.00,1800.00,M,-RA BR,M,M,M,26.00,70.00,2022-05-07 19:59,55.90,KNUI 072036Z AUTO 04012G23KT 1 1/4SM -RA BR SCT009 BKN013 OVC018 13/11 A2966 RMK AO2 PK WND 07026/1959 P0002 T01330111 $,M\n",
            "NUI,2022-05-07 20:53,-76.4285,38.1460,55.00,54.00,96.42,40.00,9.00,0.04,29.67,1004.50,1.25,17.00,BKN,BKN,OVC,M,800.00,1200.00,1800.00,M,RA BR,M,M,M,26.00,70.00,2022-05-07 19:59,55.00,KNUI 072053Z AUTO 04009G17KT 1 1/4SM RA BR BKN008 BKN012 OVC018 13/12 A2967 RMK AO2 PK WND 07026/1959 SLP045 P0004 60008 T01280122 53022 $,M\n",
            "NUI,2022-05-07 21:53,-76.4285,38.1460,54.00,M,M,40.00,13.00,0.05,29.70,1005.60,1.25,24.00,SCT,BKN,OVC,M,700.00,1300.00,1800.00,M,-RA,M,M,M,M,M,M,M,KNUI 072153Z AUTO 04013G24KT 1 1/4SM -RA SCT007 BKN013 OVC018 12/ A2970 RMK AO2 SLP056 P0005 T0122 $,M\n",
            "NUI,2022-05-07 22:30,-76.4285,38.1460,53.10,M,M,30.00,14.00,0.03,29.71,M,1.75,20.00,BKN,OVC,M,M,900.00,1400.00,M,M,-RA,M,M,M,M,M,M,M,KNUI 072230Z AUTO 03014G20KT 1 3/4SM -RA BKN009 OVC014 12/ A2971 RMK AO2 P0003 T0117 $,M\n",
            "NUI,2022-05-07 22:53,-76.4285,38.1460,53.10,M,M,40.00,11.00,0.05,29.72,1006.30,1.50,19.00,BKN,BKN,OVC,M,900.00,1400.00,2100.00,M,-RA,M,M,M,M,M,M,M,KNUI 072253Z AUTO 04011G19KT 360V070 1 1/2SM -RA BKN009 BKN014 OVC021 12/ A2972 RMK AO2 SLP063 P0005 T0117 $,M\n",
            "NUI,2022-05-07 23:38,-76.4285,38.1460,53.10,M,M,40.00,8.00,0.03,29.74,M,1.50,22.00,SCT,BKN,OVC,M,700.00,1500.00,2700.00,M,-RA,M,M,M,M,M,M,M,KNUI 072338Z AUTO 04008G22KT 1 1/2SM -RA SCT007 BKN015 OVC027 12/ A2974 RMK AO2 P0003 T0117 $,M\n",
            "NUI,2022-05-07 23:53,-76.4285,38.1460,53.10,M,M,40.00,10.00,0.05,29.74,1007.00,1.50,24.00,SCT,BKN,OVC,M,900.00,1500.00,1900.00,M,RA,M,M,M,M,M,M,M,KNUI 072353Z AUTO 04010G24KT 1 1/2SM RA SCT009 BKN015 OVC019 12/ A2974 RMK AO2 SLP070 P0005 60023 T0117 10139 20117 51025 $,M\n",
            "NUI,2022-05-07 23:59,-76.4285,38.1460,53.10,M,M,30.00,10.00,0.01,29.74,M,2.00,20.00,BKN,OVC,M,M,900.00,1500.00,M,M,RA,M,M,M,M,M,M,M,KNUI 072359Z AUTO 03010G20KT 2SM RA BKN009 OVC015 12/ A2974 RMK AO2 P0001 T0117 $,M\n",
            "NUI,2022-05-08 00:29,-76.4285,38.1460,53.10,M,M,30.00,10.00,0.03,29.76,M,3.00,20.00,BKN,OVC,M,M,1000.00,1700.00,M,M,-RA,M,M,M,M,M,M,M,KNUI 080029Z AUTO 03010G20KT 3SM -RA BKN010 OVC017 12/ A2976 RMK AO2 P0003 T0117 $,M\n",
            "NUI,2022-05-08 00:53,-76.4285,38.1460,52.00,M,M,40.00,11.00,0.04,29.77,1008.20,4.00,27.00,BKN,OVC,M,M,1000.00,1600.00,M,M,-RA,M,M,M,27.00,30.00,2022-05-08 00:47,M,KNUI 080053Z AUTO 04011G27KT 4SM -RA BKN010 OVC016 11/ A2977 RMK AO2 PK WND 03027/0047 SLP082 P0004 T0111 $,M\n",
            "NUI,2022-05-08 01:22,-76.4285,38.1460,52.00,M,M,30.00,12.00,0.02,29.79,M,3.00,22.00,SCT,BKN,OVC,M,800.00,1500.00,2200.00,M,-RA,M,M,M,M,M,M,M,KNUI 080122Z AUTO 03012G22KT 3SM -RA SCT008 BKN015 OVC022 11/ A2979 RMK AO2 P0002 T0111 $,M\n",
            "NUI,2022-05-08 01:32,-76.4285,38.1460,52.00,M,M,40.00,12.00,0.03,29.79,M,2.50,23.00,SCT,BKN,OVC,M,800.00,1200.00,1800.00,M,-RA,M,M,M,M,M,M,M,KNUI 080132Z AUTO 04012G23KT 2 1/2SM -RA SCT008 BKN012 OVC018 11/ A2979 RMK AO2 P0003 T0111 $,M\n",
            "NUI,2022-05-08 01:42,-76.4285,38.1460,52.00,M,M,40.00,13.00,0.03,29.79,M,3.00,24.00,SCT,OVC,M,M,1000.00,1900.00,M,M,-RA,M,M,M,M,M,M,M,KNUI 080142Z AUTO 04013G24KT 3SM -RA SCT010 OVC019 11/ A2979 RMK AO2 P0003 T0111 $,M\n",
            "NUI,2022-05-08 01:53,-76.4285,38.1460,52.00,M,M,40.00,13.00,0.04,29.80,1009.00,4.00,23.00,SCT,BKN,OVC,M,1000.00,1400.00,2000.00,M,-RA,M,M,M,M,M,M,M,KNUI 080153Z AUTO 04013G23KT 4SM -RA SCT010 BKN014 OVC020 11/ A2980 RMK AO2 SLP090 P0004 T0111 $,M\n",
            "NUI,2022-05-08 01:58,-76.4285,38.1460,52.00,M,M,40.00,13.00,0.0001,29.80,M,4.00,23.00,SCT,OVC,M,M,900.00,1700.00,M,M,-RA,M,M,M,M,M,M,M,KNUI 080158Z AUTO 04013G23KT 4SM -RA SCT009 OVC017 11/ A2980 RMK AO2 P0000 T0111 $,M\n",
            "NUI,2022-05-08 02:22,-76.4285,38.1460,52.00,M,M,40.00,9.00,0.0001,29.81,M,5.00,22.00,BKN,OVC,M,M,1200.00,2000.00,M,M,-RA,M,M,M,M,M,M,M,KNUI 080222Z AUTO 04009G22KT 5SM -RA BKN012 OVC020 11/ A2981 RMK AO2 P0000 T0111 $,M\n",
            "NUI,2022-05-08 02:53,-76.4285,38.1460,52.00,M,M,30.00,13.00,0.01,29.82,1009.60,4.00,24.00,SCT,BKN,OVC,M,1000.00,1600.00,2400.00,M,-RA,M,M,M,M,M,M,M,KNUI 080253Z AUTO 03013G24KT 4SM -RA SCT010 BKN016 OVC024 11/ A2982 RMK AO2 SLP096 P0001 60009 T0111 51026 $,M\n",
            "NUI,2022-05-08 03:53,-76.4285,38.1460,51.10,M,M,30.00,15.00,0.03,29.82,1009.80,6.00,25.00,BKN,OVC,M,M,1600.00,2300.00,M,M,-RA,M,M,M,29.00,50.00,2022-05-08 03:13,M,KNUI 080353Z AUTO 03015G25KT 6SM -RA BKN016 OVC023 11/ A2982 RMK AO2 PK WND 05029/0313 SLP098 P0003 T0106 $,M\n",
            "NUI,2022-05-08 04:53,-76.4285,38.1460,50.00,M,M,40.00,17.00,0.01,29.83,1009.90,10.00,31.00,BKN,OVC,M,M,1500.00,2100.00,M,M,M,M,M,M,31.00,20.00,2022-05-08 04:43,M,KNUI 080453Z AUTO 04017G31KT 10SM BKN015 OVC021 10/ A2983 RMK AO2 PK WND 02031/0443 RAE52 SLP099 P0001 T0100 401560100 $,M\n",
            "NUI,2022-05-08 05:53,-76.4285,38.1460,50.00,M,M,30.00,8.00,0.0001,29.84,1010.20,4.00,23.00,BKN,OVC,M,M,1600.00,2000.00,M,M,-RA,M,M,M,32.00,60.00,2022-05-08 05:25,M,KNUI 080553Z AUTO 03008G23KT 360V060 4SM -RA BKN016 OVC020 10/ A2984 RMK AO2 PK WND 06032/0525 RAB41 SLP102 P0000 60013 T0100 10117 20094 53006 $,M\n",
            "NUI,2022-05-08 06:09,-76.4285,38.1460,48.90,M,M,40.00,14.00,0.01,29.84,M,4.00,22.00,BKN,OVC,M,M,1200.00,2000.00,M,M,-RA,M,M,M,M,M,M,M,KNUI 080609Z AUTO 04014G22KT 4SM -RA BKN012 OVC020 09/ A2984 RMK AO2 P0001 T0094 $,M\n",
            "NUI,2022-05-08 06:44,-76.4285,38.1460,48.90,M,M,40.00,8.00,0.02,29.84,M,4.00,22.00,SCT,OVC,M,M,1200.00,2000.00,M,M,-RA,M,M,M,M,M,M,M,KNUI 080644Z AUTO 04008G22KT 4SM -RA SCT012 OVC020 09/ A2984 RMK AO2 P0002 T0094 $,M\n",
            "NUI,2022-05-08 06:46,-76.4285,38.1460,48.90,M,M,20.00,11.00,0.02,29.84,M,4.00,23.00,FEW,BKN,OVC,M,900.00,1200.00,2000.00,M,-RA,M,M,M,M,M,M,M,KNUI 080646Z AUTO 02011G23KT 4SM -RA FEW009 BKN012 OVC020 09/ A2984 RMK AO2 P0002 T0094 $,M\n",
            "NUI,2022-05-08 06:53,-76.4285,38.1460,48.90,M,M,40.00,11.00,0.03,29.85,1010.60,4.00,23.00,BKN,OVC,M,M,1000.00,2000.00,M,M,-RA,M,M,M,M,M,M,M,KNUI 080653Z AUTO 04011G23KT 010V070 4SM -RA BKN010 OVC020 09/ A2985 RMK AO2 SLP106 P0003 T0094 $,M\n",
            "NUI,2022-05-08 07:06,-76.4285,38.1460,48.90,M,M,30.00,8.00,0.0001,29.85,M,4.00,M,SCT,BKN,OVC,M,900.00,1500.00,2000.00,M,-RA,M,M,M,M,M,M,M,KNUI 080706Z AUTO 03008KT 320V080 4SM -RA SCT009 BKN015 OVC020 09/ A2985 RMK AO2 P0000 T0094 $,M\n",
            "NUI,2022-05-08 07:16,-76.4285,38.1460,48.00,M,M,40.00,8.00,0.0001,29.85,M,4.00,18.00,BKN,OVC,M,M,900.00,1500.00,M,M,-RA,M,M,M,M,M,M,M,KNUI 080716Z AUTO 04008G18KT 360V090 4SM -RA BKN009 OVC015 09/ A2985 RMK AO2 CIG 007V012 P0000 T0089 $,M\n",
            "NUI,2022-05-08 07:53,-76.4285,38.1460,48.00,M,M,30.00,9.00,0.02,29.86,1011.00,4.00,23.00,BKN,BKN,OVC,M,1100.00,1500.00,2100.00,M,-RA,M,M,M,M,M,M,M,KNUI 080753Z AUTO 03009G23KT 4SM -RA BKN011 BKN015 OVC021 09/ A2986 RMK AO2 CIG 008V012 SLP110 P0002 T0089 $,M\n",
            "NUI,2022-05-08 08:07,-76.4285,38.1460,48.00,M,M,20.00,10.00,0.0001,29.86,M,5.00,20.00,SCT,OVC,M,M,900.00,1400.00,M,M,-RA,M,M,M,M,M,M,M,KNUI 080807Z AUTO 02010G20KT 330V050 5SM -RA SCT009 OVC014 09/ A2986 RMK AO2 P0000 T0089 $,M\n",
            "NUI,2022-05-08 08:53,-76.4285,38.1460,48.00,M,M,30.00,8.00,0.0001,29.87,1011.30,6.00,18.00,BKN,OVC,M,M,1000.00,1500.00,M,M,HZ,M,M,M,M,M,M,M,KNUI 080853Z AUTO 03008G18KT 6SM HZ BKN010 OVC015 09/ A2987 RMK AO2 RAE24 CIG 008V013 SLP113 P0000 60005 T0089 51011 $,M\n",
            "NUI,2022-05-08 09:53,-76.4285,38.1460,48.00,48.00,100.00,30.00,8.00,0.02,29.88,1011.90,3.00,19.00,SCT,OVC,M,M,900.00,1700.00,M,M,-RA BR,M,M,M,M,M,M,43.82,KNUI 080953Z AUTO 03008G19KT 3SM -RA BR SCT009 OVC017 09/09 A2988 RMK AO2 RAB18 SLP119 P0002 T00890089 $,M\n",
            "NUI,2022-05-08 10:01,-76.4285,38.1460,48.00,48.00,100.00,40.00,10.00,0.01,29.89,M,4.00,17.00,BKN,OVC,M,M,1100.00,1800.00,M,M,-RA BR,M,M,M,M,M,M,43.03,KNUI 081001Z AUTO 04010G17KT 4SM -RA BR BKN011 OVC018 09/09 A2989 RMK AO2 P0001 T00890089 $,M\n",
            "NUI,2022-05-08 10:35,-76.4285,38.1460,48.00,46.00,92.74,30.00,11.00,0.02,29.90,M,2.50,28.00,SCT,OVC,M,M,1000.00,1500.00,M,M,-RA BR,M,M,M,28.00,30.00,2022-05-08 10:27,42.69,KNUI 081035Z AUTO 03011G28KT 2 1/2SM -RA BR SCT010 OVC015 09/08 A2990 RMK AO2 PK WND 03028/1027 P0002 T00890078 $,M\n",
            "NUI,2022-05-08 10:41,-76.4285,38.1460,48.00,46.00,92.74,30.00,10.00,0.02,29.90,M,3.00,17.00,BKN,OVC,M,M,1000.00,1500.00,M,M,-RA BR,M,M,M,28.00,30.00,2022-05-08 10:27,43.03,KNUI 081041Z AUTO 03010G17KT 340V060 3SM -RA BR BKN010 OVC015 09/08 A2990 RMK AO2 PK WND 03028/1027 P0002 T00890078 $,M\n",
            "NUI,2022-05-08 10:53,-76.4285,38.1460,48.00,46.00,92.74,30.00,9.00,0.02,29.90,1012.50,10.00,19.00,OVC,M,M,M,1400.00,M,M,M,M,M,M,M,28.00,30.00,2022-05-08 10:27,43.41,KNUI 081053Z AUTO 03009G19KT 350V060 10SM OVC014 09/08 A2990 RMK AO2 PK WND 03028/1027 RAE50 SLP125 P0002 T00890078 $,M\n",
            "NUI,2022-05-08 11:22,-76.4285,38.1460,48.90,45.00,86.33,30.00,9.00,0.00,29.92,M,10.00,23.00,OVC,M,M,M,1500.00,M,M,M,M,M,M,M,M,M,M,44.53,KNUI 081122Z AUTO 03009G23KT 350V060 10SM OVC015 09/07 A2992 RMK AO2 T00940072 $,M\n",
            "NUI,2022-05-08 11:53,-76.4285,38.1460,48.90,44.10,83.42,30.00,11.00,0.00,29.93,1013.60,5.00,23.00,BKN,OVC,M,M,1300.00,1800.00,M,M,HZ,M,M,M,M,M,M,43.82,KNUI 081153Z AUTO 03011G23KT 5SM HZ BKN013 OVC018 09/07 A2993 RMK AO2 SLP136 60009 70046 T00940067 10100 20089 53022 $,M\n",
            "NUI,2022-05-08 12:01,-76.4285,38.1460,48.90,44.10,83.42,30.00,10.00,0.0001,29.94,M,2.50,21.00,OVC,M,M,M,1500.00,M,M,M,-RA,M,M,M,M,M,M,44.16,KNUI 081201Z AUTO 03010G21KT 2 1/2SM -RA OVC015 09/07 A2994 RMK AO2 RAB1158 P0000 T00940067 $,M\n",
            "NUI,2022-05-08 12:10,-76.4285,38.1460,48.90,45.00,86.33,30.00,9.00,0.0001,29.95,M,1.75,18.00,BKN,OVC,M,M,1200.00,1800.00,M,M,-RA BR,M,M,M,M,M,M,44.53,KNUI 081210Z AUTO 03009G18KT 340V060 1 3/4SM -RA BR BKN012 OVC018 09/07 A2995 RMK AO2 RAB1158 P0000 T00940072 $,M\n",
            "NUI,2022-05-08 12:22,-76.4285,38.1460,48.90,45.00,86.33,30.00,9.00,0.01,29.96,M,3.00,16.00,OVC,M,M,M,1200.00,M,M,M,-RA BR,M,M,M,M,M,M,44.53,KNUI 081222Z AUTO 03009G16KT 3SM -RA BR OVC012 09/07 A2996 RMK AO2 RAB1158 P0001 T00940072 $,M\n",
            "NUI,2022-05-08 12:44,-76.4285,38.1460,48.90,44.10,83.42,30.00,9.00,0.01,29.96,M,5.00,16.00,OVC,M,M,M,1500.00,M,M,M,HZ,M,M,M,M,M,M,44.53,KNUI 081244Z AUTO 03009G16KT 320V060 5SM HZ OVC015 09/07 A2996 RMK AO2 RAB1158E28 P0001 T00940067 $,M\n",
            "NUI,2022-05-08 12:53,-76.4285,38.1460,48.90,44.10,83.42,20.00,10.00,0.01,29.97,1014.70,4.00,19.00,OVC,M,M,M,1500.00,M,M,M,HZ,M,M,M,M,M,M,44.16,KNUI 081253Z AUTO 02010G19KT 360V060 4SM HZ OVC015 09/07 A2997 RMK AO2 RAB1158E28 SLP147 P0001 T00940067 $,M\n",
            "NUI,2022-05-08 13:27,-76.4285,38.1460,48.90,44.10,83.42,M,6.00,0.00,29.98,M,5.00,16.00,BKN,OVC,M,M,1300.00,1800.00,M,M,HZ,M,M,M,M,M,M,45.88,KNUI 081327Z AUTO VRB06G16KT 5SM HZ BKN013 OVC018 09/07 A2998 RMK AO2 T00940067 $,M\n",
            "NUI,2022-05-08 13:50,-76.4285,38.1460,48.20,44.60,87.28,10.00,7.00,0.00,29.99,M,10.00,M,OVC,M,M,M,1500.00,M,M,M,M,M,M,M,M,M,M,44.53,KNUI 081350Z AUTO 01007KT 330V040 10SM OVC015 09/07 A2999 RMK AO2 $,M\n",
            "NUI,2022-05-08 13:53,-76.4285,38.1460,48.90,44.10,83.42,20.00,7.00,0.00,29.99,1015.60,10.00,18.00,OVC,M,M,M,1500.00,M,M,M,M,M,M,M,M,M,M,45.38,KNUI 081353Z AUTO 02007G18KT 350V050 10SM OVC015 09/07 A2999 RMK AO2 SLP156 T00940067 $,M\n",
            "NUI,2022-05-08 14:53,-76.4285,38.1460,50.00,43.00,76.76,20.00,8.00,0.00,30.01,1016.00,10.00,16.00,OVC,M,M,M,1600.00,M,M,M,M,M,M,M,M,M,M,50.00,KNUI 081453Z AUTO 02008G16KT 350V070 10SM OVC016 10/06 A3001 RMK AO2 SLP160 60001 T01000061 51014 $,M\n",
            "NUI,2022-05-08 15:53,-76.4285,38.1460,51.10,43.00,73.69,30.00,8.00,0.00,30.01,1016.20,10.00,17.00,OVC,M,M,M,1800.00,M,M,M,M,M,M,M,26.00,30.00,2022-05-08 15:29,51.10,KNUI 081553Z AUTO 03008G17KT 360V070 10SM OVC018 11/06 A3001 RMK AO2 PK WND 03026/1529 SLP162 T01060061 $,M\n",
            "NUI,2022-05-08 16:53,-76.4285,38.1460,52.00,42.10,68.86,30.00,9.00,0.00,30.01,1016.10,10.00,19.00,OVC,M,M,M,2300.00,M,M,M,M,M,M,M,M,M,M,52.00,KNUI 081653Z AUTO 03009G19KT 010V080 10SM OVC023 11/06 A3001 RMK AO2 SLP161 T01110056 $,M\n",
            "NUI,2022-05-08 17:53,-76.4285,38.1460,53.10,42.10,66.13,30.00,8.00,0.00,30.02,1016.60,10.00,18.00,OVC,M,M,M,2600.00,M,M,M,M,M,M,M,M,M,M,53.10,KNUI 081753Z AUTO 03008G18KT 10SM OVC026 12/06 A3002 RMK AO2 SLP166 60001 T01170056 10117 20094 53006 $,M\n",
            "NUI,2022-05-08 18:53,-76.4285,38.1460,53.10,42.10,66.13,M,6.00,0.00,30.04,1017.10,10.00,15.00,BKN,OVC,M,M,2800.00,3300.00,M,M,M,M,M,M,M,M,M,53.10,KNUI 081853Z AUTO VRB06G15KT 10SM BKN028 OVC033 12/06 A3004 RMK AO2 SLP171 T01170056 $,M\n",
            "NUI,2022-05-08 19:26,-76.4285,38.1460,54.00,42.10,63.98,30.00,7.00,0.00,30.04,M,10.00,M,OVC,M,M,M,3000.00,M,M,M,M,M,M,M,M,M,M,54.00,KNUI 081926Z AUTO 03007KT 300V040 10SM OVC030 12/06 A3004 RMK AO2 T01220056 $,M\n",
            "NUI,2022-05-08 19:53,-76.4285,38.1460,54.00,41.00,61.32,40.00,8.00,0.00,30.03,1016.90,10.00,17.00,BKN,OVC,M,M,3100.00,3600.00,M,M,M,M,M,M,M,M,M,54.00,KNUI 081953Z AUTO 04008G17KT 10SM BKN031 OVC036 12/05 A3003 RMK AO2 SLP169 T01220050 $,M\n",
            "NUI,2022-05-08 20:53,-76.4285,38.1460,55.00,39.90,56.66,M,6.00,0.00,30.04,1017.00,10.00,20.00,OVC,M,M,M,3700.00,M,M,M,M,M,M,M,M,M,M,55.00,KNUI 082053Z AUTO VRB06G20KT 10SM OVC037 13/04 A3004 RMK AO2 SLP170 T01280044 51004 $,M\n",
            "NUI,2022-05-08 21:53,-76.4285,38.1460,55.00,39.90,56.66,40.00,9.00,0.00,30.05,1017.60,10.00,16.00,OVC,M,M,M,4500.00,M,M,M,M,M,M,M,M,M,M,55.00,KNUI 082153Z AUTO 04009G16KT 010V070 10SM OVC045 13/04 A3005 RMK AO2 SLP176 T01280044 $,M\n",
            "NUI,2022-05-08 22:53,-76.4285,38.1460,54.00,37.00,52.45,50.00,9.00,0.00,30.06,1018.00,10.00,20.00,BKN,OVC,M,M,5000.00,6000.00,M,M,M,M,M,M,26.00,40.00,2022-05-08 22:27,54.00,KNUI 082253Z AUTO 05009G20KT 10SM BKN050 OVC060 12/03 A3006 RMK AO2 PK WND 04026/2227 SLP180 T01220028 $,M\n",
            "NUI,2022-05-08 23:53,-76.4285,38.1460,54.00,37.00,52.45,M,6.00,0.00,30.09,1018.80,10.00,16.00,OVC,M,M,M,6500.00,M,M,M,M,M,M,M,M,M,M,54.00,KNUI 082353Z AUTO VRB06G16KT 10SM OVC065 12/03 A3009 RMK AO2 SLP188 T01220028 10133 20117 53018 $,M\n",
            "\n"
          ]
        }
      ]
    },
    {
      "cell_type": "code",
      "source": [
        "testData = pd.read_csv('NUI_202205010000_202205090000.txt', skiprows=5 )"
      ],
      "metadata": {
        "id": "eMgKoQFT10Sv"
      },
      "execution_count": null,
      "outputs": []
    },
    {
      "cell_type": "code",
      "source": [
        "testData.head(2)"
      ],
      "metadata": {
        "id": "BgX5hGKJ7rh5"
      },
      "execution_count": null,
      "outputs": []
    },
    {
      "cell_type": "code",
      "source": [
        "testData.info()"
      ],
      "metadata": {
        "id": "gw3XiJsp7w7V"
      },
      "execution_count": null,
      "outputs": []
    },
    {
      "cell_type": "code",
      "source": [
        "testData.T"
      ],
      "metadata": {
        "colab": {
          "base_uri": "https://localhost:8080/",
          "height": 1000
        },
        "id": "iPqVrKl0762N",
        "outputId": "54ca722f-a014-49cd-8771-f6bb9c9a2ee0"
      },
      "execution_count": 61,
      "outputs": [
        {
          "output_type": "execute_result",
          "data": {
            "text/plain": [
              "                                                                 0    \\\n",
              "station                                                          NUI   \n",
              "valid                                               2022-05-01 00:53   \n",
              "lon                                                         -76.4285   \n",
              "lat                                                           38.146   \n",
              "tmpf                                                            55.0   \n",
              "dwpf                                                           30.90   \n",
              "relh                                                           39.63   \n",
              "drct                                                          130.00   \n",
              "sknt                                                             5.0   \n",
              "p01i                                                             0.0   \n",
              "alti                                                           30.11   \n",
              "mslp                                                         1019.60   \n",
              "vsby                                                            10.0   \n",
              "gust                                                               M   \n",
              "skyc1                                                            CLR   \n",
              "skyc2                                                              M   \n",
              "skyc3                                                              M   \n",
              "skyc4                                                              M   \n",
              "skyl1                                                              M   \n",
              "skyl2                                                              M   \n",
              "skyl3                                                              M   \n",
              "skyl4                                                              M   \n",
              "wxcodes                                                            M   \n",
              "ice_accretion_1hr                                                  M   \n",
              "ice_accretion_3hr                                                  M   \n",
              "ice_accretion_6hr                                                  M   \n",
              "peak_wind_gust                                                     M   \n",
              "peak_wind_drct                                                     M   \n",
              "peak_wind_time                                                     M   \n",
              "feel                                                           55.00   \n",
              "metar              KNUI 010053Z AUTO 13005KT 10SM CLR 13/M01 A301...   \n",
              "snowdepth                                                          M   \n",
              "\n",
              "                                                                 1    \\\n",
              "station                                                          NUI   \n",
              "valid                                               2022-05-01 01:53   \n",
              "lon                                                         -76.4285   \n",
              "lat                                                           38.146   \n",
              "tmpf                                                            55.0   \n",
              "dwpf                                                           37.00   \n",
              "relh                                                           50.58   \n",
              "drct                                                          140.00   \n",
              "sknt                                                             4.0   \n",
              "p01i                                                             0.0   \n",
              "alti                                                           30.11   \n",
              "mslp                                                         1019.70   \n",
              "vsby                                                            10.0   \n",
              "gust                                                               M   \n",
              "skyc1                                                            CLR   \n",
              "skyc2                                                              M   \n",
              "skyc3                                                              M   \n",
              "skyc4                                                              M   \n",
              "skyl1                                                              M   \n",
              "skyl2                                                              M   \n",
              "skyl3                                                              M   \n",
              "skyl4                                                              M   \n",
              "wxcodes                                                            M   \n",
              "ice_accretion_1hr                                                  M   \n",
              "ice_accretion_3hr                                                  M   \n",
              "ice_accretion_6hr                                                  M   \n",
              "peak_wind_gust                                                     M   \n",
              "peak_wind_drct                                                     M   \n",
              "peak_wind_time                                                     M   \n",
              "feel                                                           55.00   \n",
              "metar              KNUI 010153Z AUTO 14004KT 10SM CLR 13/03 A3011...   \n",
              "snowdepth                                                          M   \n",
              "\n",
              "                                                                 2    \\\n",
              "station                                                          NUI   \n",
              "valid                                               2022-05-01 02:53   \n",
              "lon                                                         -76.4285   \n",
              "lat                                                           38.146   \n",
              "tmpf                                                            52.0   \n",
              "dwpf                                                           41.00   \n",
              "relh                                                           66.00   \n",
              "drct                                                          150.00   \n",
              "sknt                                                             4.0   \n",
              "p01i                                                             0.0   \n",
              "alti                                                           30.11   \n",
              "mslp                                                         1019.40   \n",
              "vsby                                                            10.0   \n",
              "gust                                                               M   \n",
              "skyc1                                                            CLR   \n",
              "skyc2                                                              M   \n",
              "skyc3                                                              M   \n",
              "skyc4                                                              M   \n",
              "skyl1                                                              M   \n",
              "skyl2                                                              M   \n",
              "skyl3                                                              M   \n",
              "skyl4                                                              M   \n",
              "wxcodes                                                            M   \n",
              "ice_accretion_1hr                                                  M   \n",
              "ice_accretion_3hr                                                  M   \n",
              "ice_accretion_6hr                                                  M   \n",
              "peak_wind_gust                                                     M   \n",
              "peak_wind_drct                                                     M   \n",
              "peak_wind_time                                                     M   \n",
              "feel                                                           52.00   \n",
              "metar              KNUI 010253Z AUTO 15004KT 10SM CLR 11/05 A3011...   \n",
              "snowdepth                                                          M   \n",
              "\n",
              "                                                                 3    \\\n",
              "station                                                          NUI   \n",
              "valid                                               2022-05-01 03:53   \n",
              "lon                                                         -76.4285   \n",
              "lat                                                           38.146   \n",
              "tmpf                                                            57.0   \n",
              "dwpf                                                           46.90   \n",
              "relh                                                           68.90   \n",
              "drct                                                          180.00   \n",
              "sknt                                                             6.0   \n",
              "p01i                                                             0.0   \n",
              "alti                                                           30.11   \n",
              "mslp                                                         1019.70   \n",
              "vsby                                                            10.0   \n",
              "gust                                                               M   \n",
              "skyc1                                                            CLR   \n",
              "skyc2                                                              M   \n",
              "skyc3                                                              M   \n",
              "skyc4                                                              M   \n",
              "skyl1                                                              M   \n",
              "skyl2                                                              M   \n",
              "skyl3                                                              M   \n",
              "skyl4                                                              M   \n",
              "wxcodes                                                            M   \n",
              "ice_accretion_1hr                                                  M   \n",
              "ice_accretion_3hr                                                  M   \n",
              "ice_accretion_6hr                                                  M   \n",
              "peak_wind_gust                                                     M   \n",
              "peak_wind_drct                                                     M   \n",
              "peak_wind_time                                                     M   \n",
              "feel                                                           57.00   \n",
              "metar              KNUI 010353Z AUTO 18006KT 10SM CLR 14/08 A3011...   \n",
              "snowdepth                                                          M   \n",
              "\n",
              "                                                                 4    \\\n",
              "station                                                          NUI   \n",
              "valid                                               2022-05-01 04:53   \n",
              "lon                                                         -76.4285   \n",
              "lat                                                           38.146   \n",
              "tmpf                                                            57.0   \n",
              "dwpf                                                           48.00   \n",
              "relh                                                           71.81   \n",
              "drct                                                          190.00   \n",
              "sknt                                                             4.0   \n",
              "p01i                                                             0.0   \n",
              "alti                                                           30.12   \n",
              "mslp                                                         1019.90   \n",
              "vsby                                                            10.0   \n",
              "gust                                                               M   \n",
              "skyc1                                                            CLR   \n",
              "skyc2                                                              M   \n",
              "skyc3                                                              M   \n",
              "skyc4                                                              M   \n",
              "skyl1                                                              M   \n",
              "skyl2                                                              M   \n",
              "skyl3                                                              M   \n",
              "skyl4                                                              M   \n",
              "wxcodes                                                            M   \n",
              "ice_accretion_1hr                                                  M   \n",
              "ice_accretion_3hr                                                  M   \n",
              "ice_accretion_6hr                                                  M   \n",
              "peak_wind_gust                                                     M   \n",
              "peak_wind_drct                                                     M   \n",
              "peak_wind_time                                                     M   \n",
              "feel                                                           57.00   \n",
              "metar              KNUI 010453Z AUTO 19004KT 10SM CLR 14/09 A3012...   \n",
              "snowdepth                                                          M   \n",
              "\n",
              "                                                                 5    \\\n",
              "station                                                          NUI   \n",
              "valid                                               2022-05-01 05:53   \n",
              "lon                                                         -76.4285   \n",
              "lat                                                           38.146   \n",
              "tmpf                                                            55.9   \n",
              "dwpf                                                           46.90   \n",
              "relh                                                           71.69   \n",
              "drct                                                          190.00   \n",
              "sknt                                                             3.0   \n",
              "p01i                                                             0.0   \n",
              "alti                                                           30.12   \n",
              "mslp                                                         1020.00   \n",
              "vsby                                                            10.0   \n",
              "gust                                                               M   \n",
              "skyc1                                                            CLR   \n",
              "skyc2                                                              M   \n",
              "skyc3                                                              M   \n",
              "skyc4                                                              M   \n",
              "skyl1                                                              M   \n",
              "skyl2                                                              M   \n",
              "skyl3                                                              M   \n",
              "skyl4                                                              M   \n",
              "wxcodes                                                            M   \n",
              "ice_accretion_1hr                                                  M   \n",
              "ice_accretion_3hr                                                  M   \n",
              "ice_accretion_6hr                                                  M   \n",
              "peak_wind_gust                                                     M   \n",
              "peak_wind_drct                                                     M   \n",
              "peak_wind_time                                                     M   \n",
              "feel                                                           55.90   \n",
              "metar              KNUI 010553Z AUTO 19003KT 10SM CLR 13/08 A3012...   \n",
              "snowdepth                                                          M   \n",
              "\n",
              "                                                                 6    \\\n",
              "station                                                          NUI   \n",
              "valid                                               2022-05-01 06:53   \n",
              "lon                                                         -76.4285   \n",
              "lat                                                           38.146   \n",
              "tmpf                                                            54.0   \n",
              "dwpf                                                           46.00   \n",
              "relh                                                           74.26   \n",
              "drct                                                            0.00   \n",
              "sknt                                                             0.0   \n",
              "p01i                                                             0.0   \n",
              "alti                                                            30.1   \n",
              "mslp                                                         1019.30   \n",
              "vsby                                                            10.0   \n",
              "gust                                                               M   \n",
              "skyc1                                                            CLR   \n",
              "skyc2                                                              M   \n",
              "skyc3                                                              M   \n",
              "skyc4                                                              M   \n",
              "skyl1                                                              M   \n",
              "skyl2                                                              M   \n",
              "skyl3                                                              M   \n",
              "skyl4                                                              M   \n",
              "wxcodes                                                            M   \n",
              "ice_accretion_1hr                                                  M   \n",
              "ice_accretion_3hr                                                  M   \n",
              "ice_accretion_6hr                                                  M   \n",
              "peak_wind_gust                                                     M   \n",
              "peak_wind_drct                                                     M   \n",
              "peak_wind_time                                                     M   \n",
              "feel                                                           54.00   \n",
              "metar              KNUI 010653Z AUTO 00000KT 10SM CLR 12/08 A3010...   \n",
              "snowdepth                                                          M   \n",
              "\n",
              "                                                                 7    \\\n",
              "station                                                          NUI   \n",
              "valid                                               2022-05-01 07:53   \n",
              "lon                                                         -76.4285   \n",
              "lat                                                           38.146   \n",
              "tmpf                                                            53.1   \n",
              "dwpf                                                           46.90   \n",
              "relh                                                           79.40   \n",
              "drct                                                            0.00   \n",
              "sknt                                                             0.0   \n",
              "p01i                                                             0.0   \n",
              "alti                                                            30.1   \n",
              "mslp                                                         1019.10   \n",
              "vsby                                                            10.0   \n",
              "gust                                                               M   \n",
              "skyc1                                                            CLR   \n",
              "skyc2                                                              M   \n",
              "skyc3                                                              M   \n",
              "skyc4                                                              M   \n",
              "skyl1                                                              M   \n",
              "skyl2                                                              M   \n",
              "skyl3                                                              M   \n",
              "skyl4                                                              M   \n",
              "wxcodes                                                            M   \n",
              "ice_accretion_1hr                                                  M   \n",
              "ice_accretion_3hr                                                  M   \n",
              "ice_accretion_6hr                                                  M   \n",
              "peak_wind_gust                                                     M   \n",
              "peak_wind_drct                                                     M   \n",
              "peak_wind_time                                                     M   \n",
              "feel                                                           53.10   \n",
              "metar              KNUI 010753Z AUTO 00000KT 10SM CLR 12/08 A3010...   \n",
              "snowdepth                                                          M   \n",
              "\n",
              "                                                                 8    \\\n",
              "station                                                          NUI   \n",
              "valid                                               2022-05-01 08:53   \n",
              "lon                                                         -76.4285   \n",
              "lat                                                           38.146   \n",
              "tmpf                                                            53.1   \n",
              "dwpf                                                           46.00   \n",
              "relh                                                           76.75   \n",
              "drct                                                          190.00   \n",
              "sknt                                                             4.0   \n",
              "p01i                                                             0.0   \n",
              "alti                                                            30.1   \n",
              "mslp                                                         1019.10   \n",
              "vsby                                                            10.0   \n",
              "gust                                                               M   \n",
              "skyc1                                                            CLR   \n",
              "skyc2                                                              M   \n",
              "skyc3                                                              M   \n",
              "skyc4                                                              M   \n",
              "skyl1                                                              M   \n",
              "skyl2                                                              M   \n",
              "skyl3                                                              M   \n",
              "skyl4                                                              M   \n",
              "wxcodes                                                            M   \n",
              "ice_accretion_1hr                                                  M   \n",
              "ice_accretion_3hr                                                  M   \n",
              "ice_accretion_6hr                                                  M   \n",
              "peak_wind_gust                                                     M   \n",
              "peak_wind_drct                                                     M   \n",
              "peak_wind_time                                                     M   \n",
              "feel                                                           53.10   \n",
              "metar              KNUI 010853Z AUTO 19004KT 10SM CLR 12/08 A3010...   \n",
              "snowdepth                                                          M   \n",
              "\n",
              "                                                                 9    ...  \\\n",
              "station                                                          NUI  ...   \n",
              "valid                                               2022-05-01 09:53  ...   \n",
              "lon                                                         -76.4285  ...   \n",
              "lat                                                           38.146  ...   \n",
              "tmpf                                                            51.1  ...   \n",
              "dwpf                                                           46.00  ...   \n",
              "relh                                                           82.62  ...   \n",
              "drct                                                            0.00  ...   \n",
              "sknt                                                             0.0  ...   \n",
              "p01i                                                             0.0  ...   \n",
              "alti                                                            30.1  ...   \n",
              "mslp                                                         1019.30  ...   \n",
              "vsby                                                            10.0  ...   \n",
              "gust                                                               M  ...   \n",
              "skyc1                                                            BKN  ...   \n",
              "skyc2                                                              M  ...   \n",
              "skyc3                                                              M  ...   \n",
              "skyc4                                                              M  ...   \n",
              "skyl1                                                        8000.00  ...   \n",
              "skyl2                                                              M  ...   \n",
              "skyl3                                                              M  ...   \n",
              "skyl4                                                              M  ...   \n",
              "wxcodes                                                            M  ...   \n",
              "ice_accretion_1hr                                                  M  ...   \n",
              "ice_accretion_3hr                                                  M  ...   \n",
              "ice_accretion_6hr                                                  M  ...   \n",
              "peak_wind_gust                                                     M  ...   \n",
              "peak_wind_drct                                                     M  ...   \n",
              "peak_wind_time                                                     M  ...   \n",
              "feel                                                           51.10  ...   \n",
              "metar              KNUI 010953Z AUTO 00000KT 10SM BKN080 11/08 A3...  ...   \n",
              "snowdepth                                                          M  ...   \n",
              "\n",
              "                                                                 278  \\\n",
              "station                                                          NUI   \n",
              "valid                                               2022-05-08 15:53   \n",
              "lon                                                         -76.4285   \n",
              "lat                                                           38.146   \n",
              "tmpf                                                            51.1   \n",
              "dwpf                                                           43.00   \n",
              "relh                                                           73.69   \n",
              "drct                                                           30.00   \n",
              "sknt                                                             8.0   \n",
              "p01i                                                             0.0   \n",
              "alti                                                           30.01   \n",
              "mslp                                                         1016.20   \n",
              "vsby                                                            10.0   \n",
              "gust                                                           17.00   \n",
              "skyc1                                                            OVC   \n",
              "skyc2                                                              M   \n",
              "skyc3                                                              M   \n",
              "skyc4                                                              M   \n",
              "skyl1                                                        1800.00   \n",
              "skyl2                                                              M   \n",
              "skyl3                                                              M   \n",
              "skyl4                                                              M   \n",
              "wxcodes                                                            M   \n",
              "ice_accretion_1hr                                                  M   \n",
              "ice_accretion_3hr                                                  M   \n",
              "ice_accretion_6hr                                                  M   \n",
              "peak_wind_gust                                                 26.00   \n",
              "peak_wind_drct                                                 30.00   \n",
              "peak_wind_time                                      2022-05-08 15:29   \n",
              "feel                                                           51.10   \n",
              "metar              KNUI 081553Z AUTO 03008G17KT 360V070 10SM OVC0...   \n",
              "snowdepth                                                          M   \n",
              "\n",
              "                                                                 279  \\\n",
              "station                                                          NUI   \n",
              "valid                                               2022-05-08 16:53   \n",
              "lon                                                         -76.4285   \n",
              "lat                                                           38.146   \n",
              "tmpf                                                            52.0   \n",
              "dwpf                                                           42.10   \n",
              "relh                                                           68.86   \n",
              "drct                                                           30.00   \n",
              "sknt                                                             9.0   \n",
              "p01i                                                             0.0   \n",
              "alti                                                           30.01   \n",
              "mslp                                                         1016.10   \n",
              "vsby                                                            10.0   \n",
              "gust                                                           19.00   \n",
              "skyc1                                                            OVC   \n",
              "skyc2                                                              M   \n",
              "skyc3                                                              M   \n",
              "skyc4                                                              M   \n",
              "skyl1                                                        2300.00   \n",
              "skyl2                                                              M   \n",
              "skyl3                                                              M   \n",
              "skyl4                                                              M   \n",
              "wxcodes                                                            M   \n",
              "ice_accretion_1hr                                                  M   \n",
              "ice_accretion_3hr                                                  M   \n",
              "ice_accretion_6hr                                                  M   \n",
              "peak_wind_gust                                                     M   \n",
              "peak_wind_drct                                                     M   \n",
              "peak_wind_time                                                     M   \n",
              "feel                                                           52.00   \n",
              "metar              KNUI 081653Z AUTO 03009G19KT 010V080 10SM OVC0...   \n",
              "snowdepth                                                          M   \n",
              "\n",
              "                                                                 280  \\\n",
              "station                                                          NUI   \n",
              "valid                                               2022-05-08 17:53   \n",
              "lon                                                         -76.4285   \n",
              "lat                                                           38.146   \n",
              "tmpf                                                            53.1   \n",
              "dwpf                                                           42.10   \n",
              "relh                                                           66.13   \n",
              "drct                                                           30.00   \n",
              "sknt                                                             8.0   \n",
              "p01i                                                             0.0   \n",
              "alti                                                           30.02   \n",
              "mslp                                                         1016.60   \n",
              "vsby                                                            10.0   \n",
              "gust                                                           18.00   \n",
              "skyc1                                                            OVC   \n",
              "skyc2                                                              M   \n",
              "skyc3                                                              M   \n",
              "skyc4                                                              M   \n",
              "skyl1                                                        2600.00   \n",
              "skyl2                                                              M   \n",
              "skyl3                                                              M   \n",
              "skyl4                                                              M   \n",
              "wxcodes                                                            M   \n",
              "ice_accretion_1hr                                                  M   \n",
              "ice_accretion_3hr                                                  M   \n",
              "ice_accretion_6hr                                                  M   \n",
              "peak_wind_gust                                                     M   \n",
              "peak_wind_drct                                                     M   \n",
              "peak_wind_time                                                     M   \n",
              "feel                                                           53.10   \n",
              "metar              KNUI 081753Z AUTO 03008G18KT 10SM OVC026 12/06...   \n",
              "snowdepth                                                          M   \n",
              "\n",
              "                                                                 281  \\\n",
              "station                                                          NUI   \n",
              "valid                                               2022-05-08 18:53   \n",
              "lon                                                         -76.4285   \n",
              "lat                                                           38.146   \n",
              "tmpf                                                            53.1   \n",
              "dwpf                                                           42.10   \n",
              "relh                                                           66.13   \n",
              "drct                                                               M   \n",
              "sknt                                                             6.0   \n",
              "p01i                                                             0.0   \n",
              "alti                                                           30.04   \n",
              "mslp                                                         1017.10   \n",
              "vsby                                                            10.0   \n",
              "gust                                                           15.00   \n",
              "skyc1                                                            BKN   \n",
              "skyc2                                                            OVC   \n",
              "skyc3                                                              M   \n",
              "skyc4                                                              M   \n",
              "skyl1                                                        2800.00   \n",
              "skyl2                                                        3300.00   \n",
              "skyl3                                                              M   \n",
              "skyl4                                                              M   \n",
              "wxcodes                                                            M   \n",
              "ice_accretion_1hr                                                  M   \n",
              "ice_accretion_3hr                                                  M   \n",
              "ice_accretion_6hr                                                  M   \n",
              "peak_wind_gust                                                     M   \n",
              "peak_wind_drct                                                     M   \n",
              "peak_wind_time                                                     M   \n",
              "feel                                                           53.10   \n",
              "metar              KNUI 081853Z AUTO VRB06G15KT 10SM BKN028 OVC03...   \n",
              "snowdepth                                                          M   \n",
              "\n",
              "                                                                 282  \\\n",
              "station                                                          NUI   \n",
              "valid                                               2022-05-08 19:26   \n",
              "lon                                                         -76.4285   \n",
              "lat                                                           38.146   \n",
              "tmpf                                                            54.0   \n",
              "dwpf                                                           42.10   \n",
              "relh                                                           63.98   \n",
              "drct                                                           30.00   \n",
              "sknt                                                             7.0   \n",
              "p01i                                                             0.0   \n",
              "alti                                                           30.04   \n",
              "mslp                                                               M   \n",
              "vsby                                                            10.0   \n",
              "gust                                                               M   \n",
              "skyc1                                                            OVC   \n",
              "skyc2                                                              M   \n",
              "skyc3                                                              M   \n",
              "skyc4                                                              M   \n",
              "skyl1                                                        3000.00   \n",
              "skyl2                                                              M   \n",
              "skyl3                                                              M   \n",
              "skyl4                                                              M   \n",
              "wxcodes                                                            M   \n",
              "ice_accretion_1hr                                                  M   \n",
              "ice_accretion_3hr                                                  M   \n",
              "ice_accretion_6hr                                                  M   \n",
              "peak_wind_gust                                                     M   \n",
              "peak_wind_drct                                                     M   \n",
              "peak_wind_time                                                     M   \n",
              "feel                                                           54.00   \n",
              "metar              KNUI 081926Z AUTO 03007KT 300V040 10SM OVC030 ...   \n",
              "snowdepth                                                          M   \n",
              "\n",
              "                                                                 283  \\\n",
              "station                                                          NUI   \n",
              "valid                                               2022-05-08 19:53   \n",
              "lon                                                         -76.4285   \n",
              "lat                                                           38.146   \n",
              "tmpf                                                            54.0   \n",
              "dwpf                                                           41.00   \n",
              "relh                                                           61.32   \n",
              "drct                                                           40.00   \n",
              "sknt                                                             8.0   \n",
              "p01i                                                             0.0   \n",
              "alti                                                           30.03   \n",
              "mslp                                                         1016.90   \n",
              "vsby                                                            10.0   \n",
              "gust                                                           17.00   \n",
              "skyc1                                                            BKN   \n",
              "skyc2                                                            OVC   \n",
              "skyc3                                                              M   \n",
              "skyc4                                                              M   \n",
              "skyl1                                                        3100.00   \n",
              "skyl2                                                        3600.00   \n",
              "skyl3                                                              M   \n",
              "skyl4                                                              M   \n",
              "wxcodes                                                            M   \n",
              "ice_accretion_1hr                                                  M   \n",
              "ice_accretion_3hr                                                  M   \n",
              "ice_accretion_6hr                                                  M   \n",
              "peak_wind_gust                                                     M   \n",
              "peak_wind_drct                                                     M   \n",
              "peak_wind_time                                                     M   \n",
              "feel                                                           54.00   \n",
              "metar              KNUI 081953Z AUTO 04008G17KT 10SM BKN031 OVC03...   \n",
              "snowdepth                                                          M   \n",
              "\n",
              "                                                                 284  \\\n",
              "station                                                          NUI   \n",
              "valid                                               2022-05-08 20:53   \n",
              "lon                                                         -76.4285   \n",
              "lat                                                           38.146   \n",
              "tmpf                                                            55.0   \n",
              "dwpf                                                           39.90   \n",
              "relh                                                           56.66   \n",
              "drct                                                               M   \n",
              "sknt                                                             6.0   \n",
              "p01i                                                             0.0   \n",
              "alti                                                           30.04   \n",
              "mslp                                                         1017.00   \n",
              "vsby                                                            10.0   \n",
              "gust                                                           20.00   \n",
              "skyc1                                                            OVC   \n",
              "skyc2                                                              M   \n",
              "skyc3                                                              M   \n",
              "skyc4                                                              M   \n",
              "skyl1                                                        3700.00   \n",
              "skyl2                                                              M   \n",
              "skyl3                                                              M   \n",
              "skyl4                                                              M   \n",
              "wxcodes                                                            M   \n",
              "ice_accretion_1hr                                                  M   \n",
              "ice_accretion_3hr                                                  M   \n",
              "ice_accretion_6hr                                                  M   \n",
              "peak_wind_gust                                                     M   \n",
              "peak_wind_drct                                                     M   \n",
              "peak_wind_time                                                     M   \n",
              "feel                                                           55.00   \n",
              "metar              KNUI 082053Z AUTO VRB06G20KT 10SM OVC037 13/04...   \n",
              "snowdepth                                                          M   \n",
              "\n",
              "                                                                 285  \\\n",
              "station                                                          NUI   \n",
              "valid                                               2022-05-08 21:53   \n",
              "lon                                                         -76.4285   \n",
              "lat                                                           38.146   \n",
              "tmpf                                                            55.0   \n",
              "dwpf                                                           39.90   \n",
              "relh                                                           56.66   \n",
              "drct                                                           40.00   \n",
              "sknt                                                             9.0   \n",
              "p01i                                                             0.0   \n",
              "alti                                                           30.05   \n",
              "mslp                                                         1017.60   \n",
              "vsby                                                            10.0   \n",
              "gust                                                           16.00   \n",
              "skyc1                                                            OVC   \n",
              "skyc2                                                              M   \n",
              "skyc3                                                              M   \n",
              "skyc4                                                              M   \n",
              "skyl1                                                        4500.00   \n",
              "skyl2                                                              M   \n",
              "skyl3                                                              M   \n",
              "skyl4                                                              M   \n",
              "wxcodes                                                            M   \n",
              "ice_accretion_1hr                                                  M   \n",
              "ice_accretion_3hr                                                  M   \n",
              "ice_accretion_6hr                                                  M   \n",
              "peak_wind_gust                                                     M   \n",
              "peak_wind_drct                                                     M   \n",
              "peak_wind_time                                                     M   \n",
              "feel                                                           55.00   \n",
              "metar              KNUI 082153Z AUTO 04009G16KT 010V070 10SM OVC0...   \n",
              "snowdepth                                                          M   \n",
              "\n",
              "                                                                 286  \\\n",
              "station                                                          NUI   \n",
              "valid                                               2022-05-08 22:53   \n",
              "lon                                                         -76.4285   \n",
              "lat                                                           38.146   \n",
              "tmpf                                                            54.0   \n",
              "dwpf                                                           37.00   \n",
              "relh                                                           52.45   \n",
              "drct                                                           50.00   \n",
              "sknt                                                             9.0   \n",
              "p01i                                                             0.0   \n",
              "alti                                                           30.06   \n",
              "mslp                                                         1018.00   \n",
              "vsby                                                            10.0   \n",
              "gust                                                           20.00   \n",
              "skyc1                                                            BKN   \n",
              "skyc2                                                            OVC   \n",
              "skyc3                                                              M   \n",
              "skyc4                                                              M   \n",
              "skyl1                                                        5000.00   \n",
              "skyl2                                                        6000.00   \n",
              "skyl3                                                              M   \n",
              "skyl4                                                              M   \n",
              "wxcodes                                                            M   \n",
              "ice_accretion_1hr                                                  M   \n",
              "ice_accretion_3hr                                                  M   \n",
              "ice_accretion_6hr                                                  M   \n",
              "peak_wind_gust                                                 26.00   \n",
              "peak_wind_drct                                                 40.00   \n",
              "peak_wind_time                                      2022-05-08 22:27   \n",
              "feel                                                           54.00   \n",
              "metar              KNUI 082253Z AUTO 05009G20KT 10SM BKN050 OVC06...   \n",
              "snowdepth                                                          M   \n",
              "\n",
              "                                                                 287  \n",
              "station                                                          NUI  \n",
              "valid                                               2022-05-08 23:53  \n",
              "lon                                                         -76.4285  \n",
              "lat                                                           38.146  \n",
              "tmpf                                                            54.0  \n",
              "dwpf                                                           37.00  \n",
              "relh                                                           52.45  \n",
              "drct                                                               M  \n",
              "sknt                                                             6.0  \n",
              "p01i                                                             0.0  \n",
              "alti                                                           30.09  \n",
              "mslp                                                         1018.80  \n",
              "vsby                                                            10.0  \n",
              "gust                                                           16.00  \n",
              "skyc1                                                            OVC  \n",
              "skyc2                                                              M  \n",
              "skyc3                                                              M  \n",
              "skyc4                                                              M  \n",
              "skyl1                                                        6500.00  \n",
              "skyl2                                                              M  \n",
              "skyl3                                                              M  \n",
              "skyl4                                                              M  \n",
              "wxcodes                                                            M  \n",
              "ice_accretion_1hr                                                  M  \n",
              "ice_accretion_3hr                                                  M  \n",
              "ice_accretion_6hr                                                  M  \n",
              "peak_wind_gust                                                     M  \n",
              "peak_wind_drct                                                     M  \n",
              "peak_wind_time                                                     M  \n",
              "feel                                                           54.00  \n",
              "metar              KNUI 082353Z AUTO VRB06G16KT 10SM OVC065 12/03...  \n",
              "snowdepth                                                          M  \n",
              "\n",
              "[32 rows x 288 columns]"
            ],
            "text/html": [
              "\n",
              "  <div id=\"df-38a5df00-0f3f-443e-95f4-d63c26a97368\">\n",
              "    <div class=\"colab-df-container\">\n",
              "      <div>\n",
              "<style scoped>\n",
              "    .dataframe tbody tr th:only-of-type {\n",
              "        vertical-align: middle;\n",
              "    }\n",
              "\n",
              "    .dataframe tbody tr th {\n",
              "        vertical-align: top;\n",
              "    }\n",
              "\n",
              "    .dataframe thead th {\n",
              "        text-align: right;\n",
              "    }\n",
              "</style>\n",
              "<table border=\"1\" class=\"dataframe\">\n",
              "  <thead>\n",
              "    <tr style=\"text-align: right;\">\n",
              "      <th></th>\n",
              "      <th>0</th>\n",
              "      <th>1</th>\n",
              "      <th>2</th>\n",
              "      <th>3</th>\n",
              "      <th>4</th>\n",
              "      <th>5</th>\n",
              "      <th>6</th>\n",
              "      <th>7</th>\n",
              "      <th>8</th>\n",
              "      <th>9</th>\n",
              "      <th>...</th>\n",
              "      <th>278</th>\n",
              "      <th>279</th>\n",
              "      <th>280</th>\n",
              "      <th>281</th>\n",
              "      <th>282</th>\n",
              "      <th>283</th>\n",
              "      <th>284</th>\n",
              "      <th>285</th>\n",
              "      <th>286</th>\n",
              "      <th>287</th>\n",
              "    </tr>\n",
              "  </thead>\n",
              "  <tbody>\n",
              "    <tr>\n",
              "      <th>station</th>\n",
              "      <td>NUI</td>\n",
              "      <td>NUI</td>\n",
              "      <td>NUI</td>\n",
              "      <td>NUI</td>\n",
              "      <td>NUI</td>\n",
              "      <td>NUI</td>\n",
              "      <td>NUI</td>\n",
              "      <td>NUI</td>\n",
              "      <td>NUI</td>\n",
              "      <td>NUI</td>\n",
              "      <td>...</td>\n",
              "      <td>NUI</td>\n",
              "      <td>NUI</td>\n",
              "      <td>NUI</td>\n",
              "      <td>NUI</td>\n",
              "      <td>NUI</td>\n",
              "      <td>NUI</td>\n",
              "      <td>NUI</td>\n",
              "      <td>NUI</td>\n",
              "      <td>NUI</td>\n",
              "      <td>NUI</td>\n",
              "    </tr>\n",
              "    <tr>\n",
              "      <th>valid</th>\n",
              "      <td>2022-05-01 00:53</td>\n",
              "      <td>2022-05-01 01:53</td>\n",
              "      <td>2022-05-01 02:53</td>\n",
              "      <td>2022-05-01 03:53</td>\n",
              "      <td>2022-05-01 04:53</td>\n",
              "      <td>2022-05-01 05:53</td>\n",
              "      <td>2022-05-01 06:53</td>\n",
              "      <td>2022-05-01 07:53</td>\n",
              "      <td>2022-05-01 08:53</td>\n",
              "      <td>2022-05-01 09:53</td>\n",
              "      <td>...</td>\n",
              "      <td>2022-05-08 15:53</td>\n",
              "      <td>2022-05-08 16:53</td>\n",
              "      <td>2022-05-08 17:53</td>\n",
              "      <td>2022-05-08 18:53</td>\n",
              "      <td>2022-05-08 19:26</td>\n",
              "      <td>2022-05-08 19:53</td>\n",
              "      <td>2022-05-08 20:53</td>\n",
              "      <td>2022-05-08 21:53</td>\n",
              "      <td>2022-05-08 22:53</td>\n",
              "      <td>2022-05-08 23:53</td>\n",
              "    </tr>\n",
              "    <tr>\n",
              "      <th>lon</th>\n",
              "      <td>-76.4285</td>\n",
              "      <td>-76.4285</td>\n",
              "      <td>-76.4285</td>\n",
              "      <td>-76.4285</td>\n",
              "      <td>-76.4285</td>\n",
              "      <td>-76.4285</td>\n",
              "      <td>-76.4285</td>\n",
              "      <td>-76.4285</td>\n",
              "      <td>-76.4285</td>\n",
              "      <td>-76.4285</td>\n",
              "      <td>...</td>\n",
              "      <td>-76.4285</td>\n",
              "      <td>-76.4285</td>\n",
              "      <td>-76.4285</td>\n",
              "      <td>-76.4285</td>\n",
              "      <td>-76.4285</td>\n",
              "      <td>-76.4285</td>\n",
              "      <td>-76.4285</td>\n",
              "      <td>-76.4285</td>\n",
              "      <td>-76.4285</td>\n",
              "      <td>-76.4285</td>\n",
              "    </tr>\n",
              "    <tr>\n",
              "      <th>lat</th>\n",
              "      <td>38.146</td>\n",
              "      <td>38.146</td>\n",
              "      <td>38.146</td>\n",
              "      <td>38.146</td>\n",
              "      <td>38.146</td>\n",
              "      <td>38.146</td>\n",
              "      <td>38.146</td>\n",
              "      <td>38.146</td>\n",
              "      <td>38.146</td>\n",
              "      <td>38.146</td>\n",
              "      <td>...</td>\n",
              "      <td>38.146</td>\n",
              "      <td>38.146</td>\n",
              "      <td>38.146</td>\n",
              "      <td>38.146</td>\n",
              "      <td>38.146</td>\n",
              "      <td>38.146</td>\n",
              "      <td>38.146</td>\n",
              "      <td>38.146</td>\n",
              "      <td>38.146</td>\n",
              "      <td>38.146</td>\n",
              "    </tr>\n",
              "    <tr>\n",
              "      <th>tmpf</th>\n",
              "      <td>55.0</td>\n",
              "      <td>55.0</td>\n",
              "      <td>52.0</td>\n",
              "      <td>57.0</td>\n",
              "      <td>57.0</td>\n",
              "      <td>55.9</td>\n",
              "      <td>54.0</td>\n",
              "      <td>53.1</td>\n",
              "      <td>53.1</td>\n",
              "      <td>51.1</td>\n",
              "      <td>...</td>\n",
              "      <td>51.1</td>\n",
              "      <td>52.0</td>\n",
              "      <td>53.1</td>\n",
              "      <td>53.1</td>\n",
              "      <td>54.0</td>\n",
              "      <td>54.0</td>\n",
              "      <td>55.0</td>\n",
              "      <td>55.0</td>\n",
              "      <td>54.0</td>\n",
              "      <td>54.0</td>\n",
              "    </tr>\n",
              "    <tr>\n",
              "      <th>dwpf</th>\n",
              "      <td>30.90</td>\n",
              "      <td>37.00</td>\n",
              "      <td>41.00</td>\n",
              "      <td>46.90</td>\n",
              "      <td>48.00</td>\n",
              "      <td>46.90</td>\n",
              "      <td>46.00</td>\n",
              "      <td>46.90</td>\n",
              "      <td>46.00</td>\n",
              "      <td>46.00</td>\n",
              "      <td>...</td>\n",
              "      <td>43.00</td>\n",
              "      <td>42.10</td>\n",
              "      <td>42.10</td>\n",
              "      <td>42.10</td>\n",
              "      <td>42.10</td>\n",
              "      <td>41.00</td>\n",
              "      <td>39.90</td>\n",
              "      <td>39.90</td>\n",
              "      <td>37.00</td>\n",
              "      <td>37.00</td>\n",
              "    </tr>\n",
              "    <tr>\n",
              "      <th>relh</th>\n",
              "      <td>39.63</td>\n",
              "      <td>50.58</td>\n",
              "      <td>66.00</td>\n",
              "      <td>68.90</td>\n",
              "      <td>71.81</td>\n",
              "      <td>71.69</td>\n",
              "      <td>74.26</td>\n",
              "      <td>79.40</td>\n",
              "      <td>76.75</td>\n",
              "      <td>82.62</td>\n",
              "      <td>...</td>\n",
              "      <td>73.69</td>\n",
              "      <td>68.86</td>\n",
              "      <td>66.13</td>\n",
              "      <td>66.13</td>\n",
              "      <td>63.98</td>\n",
              "      <td>61.32</td>\n",
              "      <td>56.66</td>\n",
              "      <td>56.66</td>\n",
              "      <td>52.45</td>\n",
              "      <td>52.45</td>\n",
              "    </tr>\n",
              "    <tr>\n",
              "      <th>drct</th>\n",
              "      <td>130.00</td>\n",
              "      <td>140.00</td>\n",
              "      <td>150.00</td>\n",
              "      <td>180.00</td>\n",
              "      <td>190.00</td>\n",
              "      <td>190.00</td>\n",
              "      <td>0.00</td>\n",
              "      <td>0.00</td>\n",
              "      <td>190.00</td>\n",
              "      <td>0.00</td>\n",
              "      <td>...</td>\n",
              "      <td>30.00</td>\n",
              "      <td>30.00</td>\n",
              "      <td>30.00</td>\n",
              "      <td>M</td>\n",
              "      <td>30.00</td>\n",
              "      <td>40.00</td>\n",
              "      <td>M</td>\n",
              "      <td>40.00</td>\n",
              "      <td>50.00</td>\n",
              "      <td>M</td>\n",
              "    </tr>\n",
              "    <tr>\n",
              "      <th>sknt</th>\n",
              "      <td>5.0</td>\n",
              "      <td>4.0</td>\n",
              "      <td>4.0</td>\n",
              "      <td>6.0</td>\n",
              "      <td>4.0</td>\n",
              "      <td>3.0</td>\n",
              "      <td>0.0</td>\n",
              "      <td>0.0</td>\n",
              "      <td>4.0</td>\n",
              "      <td>0.0</td>\n",
              "      <td>...</td>\n",
              "      <td>8.0</td>\n",
              "      <td>9.0</td>\n",
              "      <td>8.0</td>\n",
              "      <td>6.0</td>\n",
              "      <td>7.0</td>\n",
              "      <td>8.0</td>\n",
              "      <td>6.0</td>\n",
              "      <td>9.0</td>\n",
              "      <td>9.0</td>\n",
              "      <td>6.0</td>\n",
              "    </tr>\n",
              "    <tr>\n",
              "      <th>p01i</th>\n",
              "      <td>0.0</td>\n",
              "      <td>0.0</td>\n",
              "      <td>0.0</td>\n",
              "      <td>0.0</td>\n",
              "      <td>0.0</td>\n",
              "      <td>0.0</td>\n",
              "      <td>0.0</td>\n",
              "      <td>0.0</td>\n",
              "      <td>0.0</td>\n",
              "      <td>0.0</td>\n",
              "      <td>...</td>\n",
              "      <td>0.0</td>\n",
              "      <td>0.0</td>\n",
              "      <td>0.0</td>\n",
              "      <td>0.0</td>\n",
              "      <td>0.0</td>\n",
              "      <td>0.0</td>\n",
              "      <td>0.0</td>\n",
              "      <td>0.0</td>\n",
              "      <td>0.0</td>\n",
              "      <td>0.0</td>\n",
              "    </tr>\n",
              "    <tr>\n",
              "      <th>alti</th>\n",
              "      <td>30.11</td>\n",
              "      <td>30.11</td>\n",
              "      <td>30.11</td>\n",
              "      <td>30.11</td>\n",
              "      <td>30.12</td>\n",
              "      <td>30.12</td>\n",
              "      <td>30.1</td>\n",
              "      <td>30.1</td>\n",
              "      <td>30.1</td>\n",
              "      <td>30.1</td>\n",
              "      <td>...</td>\n",
              "      <td>30.01</td>\n",
              "      <td>30.01</td>\n",
              "      <td>30.02</td>\n",
              "      <td>30.04</td>\n",
              "      <td>30.04</td>\n",
              "      <td>30.03</td>\n",
              "      <td>30.04</td>\n",
              "      <td>30.05</td>\n",
              "      <td>30.06</td>\n",
              "      <td>30.09</td>\n",
              "    </tr>\n",
              "    <tr>\n",
              "      <th>mslp</th>\n",
              "      <td>1019.60</td>\n",
              "      <td>1019.70</td>\n",
              "      <td>1019.40</td>\n",
              "      <td>1019.70</td>\n",
              "      <td>1019.90</td>\n",
              "      <td>1020.00</td>\n",
              "      <td>1019.30</td>\n",
              "      <td>1019.10</td>\n",
              "      <td>1019.10</td>\n",
              "      <td>1019.30</td>\n",
              "      <td>...</td>\n",
              "      <td>1016.20</td>\n",
              "      <td>1016.10</td>\n",
              "      <td>1016.60</td>\n",
              "      <td>1017.10</td>\n",
              "      <td>M</td>\n",
              "      <td>1016.90</td>\n",
              "      <td>1017.00</td>\n",
              "      <td>1017.60</td>\n",
              "      <td>1018.00</td>\n",
              "      <td>1018.80</td>\n",
              "    </tr>\n",
              "    <tr>\n",
              "      <th>vsby</th>\n",
              "      <td>10.0</td>\n",
              "      <td>10.0</td>\n",
              "      <td>10.0</td>\n",
              "      <td>10.0</td>\n",
              "      <td>10.0</td>\n",
              "      <td>10.0</td>\n",
              "      <td>10.0</td>\n",
              "      <td>10.0</td>\n",
              "      <td>10.0</td>\n",
              "      <td>10.0</td>\n",
              "      <td>...</td>\n",
              "      <td>10.0</td>\n",
              "      <td>10.0</td>\n",
              "      <td>10.0</td>\n",
              "      <td>10.0</td>\n",
              "      <td>10.0</td>\n",
              "      <td>10.0</td>\n",
              "      <td>10.0</td>\n",
              "      <td>10.0</td>\n",
              "      <td>10.0</td>\n",
              "      <td>10.0</td>\n",
              "    </tr>\n",
              "    <tr>\n",
              "      <th>gust</th>\n",
              "      <td>M</td>\n",
              "      <td>M</td>\n",
              "      <td>M</td>\n",
              "      <td>M</td>\n",
              "      <td>M</td>\n",
              "      <td>M</td>\n",
              "      <td>M</td>\n",
              "      <td>M</td>\n",
              "      <td>M</td>\n",
              "      <td>M</td>\n",
              "      <td>...</td>\n",
              "      <td>17.00</td>\n",
              "      <td>19.00</td>\n",
              "      <td>18.00</td>\n",
              "      <td>15.00</td>\n",
              "      <td>M</td>\n",
              "      <td>17.00</td>\n",
              "      <td>20.00</td>\n",
              "      <td>16.00</td>\n",
              "      <td>20.00</td>\n",
              "      <td>16.00</td>\n",
              "    </tr>\n",
              "    <tr>\n",
              "      <th>skyc1</th>\n",
              "      <td>CLR</td>\n",
              "      <td>CLR</td>\n",
              "      <td>CLR</td>\n",
              "      <td>CLR</td>\n",
              "      <td>CLR</td>\n",
              "      <td>CLR</td>\n",
              "      <td>CLR</td>\n",
              "      <td>CLR</td>\n",
              "      <td>CLR</td>\n",
              "      <td>BKN</td>\n",
              "      <td>...</td>\n",
              "      <td>OVC</td>\n",
              "      <td>OVC</td>\n",
              "      <td>OVC</td>\n",
              "      <td>BKN</td>\n",
              "      <td>OVC</td>\n",
              "      <td>BKN</td>\n",
              "      <td>OVC</td>\n",
              "      <td>OVC</td>\n",
              "      <td>BKN</td>\n",
              "      <td>OVC</td>\n",
              "    </tr>\n",
              "    <tr>\n",
              "      <th>skyc2</th>\n",
              "      <td>M</td>\n",
              "      <td>M</td>\n",
              "      <td>M</td>\n",
              "      <td>M</td>\n",
              "      <td>M</td>\n",
              "      <td>M</td>\n",
              "      <td>M</td>\n",
              "      <td>M</td>\n",
              "      <td>M</td>\n",
              "      <td>M</td>\n",
              "      <td>...</td>\n",
              "      <td>M</td>\n",
              "      <td>M</td>\n",
              "      <td>M</td>\n",
              "      <td>OVC</td>\n",
              "      <td>M</td>\n",
              "      <td>OVC</td>\n",
              "      <td>M</td>\n",
              "      <td>M</td>\n",
              "      <td>OVC</td>\n",
              "      <td>M</td>\n",
              "    </tr>\n",
              "    <tr>\n",
              "      <th>skyc3</th>\n",
              "      <td>M</td>\n",
              "      <td>M</td>\n",
              "      <td>M</td>\n",
              "      <td>M</td>\n",
              "      <td>M</td>\n",
              "      <td>M</td>\n",
              "      <td>M</td>\n",
              "      <td>M</td>\n",
              "      <td>M</td>\n",
              "      <td>M</td>\n",
              "      <td>...</td>\n",
              "      <td>M</td>\n",
              "      <td>M</td>\n",
              "      <td>M</td>\n",
              "      <td>M</td>\n",
              "      <td>M</td>\n",
              "      <td>M</td>\n",
              "      <td>M</td>\n",
              "      <td>M</td>\n",
              "      <td>M</td>\n",
              "      <td>M</td>\n",
              "    </tr>\n",
              "    <tr>\n",
              "      <th>skyc4</th>\n",
              "      <td>M</td>\n",
              "      <td>M</td>\n",
              "      <td>M</td>\n",
              "      <td>M</td>\n",
              "      <td>M</td>\n",
              "      <td>M</td>\n",
              "      <td>M</td>\n",
              "      <td>M</td>\n",
              "      <td>M</td>\n",
              "      <td>M</td>\n",
              "      <td>...</td>\n",
              "      <td>M</td>\n",
              "      <td>M</td>\n",
              "      <td>M</td>\n",
              "      <td>M</td>\n",
              "      <td>M</td>\n",
              "      <td>M</td>\n",
              "      <td>M</td>\n",
              "      <td>M</td>\n",
              "      <td>M</td>\n",
              "      <td>M</td>\n",
              "    </tr>\n",
              "    <tr>\n",
              "      <th>skyl1</th>\n",
              "      <td>M</td>\n",
              "      <td>M</td>\n",
              "      <td>M</td>\n",
              "      <td>M</td>\n",
              "      <td>M</td>\n",
              "      <td>M</td>\n",
              "      <td>M</td>\n",
              "      <td>M</td>\n",
              "      <td>M</td>\n",
              "      <td>8000.00</td>\n",
              "      <td>...</td>\n",
              "      <td>1800.00</td>\n",
              "      <td>2300.00</td>\n",
              "      <td>2600.00</td>\n",
              "      <td>2800.00</td>\n",
              "      <td>3000.00</td>\n",
              "      <td>3100.00</td>\n",
              "      <td>3700.00</td>\n",
              "      <td>4500.00</td>\n",
              "      <td>5000.00</td>\n",
              "      <td>6500.00</td>\n",
              "    </tr>\n",
              "    <tr>\n",
              "      <th>skyl2</th>\n",
              "      <td>M</td>\n",
              "      <td>M</td>\n",
              "      <td>M</td>\n",
              "      <td>M</td>\n",
              "      <td>M</td>\n",
              "      <td>M</td>\n",
              "      <td>M</td>\n",
              "      <td>M</td>\n",
              "      <td>M</td>\n",
              "      <td>M</td>\n",
              "      <td>...</td>\n",
              "      <td>M</td>\n",
              "      <td>M</td>\n",
              "      <td>M</td>\n",
              "      <td>3300.00</td>\n",
              "      <td>M</td>\n",
              "      <td>3600.00</td>\n",
              "      <td>M</td>\n",
              "      <td>M</td>\n",
              "      <td>6000.00</td>\n",
              "      <td>M</td>\n",
              "    </tr>\n",
              "    <tr>\n",
              "      <th>skyl3</th>\n",
              "      <td>M</td>\n",
              "      <td>M</td>\n",
              "      <td>M</td>\n",
              "      <td>M</td>\n",
              "      <td>M</td>\n",
              "      <td>M</td>\n",
              "      <td>M</td>\n",
              "      <td>M</td>\n",
              "      <td>M</td>\n",
              "      <td>M</td>\n",
              "      <td>...</td>\n",
              "      <td>M</td>\n",
              "      <td>M</td>\n",
              "      <td>M</td>\n",
              "      <td>M</td>\n",
              "      <td>M</td>\n",
              "      <td>M</td>\n",
              "      <td>M</td>\n",
              "      <td>M</td>\n",
              "      <td>M</td>\n",
              "      <td>M</td>\n",
              "    </tr>\n",
              "    <tr>\n",
              "      <th>skyl4</th>\n",
              "      <td>M</td>\n",
              "      <td>M</td>\n",
              "      <td>M</td>\n",
              "      <td>M</td>\n",
              "      <td>M</td>\n",
              "      <td>M</td>\n",
              "      <td>M</td>\n",
              "      <td>M</td>\n",
              "      <td>M</td>\n",
              "      <td>M</td>\n",
              "      <td>...</td>\n",
              "      <td>M</td>\n",
              "      <td>M</td>\n",
              "      <td>M</td>\n",
              "      <td>M</td>\n",
              "      <td>M</td>\n",
              "      <td>M</td>\n",
              "      <td>M</td>\n",
              "      <td>M</td>\n",
              "      <td>M</td>\n",
              "      <td>M</td>\n",
              "    </tr>\n",
              "    <tr>\n",
              "      <th>wxcodes</th>\n",
              "      <td>M</td>\n",
              "      <td>M</td>\n",
              "      <td>M</td>\n",
              "      <td>M</td>\n",
              "      <td>M</td>\n",
              "      <td>M</td>\n",
              "      <td>M</td>\n",
              "      <td>M</td>\n",
              "      <td>M</td>\n",
              "      <td>M</td>\n",
              "      <td>...</td>\n",
              "      <td>M</td>\n",
              "      <td>M</td>\n",
              "      <td>M</td>\n",
              "      <td>M</td>\n",
              "      <td>M</td>\n",
              "      <td>M</td>\n",
              "      <td>M</td>\n",
              "      <td>M</td>\n",
              "      <td>M</td>\n",
              "      <td>M</td>\n",
              "    </tr>\n",
              "    <tr>\n",
              "      <th>ice_accretion_1hr</th>\n",
              "      <td>M</td>\n",
              "      <td>M</td>\n",
              "      <td>M</td>\n",
              "      <td>M</td>\n",
              "      <td>M</td>\n",
              "      <td>M</td>\n",
              "      <td>M</td>\n",
              "      <td>M</td>\n",
              "      <td>M</td>\n",
              "      <td>M</td>\n",
              "      <td>...</td>\n",
              "      <td>M</td>\n",
              "      <td>M</td>\n",
              "      <td>M</td>\n",
              "      <td>M</td>\n",
              "      <td>M</td>\n",
              "      <td>M</td>\n",
              "      <td>M</td>\n",
              "      <td>M</td>\n",
              "      <td>M</td>\n",
              "      <td>M</td>\n",
              "    </tr>\n",
              "    <tr>\n",
              "      <th>ice_accretion_3hr</th>\n",
              "      <td>M</td>\n",
              "      <td>M</td>\n",
              "      <td>M</td>\n",
              "      <td>M</td>\n",
              "      <td>M</td>\n",
              "      <td>M</td>\n",
              "      <td>M</td>\n",
              "      <td>M</td>\n",
              "      <td>M</td>\n",
              "      <td>M</td>\n",
              "      <td>...</td>\n",
              "      <td>M</td>\n",
              "      <td>M</td>\n",
              "      <td>M</td>\n",
              "      <td>M</td>\n",
              "      <td>M</td>\n",
              "      <td>M</td>\n",
              "      <td>M</td>\n",
              "      <td>M</td>\n",
              "      <td>M</td>\n",
              "      <td>M</td>\n",
              "    </tr>\n",
              "    <tr>\n",
              "      <th>ice_accretion_6hr</th>\n",
              "      <td>M</td>\n",
              "      <td>M</td>\n",
              "      <td>M</td>\n",
              "      <td>M</td>\n",
              "      <td>M</td>\n",
              "      <td>M</td>\n",
              "      <td>M</td>\n",
              "      <td>M</td>\n",
              "      <td>M</td>\n",
              "      <td>M</td>\n",
              "      <td>...</td>\n",
              "      <td>M</td>\n",
              "      <td>M</td>\n",
              "      <td>M</td>\n",
              "      <td>M</td>\n",
              "      <td>M</td>\n",
              "      <td>M</td>\n",
              "      <td>M</td>\n",
              "      <td>M</td>\n",
              "      <td>M</td>\n",
              "      <td>M</td>\n",
              "    </tr>\n",
              "    <tr>\n",
              "      <th>peak_wind_gust</th>\n",
              "      <td>M</td>\n",
              "      <td>M</td>\n",
              "      <td>M</td>\n",
              "      <td>M</td>\n",
              "      <td>M</td>\n",
              "      <td>M</td>\n",
              "      <td>M</td>\n",
              "      <td>M</td>\n",
              "      <td>M</td>\n",
              "      <td>M</td>\n",
              "      <td>...</td>\n",
              "      <td>26.00</td>\n",
              "      <td>M</td>\n",
              "      <td>M</td>\n",
              "      <td>M</td>\n",
              "      <td>M</td>\n",
              "      <td>M</td>\n",
              "      <td>M</td>\n",
              "      <td>M</td>\n",
              "      <td>26.00</td>\n",
              "      <td>M</td>\n",
              "    </tr>\n",
              "    <tr>\n",
              "      <th>peak_wind_drct</th>\n",
              "      <td>M</td>\n",
              "      <td>M</td>\n",
              "      <td>M</td>\n",
              "      <td>M</td>\n",
              "      <td>M</td>\n",
              "      <td>M</td>\n",
              "      <td>M</td>\n",
              "      <td>M</td>\n",
              "      <td>M</td>\n",
              "      <td>M</td>\n",
              "      <td>...</td>\n",
              "      <td>30.00</td>\n",
              "      <td>M</td>\n",
              "      <td>M</td>\n",
              "      <td>M</td>\n",
              "      <td>M</td>\n",
              "      <td>M</td>\n",
              "      <td>M</td>\n",
              "      <td>M</td>\n",
              "      <td>40.00</td>\n",
              "      <td>M</td>\n",
              "    </tr>\n",
              "    <tr>\n",
              "      <th>peak_wind_time</th>\n",
              "      <td>M</td>\n",
              "      <td>M</td>\n",
              "      <td>M</td>\n",
              "      <td>M</td>\n",
              "      <td>M</td>\n",
              "      <td>M</td>\n",
              "      <td>M</td>\n",
              "      <td>M</td>\n",
              "      <td>M</td>\n",
              "      <td>M</td>\n",
              "      <td>...</td>\n",
              "      <td>2022-05-08 15:29</td>\n",
              "      <td>M</td>\n",
              "      <td>M</td>\n",
              "      <td>M</td>\n",
              "      <td>M</td>\n",
              "      <td>M</td>\n",
              "      <td>M</td>\n",
              "      <td>M</td>\n",
              "      <td>2022-05-08 22:27</td>\n",
              "      <td>M</td>\n",
              "    </tr>\n",
              "    <tr>\n",
              "      <th>feel</th>\n",
              "      <td>55.00</td>\n",
              "      <td>55.00</td>\n",
              "      <td>52.00</td>\n",
              "      <td>57.00</td>\n",
              "      <td>57.00</td>\n",
              "      <td>55.90</td>\n",
              "      <td>54.00</td>\n",
              "      <td>53.10</td>\n",
              "      <td>53.10</td>\n",
              "      <td>51.10</td>\n",
              "      <td>...</td>\n",
              "      <td>51.10</td>\n",
              "      <td>52.00</td>\n",
              "      <td>53.10</td>\n",
              "      <td>53.10</td>\n",
              "      <td>54.00</td>\n",
              "      <td>54.00</td>\n",
              "      <td>55.00</td>\n",
              "      <td>55.00</td>\n",
              "      <td>54.00</td>\n",
              "      <td>54.00</td>\n",
              "    </tr>\n",
              "    <tr>\n",
              "      <th>metar</th>\n",
              "      <td>KNUI 010053Z AUTO 13005KT 10SM CLR 13/M01 A301...</td>\n",
              "      <td>KNUI 010153Z AUTO 14004KT 10SM CLR 13/03 A3011...</td>\n",
              "      <td>KNUI 010253Z AUTO 15004KT 10SM CLR 11/05 A3011...</td>\n",
              "      <td>KNUI 010353Z AUTO 18006KT 10SM CLR 14/08 A3011...</td>\n",
              "      <td>KNUI 010453Z AUTO 19004KT 10SM CLR 14/09 A3012...</td>\n",
              "      <td>KNUI 010553Z AUTO 19003KT 10SM CLR 13/08 A3012...</td>\n",
              "      <td>KNUI 010653Z AUTO 00000KT 10SM CLR 12/08 A3010...</td>\n",
              "      <td>KNUI 010753Z AUTO 00000KT 10SM CLR 12/08 A3010...</td>\n",
              "      <td>KNUI 010853Z AUTO 19004KT 10SM CLR 12/08 A3010...</td>\n",
              "      <td>KNUI 010953Z AUTO 00000KT 10SM BKN080 11/08 A3...</td>\n",
              "      <td>...</td>\n",
              "      <td>KNUI 081553Z AUTO 03008G17KT 360V070 10SM OVC0...</td>\n",
              "      <td>KNUI 081653Z AUTO 03009G19KT 010V080 10SM OVC0...</td>\n",
              "      <td>KNUI 081753Z AUTO 03008G18KT 10SM OVC026 12/06...</td>\n",
              "      <td>KNUI 081853Z AUTO VRB06G15KT 10SM BKN028 OVC03...</td>\n",
              "      <td>KNUI 081926Z AUTO 03007KT 300V040 10SM OVC030 ...</td>\n",
              "      <td>KNUI 081953Z AUTO 04008G17KT 10SM BKN031 OVC03...</td>\n",
              "      <td>KNUI 082053Z AUTO VRB06G20KT 10SM OVC037 13/04...</td>\n",
              "      <td>KNUI 082153Z AUTO 04009G16KT 010V070 10SM OVC0...</td>\n",
              "      <td>KNUI 082253Z AUTO 05009G20KT 10SM BKN050 OVC06...</td>\n",
              "      <td>KNUI 082353Z AUTO VRB06G16KT 10SM OVC065 12/03...</td>\n",
              "    </tr>\n",
              "    <tr>\n",
              "      <th>snowdepth</th>\n",
              "      <td>M</td>\n",
              "      <td>M</td>\n",
              "      <td>M</td>\n",
              "      <td>M</td>\n",
              "      <td>M</td>\n",
              "      <td>M</td>\n",
              "      <td>M</td>\n",
              "      <td>M</td>\n",
              "      <td>M</td>\n",
              "      <td>M</td>\n",
              "      <td>...</td>\n",
              "      <td>M</td>\n",
              "      <td>M</td>\n",
              "      <td>M</td>\n",
              "      <td>M</td>\n",
              "      <td>M</td>\n",
              "      <td>M</td>\n",
              "      <td>M</td>\n",
              "      <td>M</td>\n",
              "      <td>M</td>\n",
              "      <td>M</td>\n",
              "    </tr>\n",
              "  </tbody>\n",
              "</table>\n",
              "<p>32 rows  288 columns</p>\n",
              "</div>\n",
              "      <button class=\"colab-df-convert\" onclick=\"convertToInteractive('df-38a5df00-0f3f-443e-95f4-d63c26a97368')\"\n",
              "              title=\"Convert this dataframe to an interactive table.\"\n",
              "              style=\"display:none;\">\n",
              "        \n",
              "  <svg xmlns=\"http://www.w3.org/2000/svg\" height=\"24px\"viewBox=\"0 0 24 24\"\n",
              "       width=\"24px\">\n",
              "    <path d=\"M0 0h24v24H0V0z\" fill=\"none\"/>\n",
              "    <path d=\"M18.56 5.44l.94 2.06.94-2.06 2.06-.94-2.06-.94-.94-2.06-.94 2.06-2.06.94zm-11 1L8.5 8.5l.94-2.06 2.06-.94-2.06-.94L8.5 2.5l-.94 2.06-2.06.94zm10 10l.94 2.06.94-2.06 2.06-.94-2.06-.94-.94-2.06-.94 2.06-2.06.94z\"/><path d=\"M17.41 7.96l-1.37-1.37c-.4-.4-.92-.59-1.43-.59-.52 0-1.04.2-1.43.59L10.3 9.45l-7.72 7.72c-.78.78-.78 2.05 0 2.83L4 21.41c.39.39.9.59 1.41.59.51 0 1.02-.2 1.41-.59l7.78-7.78 2.81-2.81c.8-.78.8-2.07 0-2.86zM5.41 20L4 18.59l7.72-7.72 1.47 1.35L5.41 20z\"/>\n",
              "  </svg>\n",
              "      </button>\n",
              "      \n",
              "  <style>\n",
              "    .colab-df-container {\n",
              "      display:flex;\n",
              "      flex-wrap:wrap;\n",
              "      gap: 12px;\n",
              "    }\n",
              "\n",
              "    .colab-df-convert {\n",
              "      background-color: #E8F0FE;\n",
              "      border: none;\n",
              "      border-radius: 50%;\n",
              "      cursor: pointer;\n",
              "      display: none;\n",
              "      fill: #1967D2;\n",
              "      height: 32px;\n",
              "      padding: 0 0 0 0;\n",
              "      width: 32px;\n",
              "    }\n",
              "\n",
              "    .colab-df-convert:hover {\n",
              "      background-color: #E2EBFA;\n",
              "      box-shadow: 0px 1px 2px rgba(60, 64, 67, 0.3), 0px 1px 3px 1px rgba(60, 64, 67, 0.15);\n",
              "      fill: #174EA6;\n",
              "    }\n",
              "\n",
              "    [theme=dark] .colab-df-convert {\n",
              "      background-color: #3B4455;\n",
              "      fill: #D2E3FC;\n",
              "    }\n",
              "\n",
              "    [theme=dark] .colab-df-convert:hover {\n",
              "      background-color: #434B5C;\n",
              "      box-shadow: 0px 1px 3px 1px rgba(0, 0, 0, 0.15);\n",
              "      filter: drop-shadow(0px 1px 2px rgba(0, 0, 0, 0.3));\n",
              "      fill: #FFFFFF;\n",
              "    }\n",
              "  </style>\n",
              "\n",
              "      <script>\n",
              "        const buttonEl =\n",
              "          document.querySelector('#df-38a5df00-0f3f-443e-95f4-d63c26a97368 button.colab-df-convert');\n",
              "        buttonEl.style.display =\n",
              "          google.colab.kernel.accessAllowed ? 'block' : 'none';\n",
              "\n",
              "        async function convertToInteractive(key) {\n",
              "          const element = document.querySelector('#df-38a5df00-0f3f-443e-95f4-d63c26a97368');\n",
              "          const dataTable =\n",
              "            await google.colab.kernel.invokeFunction('convertToInteractive',\n",
              "                                                     [key], {});\n",
              "          if (!dataTable) return;\n",
              "\n",
              "          const docLinkHtml = 'Like what you see? Visit the ' +\n",
              "            '<a target=\"_blank\" href=https://colab.research.google.com/notebooks/data_table.ipynb>data table notebook</a>'\n",
              "            + ' to learn more about interactive tables.';\n",
              "          element.innerHTML = '';\n",
              "          dataTable['output_type'] = 'display_data';\n",
              "          await google.colab.output.renderOutput(dataTable, element);\n",
              "          const docLink = document.createElement('div');\n",
              "          docLink.innerHTML = docLinkHtml;\n",
              "          element.appendChild(docLink);\n",
              "        }\n",
              "      </script>\n",
              "    </div>\n",
              "  </div>\n",
              "  "
            ]
          },
          "metadata": {},
          "execution_count": 61
        }
      ]
    },
    {
      "cell_type": "code",
      "source": [
        ""
      ],
      "metadata": {
        "id": "LFweaWPP8hhr"
      },
      "execution_count": null,
      "outputs": []
    }
  ]
}